{ "type": "Feature", "properties": { "PA_NO": "201", "Basin_Subb": "201-0", "ShapeSTAre": 7159512109.7526503, "ShapeSTLen": 609719.48576773598, "NAME": "North Bay" }, "geometry": { "type": "Polygon", "coordinates": [ [ [ -122.1260575908, 38.6146791893 ], [ -122.1710095383, 38.6166691284 ], [ -122.1764694222, 38.5821895474 ], [ -122.2172761962, 38.5828494247 ], [ -122.273891783, 38.6475174837 ], [ -122.2569625752, 38.6575465828 ], [ -122.2915215942, 38.7304241351 ], [ -122.3463017783, 38.7532797643 ], [ -122.3820693655, 38.7403927361 ], [ -122.4362188865, 38.7806979726 ], [ -122.5329473338, 38.8000153209 ], [ -122.6219732315, 38.8533789589 ], [ -122.6467870101, 38.7860448132 ], [ -122.6208481949, 38.7479353444 ], [ -122.5445435646, 38.7080946446 ], [ -122.5295262734, 38.66086358 ], [ -122.5724771832, 38.6528565116 ], [ -122.6176166458, 38.5980698436 ], [ -122.5741210606, 38.5165822189 ], [ -122.6554706027, 38.5222982089 ], [ -122.7067103538, 38.50328081 ], [ -122.7688065559, 38.4073043219 ], [ -122.87997766, 38.4437631351 ], [ -122.9398687065, 38.4342104701 ], [ -122.9790413965, 38.4575911703 ], [ -122.9735962027, 38.4185561718 ], [ -122.9956873503, 38.4263974655 ], [ -122.9506349936, 38.3331425898 ], [ -123.0242825853, 38.1818914089 ], [ -122.9642619999, 38.1768905454 ], [ -122.9828964608, 38.1939252971 ], [ -122.9470871271, 38.2181406179 ], [ -122.8657193564, 38.2069869033 ], [ -122.7264947696, 38.0900060711 ], [ -122.6507063328, 38.0882236257 ], [ -122.5279699503, 38.0017828275 ], [ -122.4161336356, 38.0376410698 ], [ -122.4413750563, 38.1609015781 ], [ -122.3527284669, 38.2563489848 ], [ -122.211561206, 38.2475898992 ], [ -122.1472358812, 38.2187361656 ], [ -122.0511922304, 38.2518436386 ], [ -121.9111706386, 38.2318194614 ], [ -121.862818513, 38.252988248 ], [ -121.844382021, 38.2627729394 ], [ -121.8427378723, 38.2632595596 ], [ -121.8426575818, 38.2635798515 ], [ -121.8459404193, 38.2979195806 ], [ -121.8096810331, 38.3290587375 ], [ -121.869753268, 38.3915461253 ], [ -121.8875669544, 38.474503932 ], [ -121.9282593217, 38.4817324924 ], [ -121.9652419684, 38.5159154361 ], [ -121.9957272597, 38.5125675519 ], [ -121.9991847009, 38.4862740376 ], [ -122.060919306, 38.5148749264 ], [ -122.1260575908, 38.6146791893 ] ] ] } }
{ "type": "Feature", "properties": { "PA_NO": "502", "Basin_Subb": "502-0", "ShapeSTAre": 8656083713.7862701, "ShapeSTLen": 896867.27263492695, "NAME": "Upper Northwest Valley" }, "geometry": { "type": "Polygon", "coordinates": [ [ [ -122.5484916315, 40.9261986802 ], [ -122.5182482089, 40.9838911184 ], [ -122.5465958215, 41.0213217492 ], [ -122.5210377959, 41.0891631498 ], [ -122.5478009276, 41.195705141 ], [ -122.6014741555, 41.1627852602 ], [ -122.599997336, 41.09070485 ], [ -122.6660750736, 41.0164297791 ], [ -122.6583225696, 40.9778990486 ], [ -122.7172825644, 40.937480409 ], [ -122.7224297807, 40.8856199474 ], [ -122.7525088691, 40.8797909891 ], [ -122.6932781346, 40.7650190572 ], [ -122.7670120939, 40.7453788542 ], [ -122.7932275884, 40.704657631 ], [ -122.8460760515, 40.6949509105 ], [ -122.9014404387, 40.6354131375 ], [ -122.9988811153, 40.6080840936 ], [ -123.0166670896, 40.5624032476 ], [ -123.0656861864, 40.5348832792 ], [ -123.0690709863, 40.4973806139 ], [ -123.0512140811, 40.4577601216 ], [ -122.9749268484, 40.4223728049 ], [ -122.9895682035, 40.3349179452 ], [ -122.9683956183, 40.3286814257 ], [ -122.9521231481, 40.1878390334 ], [ -122.9100546032, 40.1258310068 ], [ -122.9513225686, 40.0952000061 ], [ -122.9434292851, 39.9906961977 ], [ -122.8948470714, 39.9418854121 ], [ -122.8066681924, 39.9152177478 ], [ -122.8100219789, 39.8920432705 ], [ -122.7792452858, 39.87696544 ], [ -122.8099061079, 39.863657311 ], [ -122.8070308315, 39.8422853512 ], [ -122.7275742275, 39.8040997218 ], [ -122.7216431646, 39.7792943993 ], [ -122.6980054011, 39.77356088 ], [ -122.7074827459, 39.7511563765 ], [ -122.668075416, 39.7291100026 ], [ -122.6844246589, 39.7079494695 ], [ -122.7180459401, 39.7048353935 ], [ -122.7422882779, 39.6202077284 ], [ -122.7843247153, 39.6313526619 ], [ -122.8108005559, 39.5979771561 ], [ -122.7428103024, 39.5561765137 ], [ -122.7753709661, 39.5007972547 ], [ -122.6509645598, 39.4024675155 ], [ -122.5928280488, 39.4019755864 ], [ -122.5664018913, 39.4504496299 ], [ -122.5207655021, 39.4176219732 ], [ -122.4811516226, 39.4281297198 ], [ -122.4565448068, 39.3913891315 ], [ -122.41733995, 39.4133407406 ], [ -122.4545158611, 39.4715555036 ], [ -122.4403446034, 39.4959295731 ], [ -122.458180321, 39.6219555009 ], [ -122.5118011385, 39.7787176567 ], [ -122.5007921274, 39.810200789 ], [ -122.4665709998, 39.8225436844 ], [ -122.4679421353, 39.8655630212 ], [ -122.4415535974, 39.8875362788 ], [ -122.3410059384, 39.9488925515 ], [ -122.3494344373, 39.9917451684 ], [ -122.3303219163, 40.0224477606 ], [ -122.4716606467, 40.0116478437 ], [ -122.5164692581, 40.0203750507 ], [ -122.5335448006, 40.0458496801 ], [ -122.6216790423, 40.0601079666 ], [ -122.6621474379, 40.1063788784 ], [ -122.5656260388, 40.1521322589 ], [ -122.5124910248, 40.2066726212 ], [ -122.5173131292, 40.2323954319 ], [ -122.568766249, 40.250052612 ], [ -122.6505382499, 40.2221011015 ], [ -122.7392458889, 40.2517005662 ], [ -122.5270241204, 40.3748704831 ], [ -122.5451554233, 40.4038333567 ], [ -122.6508381192, 40.409941964 ], [ -122.552466337, 40.4535819194 ], [ -122.5691022019, 40.4941327423 ], [ -122.6271095477, 40.5098043466 ], [ -122.5668690386, 40.5427100995 ], [ -122.5368124413, 40.5917333462 ], [ -122.5518794228, 40.6806065374 ], [ -122.505121231, 40.7283425853 ], [ -122.5484916315, 40.9261986802 ] ] ] } }
{ "type": "Feature", "properties": { "PA_NO": "503", "Basin_Subb": "503-0", "ShapeSTAre": 5694797862.0041704, "ShapeSTLen": 670311.55693072395, "NAME": "Lower Northwest Valley" }, "geometry": { "type": "Polygon", "coordinates": [ [ [ -122.4175729299, 40.9077760171 ], [ -122.4390319797, 40.92037526 ], [ -122.499014348, 40.9029955983 ], [ -122.5484916315, 40.9261986802 ], [ -122.505121231, 40.7283425853 ], [ -122.5518794228, 40.6806065374 ], [ -122.5368124413, 40.5917333462 ], [ -122.5668690386, 40.5427100995 ], [ -122.6271095477, 40.5098043466 ], [ -122.5691022019, 40.4941327423 ], [ -122.552466337, 40.4535819194 ], [ -122.6508381192, 40.409941964 ], [ -122.5451554233, 40.4038333567 ], [ -122.5270241204, 40.3748704831 ], [ -122.7392458889, 40.2517005662 ], [ -122.6505382499, 40.2221011015 ], [ -122.568766249, 40.250052612 ], [ -122.5173131292, 40.2323954319 ], [ -122.5124910248, 40.2066726212 ], [ -122.5656260388, 40.1521322589 ], [ -122.6621474379, 40.1063788784 ], [ -122.6216790423, 40.0601079666 ], [ -122.5335448006, 40.0458496801 ], [ -122.5164692581, 40.0203750507 ], [ -122.4716606467, 40.0116478437 ], [ -122.3303219163, 40.0224477606 ], [ -122.3494344373, 39.9917451684 ], [ -122.3410059384, 39.9488925515 ], [ -122.4415535974, 39.8875362788 ], [ -122.2864555433, 39.9671434685 ], [ -122.252349569, 39.9516921082 ], [ -122.2523476124, 39.9165283527 ], [ -122.2159071781, 39.900645148 ], [ -122.2153613132, 39.8790313872 ], [ -122.1862438992, 39.9143917949 ], [ -122.0425364497, 39.8365563074 ], [ -122.0076146523, 39.9003936909 ], [ -121.9413742299, 39.8869542163 ], [ -121.9478197058, 39.9213118333 ], [ -121.9664174328, 39.909385655 ], [ -121.963865055, 39.9306952957 ], [ -121.9824403052, 39.9236694794 ], [ -122.0266764499, 39.9602494068 ], [ -122.02500428, 39.9887495103 ], [ -122.065239615, 40.0012473356 ], [ -122.040882998, 40.0704431037 ], [ -122.0658247389, 40.0648132949 ], [ -122.0937527611, 40.1001697124 ], [ -122.0811185055, 40.1453102734 ], [ -122.1155122372, 40.1849719792 ], [ -122.1147108267, 40.2835125647 ], [ -122.1438618898, 40.3020206249 ], [ -122.1440222472, 40.3292721135 ], [ -122.2065012044, 40.343733833 ], [ -122.2358125368, 40.3712655632 ], [ -122.1706712516, 40.4424586871 ], [ -122.1968193976, 40.4470501146 ], [ -122.2146907011, 40.4251801392 ], [ -122.2244160519, 40.4530059566 ], [ -122.1491215689, 40.5021499263 ], [ -122.1532889038, 40.5194542428 ], [ -122.1779849816, 40.5064610408 ], [ -122.2110989401, 40.5159879036 ], [ -122.1762223011, 40.544660334 ], [ -122.1989015514, 40.56689972 ], [ -122.1950924053, 40.6179688692 ], [ -122.2296517406, 40.6529359733 ], [ -122.3141907394, 40.6618315275 ], [ -122.366962251, 40.6949341023 ], [ -122.3651097901, 40.781241877 ], [ -122.4434083058, 40.790763292 ], [ -122.4384536883, 40.8432708524 ], [ -122.4601494218, 40.8632972705 ], [ -122.4175729299, 40.9077760171 ] ] ] } }
{ "type": "Feature", "properties": { "PA_NO": "504", "Basin_Subb": "504-0", "ShapeSTAre": 11599462616.1147, "ShapeSTLen": 675396.35554730601, "NAME": "Northeast Valley" }, "geometry": { "type": "Polygon", "coordinates": [ [ [ -121.5090962796, 40.6757986145 ], [ -121.5130692586, 40.7310815977 ], [ -121.6191840317, 40.7763577446 ], [ -121.6388331837, 40.8516881351 ], [ -121.744744518, 40.8988500514 ], [ -121.7534361738, 40.9273767742 ], [ -121.7893148225, 40.9320874887 ], [ -121.7933121036, 40.962925762 ], [ -121.8336391467, 40.9852900928 ], [ -121.8616122256, 40.9747655241 ], [ -121.9394794889, 40.9952127602 ], [ -122.0302786152, 40.9909698292 ], [ -122.1426152609, 40.9079080971 ], [ -122.2592687095, 40.9158756241 ], [ -122.3109862817, 40.9419905343 ], [ -122.3829076132, 40.9034129852 ], [ -122.4175729299, 40.9077760171 ], [ -122.4601494218, 40.8632972705 ], [ -122.4384536883, 40.8432708524 ], [ -122.4434083058, 40.790763292 ], [ -122.3651097901, 40.781241877 ], [ -122.366962251, 40.6949341023 ], [ -122.3141907394, 40.6618315275 ], [ -122.2296517406, 40.6529359733 ], [ -122.1950924053, 40.6179688692 ], [ -122.1989015514, 40.56689972 ], [ -122.1762223011, 40.544660334 ], [ -122.2110989401, 40.5159879036 ], [ -122.1779849816, 40.5064610408 ], [ -122.1532889038, 40.5194542428 ], [ -122.1491215689, 40.5021499263 ], [ -122.2244160519, 40.4530059566 ], [ -122.2146907011, 40.4251801392 ], [ -122.1968193976, 40.4470501146 ], [ -122.1706712516, 40.4424586871 ], [ -122.2358125368, 40.3712655632 ], [ -122.2065012044, 40.343733833 ], [ -122.1440222472, 40.3292721135 ], [ -122.1438618898, 40.3020206249 ], [ -122.1147108267, 40.2835125647 ], [ -122.1155122372, 40.1849719792 ], [ -122.0811185055, 40.1453102734 ], [ -122.0937527611, 40.1001697124 ], [ -122.0658247389, 40.0648132949 ], [ -122.040882998, 40.0704431037 ], [ -122.065239615, 40.0012473356 ], [ -122.02500428, 39.9887495103 ], [ -122.0266764499, 39.9602494068 ], [ -121.9824403052, 39.9236694794 ], [ -121.963865055, 39.9306952957 ], [ -121.9664174328, 39.909385655 ], [ -121.9478197058, 39.9213118333 ], [ -121.9413742299, 39.8869542163 ], [ -121.8580349643, 39.90306712 ], [ -121.7625171999, 39.9606179376 ], [ -121.7497456674, 39.9154905592 ], [ -121.6936098419, 39.9156700344 ], [ -121.6934394387, 39.8576305259 ], [ -121.6369642828, 39.8581060655 ], [ -121.6367040624, 39.8870404167 ], [ -121.5731423326, 39.8724029028 ], [ -121.5808407041, 40.014726841 ], [ -121.5550110773, 40.0605009119 ], [ -121.583266539, 40.1053192203 ], [ -121.5481911836, 40.1261664138 ], [ -121.5165213756, 40.2365639094 ], [ -121.4388367703, 40.2831762441 ], [ -121.4189440688, 40.2527422161 ], [ -121.38054886, 40.2427747484 ], [ -121.3764102595, 40.2927017688 ], [ -121.404879212, 40.3052254119 ], [ -121.4108472127, 40.3413808165 ], [ -121.4464523181, 40.3451009313 ], [ -121.4443090357, 40.3803499767 ], [ -121.3667972619, 40.4032353046 ], [ -121.3498703618, 40.4647684768 ], [ -121.3725797667, 40.4870418922 ], [ -121.3420580497, 40.4977277548 ], [ -121.3789096358, 40.5293509768 ], [ -121.4737398513, 40.5426460452 ], [ -121.4727340463, 40.6136428431 ], [ -121.4981607266, 40.6215561655 ], [ -121.5090962796, 40.6757986145 ] ] ] } }
{ "type": "Feature", "properties": { "PA_NO": "506", "Basin_Subb": "506-0", "ShapeSTAre": 7197372469.45049, "ShapeSTLen": 581622.00772097497, "NAME": "Colusa Basin" }, "geometry": { "type": "Polygon", "coordinates": [ [ [ -121.9413742299, 39.8869542163 ], [ -122.0076146523, 39.9003936909 ], [ -122.0425364497, 39.8365563074 ], [ -122.1862438992, 39.9143917949 ], [ -122.2153613132, 39.8790313872 ], [ -122.2159071781, 39.900645148 ], [ -122.2523476124, 39.9165283527 ], [ -122.252349569, 39.9516921082 ], [ -122.2864555433, 39.9671434685 ], [ -122.4415535974, 39.8875362788 ], [ -122.4679421353, 39.8655630212 ], [ -122.4665709998, 39.8225436844 ], [ -122.5007921274, 39.810200789 ], [ -122.5118011385, 39.7787176567 ], [ -122.458180321, 39.6219555009 ], [ -122.4403446034, 39.4959295731 ], [ -122.4545158611, 39.4715555036 ], [ -122.41733995, 39.4133407406 ], [ -122.4034929086, 39.2691453815 ], [ -122.3859601433, 39.2342894785 ], [ -122.3588981142, 39.2442555947 ], [ -122.3219013523, 39.2081296179 ], [ -122.3192559629, 39.1263621198 ], [ -122.28522148, 39.1124012502 ], [ -122.2150044907, 39.1013451953 ], [ -122.1771301151, 39.0393274399 ], [ -122.1481260784, 39.0345212392 ], [ -122.1274714933, 38.9752820954 ], [ -122.0234394588, 38.9871244814 ], [ -121.9089801686, 38.9292948977 ], [ -121.8793310975, 38.880701686 ], [ -121.8034976964, 38.9218614419 ], [ -121.6655551484, 38.9035047102 ], [ -121.6649229581, 38.9536199454 ], [ -121.664927906, 38.9536409595 ], [ -121.6883784616, 38.9519913492 ], [ -121.6907919814, 38.9835026884 ], [ -121.722963273, 38.9909119833 ], [ -121.7301165846, 39.047279917 ], [ -121.7490586807, 39.0597705605 ], [ -121.7842673757, 39.0444648669 ], [ -121.8149796255, 39.0652649741 ], [ -121.7910911969, 39.0932134599 ], [ -121.8371157634, 39.1139582294 ], [ -121.8406229722, 39.1431930862 ], [ -121.7956054935, 39.1849057263 ], [ -121.826318046, 39.1993953647 ], [ -121.838888444, 39.252889078 ], [ -121.8892013214, 39.260928625 ], [ -121.9105568898, 39.3113164431 ], [ -121.9380914867, 39.321807711 ], [ -121.9171888938, 39.3364709149 ], [ -121.9452279342, 39.3684299943 ], [ -121.935089282, 39.3808698703 ], [ -121.9750515677, 39.3756491391 ], [ -122.0134400662, 39.4067615419 ], [ -121.9981430001, 39.4555395401 ], [ -122.0214982525, 39.4560799794 ], [ -122.0312140695, 39.5250633203 ], [ -121.9945817873, 39.6345294936 ], [ -121.9907628747, 39.6961209041 ], [ -122.0084960811, 39.7099594058 ], [ -121.9794540627, 39.8058579208 ], [ -121.9924257632, 39.8310954271 ], [ -121.9667770428, 39.8420012607 ], [ -121.9975909737, 39.8571187702 ], [ -121.9413742299, 39.8869542163 ] ] ] } }
{ "type": "Feature", "properties": { "PA_NO": "507", "Basin_Subb": "507-0", "ShapeSTAre": 6287153372.75245, "ShapeSTLen": 537001.62204853003, "NAME": "Butte-Sutter-Yuba" }, "geometry": { "type": "Polygon", "coordinates": [ [ [ -121.5731423326, 39.8724029028 ], [ -121.6367040624, 39.8870404167 ], [ -121.6369642828, 39.8581060655 ], [ -121.6934394387, 39.8576305259 ], [ -121.6936098419, 39.9156700344 ], [ -121.7497456674, 39.9154905592 ], [ -121.7625171999, 39.9606179376 ], [ -121.8580349643, 39.90306712 ], [ -121.9413742299, 39.8869542163 ], [ -121.9975909737, 39.8571187702 ], [ -121.9667770428, 39.8420012607 ], [ -121.9924257632, 39.8310954271 ], [ -121.9794540627, 39.8058579208 ], [ -122.0084960811, 39.7099594058 ], [ -121.9907628747, 39.6961209041 ], [ -121.9945817873, 39.6345294936 ], [ -122.0312140695, 39.5250633203 ], [ -122.0214982525, 39.4560799794 ], [ -121.9981430001, 39.4555395401 ], [ -122.0134400662, 39.4067615419 ], [ -121.9750515677, 39.3756491391 ], [ -121.935089282, 39.3808698703 ], [ -121.9452279342, 39.3684299943 ], [ -121.9171888938, 39.3364709149 ], [ -121.9380914867, 39.321807711 ], [ -121.9105568898, 39.3113164431 ], [ -121.8892013214, 39.260928625 ], [ -121.838888444, 39.252889078 ], [ -121.826318046, 39.1993953647 ], [ -121.7956054935, 39.1849057263 ], [ -121.8406229722, 39.1431930862 ], [ -121.8371157634, 39.1139582294 ], [ -121.7910911969, 39.0932134599 ], [ -121.8149796255, 39.0652649741 ], [ -121.7842673757, 39.0444648669 ], [ -121.7490586807, 39.0597705605 ], [ -121.7301165846, 39.047279917 ], [ -121.722963273, 38.9909119833 ], [ -121.6907919814, 38.9835026884 ], [ -121.6883784616, 38.9519913492 ], [ -121.664927906, 38.9536409595 ], [ -121.6649922173, 38.9539140285 ], [ -121.6212288147, 38.9724392064 ], [ -121.6401555963, 39.0084431932 ], [ -121.6290746051, 39.0401920369 ], [ -121.5434461978, 39.1606791816 ], [ -121.4147803362, 39.1847122086 ], [ -121.3354378937, 39.2273102335 ], [ -121.3476614548, 39.3019827185 ], [ -121.3942490017, 39.3284174382 ], [ -121.3548996616, 39.3685237638 ], [ -121.3964204354, 39.3597134859 ], [ -121.415208617, 39.4047086926 ], [ -121.4828106743, 39.3967307426 ], [ -121.4646300063, 39.4321341593 ], [ -121.4457693452, 39.4320732691 ], [ -121.4834657546, 39.4536583964 ], [ -121.464581306, 39.4810915814 ], [ -121.478665853, 39.4900064666 ], [ -121.4459544978, 39.5119893753 ], [ -121.5014861873, 39.5345716728 ], [ -121.518015052, 39.588709888 ], [ -121.5473079753, 39.5852324678 ], [ -121.5548683539, 39.7525606261 ], [ -121.5255372199, 39.8342108313 ], [ -121.5458511136, 39.834313262 ], [ -121.5731423326, 39.8724029028 ] ] ] } }
{ "type": "Feature", "properties": { "PA_NO": "508", "Basin_Subb": "508-0", "ShapeSTAre": 32877941803.38459, "ShapeSTLen": 1248244.3068954849, "NAME": "Southeast" }, "geometry": { "type": "Polygon", "coordinates": [ [ [ -119.985939138, 38.8517889068 ], [ -119.9927968796, 38.8959151582 ], [ -120.0518217858, 38.9284323261 ], [ -120.0535055044, 38.9831357238 ], [ -120.0299209786, 39.0113644047 ], [ -120.0984921987, 39.0177546296 ], [ -120.1526179772, 39.0730961196 ], [ -120.1644345503, 39.1109734274 ], [ -120.140784646, 39.1536505237 ], [ -120.2041963851, 39.2003611544 ], [ -120.1976639315, 39.2545137331 ], [ -120.2524753366, 39.2724612409 ], [ -120.2336382436, 39.3008015746 ], [ -120.2461007126, 39.3640469667 ], [ -120.2869794964, 39.3866366116 ], [ -120.2637862857, 39.4113649847 ], [ -120.3268154718, 39.4768442622 ], [ -120.3220425529, 39.5137918962 ], [ -120.3649228865, 39.5723188186 ], [ -120.3665083573, 39.6093797379 ], [ -120.4183907102, 39.6079245571 ], [ -120.4221158817, 39.6249831459 ], [ -120.4549106014, 39.6077940163 ], [ -120.465294314, 39.6262796486 ], [ -120.4399079996, 39.7036603323 ], [ -120.3086115465, 39.6860078587 ], [ -120.2305345715, 39.7126920276 ], [ -120.2055435508, 39.7388482732 ], [ -120.1946885981, 39.7284702755 ], [ -120.1209764913, 39.746064682 ], [ -120.1061940791, 39.7647039577 ], [ -120.1496687363, 39.914062967 ], [ -120.1013302067, 39.9667011782 ], [ -120.1221858357, 40.0454092546 ], [ -120.102967892, 40.1091416909 ], [ -120.2013659355, 40.2030725214 ], [ -120.2007680609, 40.2463410581 ], [ -120.2723510985, 40.3029406194 ], [ -120.4022917873, 40.3216746013 ], [ -120.4495882001, 40.3911921195 ], [ -120.4828464452, 40.3954882642 ], [ -120.4965485533, 40.4283810295 ], [ -120.5527935231, 40.4445392531 ], [ -120.5861125086, 40.4761795963 ], [ -120.6244401714, 40.4726925669 ], [ -120.6802589822, 40.5024501363 ], [ -120.7082045179, 40.4890965269 ], [ -120.7536813429, 40.5101006386 ], [ -120.7888594835, 40.4757177008 ], [ -120.8253771173, 40.4731805302 ], [ -120.8702021471, 40.5261468805 ], [ -120.8646300852, 40.5623518655 ], [ -120.9858282052, 40.610009223 ], [ -121.0536184524, 40.6714469142 ], [ -121.1371387176, 40.6777237649 ], [ -121.1739421001, 40.6615662496 ], [ -121.2215428676, 40.6877422901 ], [ -121.2583181508, 40.651073474 ], [ -121.3109032863, 40.6637361008 ], [ -121.3438051103, 40.6419267241 ], [ -121.3627263009, 40.6812896318 ], [ -121.4163388674, 40.6894595012 ], [ -121.4607720144, 40.6599934838 ], [ -121.5090962796, 40.6757986145 ], [ -121.4981607266, 40.6215561655 ], [ -121.4727340463, 40.6136428431 ], [ -121.4737398513, 40.5426460452 ], [ -121.3789096358, 40.5293509768 ], [ -121.3420580497, 40.4977277548 ], [ -121.3725797667, 40.4870418922 ], [ -121.3498703618, 40.4647684768 ], [ -121.3667972619, 40.4032353046 ], [ -121.4443090357, 40.3803499767 ], [ -121.4464523181, 40.3451009313 ], [ -121.4108472127, 40.3413808165 ], [ -121.404879212, 40.3052254119 ], [ -121.3764102595, 40.2927017688 ], [ -121.38054886, 40.2427747484 ], [ -121.4189440688, 40.2527422161 ], [ -121.4388367703, 40.2831762441 ], [ -121.5165213756, 40.2365639094 ], [ -121.5481911836, 40.1261664138 ], [ -121.583266539, 40.1053192203 ], [ -121.5550110773, 40.0605009119 ], [ -121.5808407041, 40.014726841 ], [ -121.5731423326, 39.8724029028 ], [ -121.5458511136, 39.834313262 ], [ -121.5255372199, 39.8342108313 ], [ -121.5548683539, 39.7525606261 ], [ -121.5473079753, 39.5852324678 ], [ -121.518015052, 39.588709888 ], [ -121.5014861873, 39.5345716728 ], [ -121.4459544978, 39.5119893753 ], [ -121.478665853, 39.4900064666 ], [ -121.464581306, 39.4810915814 ], [ -121.4834657546, 39.4536583964 ], [ -121.4457693452, 39.4320732691 ], [ -121.4646300063, 39.4321341593 ], [ -121.4828106743, 39.3967307426 ], [ -121.415208617, 39.4047086926 ], [ -121.3964204354, 39.3597134859 ], [ -121.3548996616, 39.3685237638 ], [ -121.3942490017, 39.3284174382 ], [ -121.3476614548, 39.3019827185 ], [ -121.3354378937, 39.2273102335 ], [ -121.2889935409, 39.1436680377 ], [ -121.2996130316, 39.129189565 ], [ -121.2667629119, 39.1286073238 ], [ -121.2646908291, 39.0573533359 ], [ -121.1978141784, 39.074313661 ], [ -121.1632894562, 39.0600383451 ], [ -121.2268204861, 39.0400189152 ], [ -121.2383564605, 38.9970652746 ], [ -121.2200801139, 39.014166305 ], [ -121.2480935523, 38.9758242286 ], [ -121.2289811652, 38.9638594499 ], [ -121.2464677193, 38.9553537835 ], [ -121.193730765, 38.9647842706 ], [ -121.2267792247, 38.9443841903 ], [ -121.2081476725, 38.9242056863 ], [ -121.2210268978, 38.9045729976 ], [ -121.1337398187, 38.8816553376 ], [ -121.0968626423, 38.8964629971 ], [ -121.0858022862, 38.8617797828 ], [ -121.0048456035, 38.8692355637 ], [ -120.9940540135, 38.9019999884 ], [ -120.9268281015, 38.8456820409 ], [ -120.9136945245, 38.8632244415 ], [ -120.8577090591, 38.8555732825 ], [ -120.8558904845, 38.8216794171 ], [ -120.8238031782, 38.886383488 ], [ -120.7451338999, 38.8621374798 ], [ -120.718191874, 38.8890670485 ], [ -120.6405044058, 38.8916229165 ], [ -120.5540080921, 38.9452082617 ], [ -120.4417731321, 38.934572843 ], [ -120.3909454364, 38.8929032893 ], [ -120.2491911103, 38.8459145969 ], [ -120.2301633418, 38.8155720531 ], [ -120.1461824348, 38.8313585483 ], [ -120.1210324285, 38.80227879 ], [ -119.985939138, 38.8517889068 ] ] ] } }
{ "type": "Feature", "properties": { "PA_NO": "509", "Basin_Subb": "509-0", "ShapeSTAre": 4065231547.53689, "ShapeSTLen": 566905.86620067805, "NAME": "Central Basin West" }, "geometry": { "type": "Polygon", "coordinates": [ [ [ -121.6649229581, 38.9536199454 ], [ -121.6655551484, 38.9035047102 ], [ -121.8034976964, 38.9218614419 ], [ -121.8793310975, 38.880701686 ], [ -121.9089801686, 38.9292948977 ], [ -122.0234394588, 38.9871244814 ], [ -122.1274714933, 38.9752820954 ], [ -122.1481260784, 39.0345212392 ], [ -122.1771301151, 39.0393274399 ], [ -122.2150044907, 39.1013451953 ], [ -122.28522148, 39.1124012502 ], [ -122.2875765995, 39.0280283811 ], [ -122.2227491264, 38.8877008773 ], [ -122.165195613, 38.841967435 ], [ -122.1666190088, 38.8075614782 ], [ -122.1493183072, 38.813203392 ], [ -122.1352812873, 38.7935478424 ], [ -122.1096729551, 38.70898882 ], [ -122.0816066913, 38.7024242579 ], [ -122.0799985228, 38.6545259463 ], [ -122.1260575908, 38.6146791893 ], [ -122.060919306, 38.5148749264 ], [ -121.9991847009, 38.4862740376 ], [ -121.9957272597, 38.5125675519 ], [ -121.9652419684, 38.5159154361 ], [ -121.9282593217, 38.4817324924 ], [ -121.8875669544, 38.474503932 ], [ -121.869753268, 38.3915461253 ], [ -121.8096810331, 38.3290587375 ], [ -121.8459404193, 38.2979195806 ], [ -121.8426575818, 38.2635798515 ], [ -121.8019223361, 38.2495818066 ], [ -121.7491365314, 38.2753011832 ], [ -121.7488160979, 38.2753491062 ], [ -121.6796873852, 38.3557556062 ], [ -121.7320208396, 38.4065947838 ], [ -121.8425363559, 38.4365951853 ], [ -121.8426513322, 38.4509836479 ], [ -121.7866878899, 38.4723045784 ], [ -121.7865604405, 38.5019708334 ], [ -121.7584971339, 38.4941941629 ], [ -121.7584483087, 38.5131836119 ], [ -121.7406777998, 38.5127590462 ], [ -121.740466101, 38.5455194887 ], [ -121.7776222393, 38.5600985423 ], [ -121.7773474474, 38.5820126006 ], [ -121.730682163, 38.5746148604 ], [ -121.7306550365, 38.6107469687 ], [ -121.7028832162, 38.6033732929 ], [ -121.7214028041, 38.6181297339 ], [ -121.7121669858, 38.647091291 ], [ -121.6750558916, 38.6540078875 ], [ -121.6872123881, 38.6179298102 ], [ -121.656696644, 38.6033585983 ], [ -121.6291876348, 38.6324869547 ], [ -121.6567166252, 38.6324308465 ], [ -121.6567193103, 38.6469152445 ], [ -121.603391552, 38.6685780061 ], [ -121.6397996317, 38.7071085208 ], [ -121.6857414606, 38.7072484118 ], [ -121.6754948848, 38.7334391682 ], [ -121.5062758679, 38.7739598299 ], [ -121.5170869711, 38.7909403362 ], [ -121.5498137853, 38.7870784751 ], [ -121.5675397207, 38.833646964 ], [ -121.5926623105, 38.8307625517 ], [ -121.6313092857, 38.8665574086 ], [ -121.592750331, 38.9464357942 ], [ -121.6212288147, 38.9724392064 ], [ -121.6649922173, 38.9539140285 ], [ -121.6649229581, 38.9536199454 ] ] ] } }
{ "type": "Feature", "properties": { "PA_NO": "510", "Basin_Subb": "510-0", "ShapeSTAre": 1844639007.88519, "ShapeSTLen": 382937.02430669498, "NAME": "Sacramento Delta" }, "geometry": { "type": "Polygon", "coordinates": [ [ [ -121.5062758679, 38.7739598299 ], [ -121.6754948848, 38.7334391682 ], [ -121.6857414606, 38.7072484118 ], [ -121.6397996317, 38.7071085208 ], [ -121.603391552, 38.6685780061 ], [ -121.6567193103, 38.6469152445 ], [ -121.6567166252, 38.6324308465 ], [ -121.6291876348, 38.6324869547 ], [ -121.656696644, 38.6033585983 ], [ -121.6872123881, 38.6179298102 ], [ -121.6750558916, 38.6540078875 ], [ -121.7121669858, 38.647091291 ], [ -121.7214028041, 38.6181297339 ], [ -121.7028832162, 38.6033732929 ], [ -121.7306550365, 38.6107469687 ], [ -121.730682163, 38.5746148604 ], [ -121.7773474474, 38.5820126006 ], [ -121.7776222393, 38.5600985423 ], [ -121.740466101, 38.5455194887 ], [ -121.7406777998, 38.5127590462 ], [ -121.7584483087, 38.5131836119 ], [ -121.7584971339, 38.4941941629 ], [ -121.7865604405, 38.5019708334 ], [ -121.7866878899, 38.4723045784 ], [ -121.8426513322, 38.4509836479 ], [ -121.8425363559, 38.4365951853 ], [ -121.7320208396, 38.4065947838 ], [ -121.6796873852, 38.3557556062 ], [ -121.7488160979, 38.2753491062 ], [ -121.7491365314, 38.2753011832 ], [ -121.8019223361, 38.2495818066 ], [ -121.8426575818, 38.2635798515 ], [ -121.8427378723, 38.2632595596 ], [ -121.844382021, 38.2627729394 ], [ -121.862818513, 38.252988248 ], [ -121.8334011794, 38.2200367226 ], [ -121.7508004539, 38.2110057953 ], [ -121.6819464693, 38.2465228089 ], [ -121.6724673144, 38.2810906737 ], [ -121.5662677584, 38.2841592701 ], [ -121.5835775213, 38.307147211 ], [ -121.5361120365, 38.3390353013 ], [ -121.5286987588, 38.3826187712 ], [ -121.4755905595, 38.4450742829 ], [ -121.3830015023, 38.4192375712 ], [ -121.3922060324, 38.460449865 ], [ -121.4160644824, 38.4704491351 ], [ -121.4407061195, 38.4777392355 ], [ -121.446468592, 38.5270826284 ], [ -121.4982656165, 38.530913273 ], [ -121.4546543014, 38.561265407 ], [ -121.4826046241, 38.5622718818 ], [ -121.482736213, 38.6835168682 ], [ -121.5209689444, 38.6945652647 ], [ -121.5062758679, 38.7739598299 ] ] ] } }
{ "type": "Feature", "properties": { "PA_NO": "511", "Basin_Subb": "511-0", "ShapeSTAre": 3470221626.3033199, "ShapeSTLen": 407863.940264398, "NAME": "Central Basin East" }, "geometry": { "type": "Polygon", "coordinates": [ [ [ -121.0858022862, 38.8617797828 ], [ -121.0968626423, 38.8964629971 ], [ -121.1337398187, 38.8816553376 ], [ -121.2210268978, 38.9045729976 ], [ -121.2081476725, 38.9242056863 ], [ -121.2267792247, 38.9443841903 ], [ -121.193730765, 38.9647842706 ], [ -121.2464677193, 38.9553537835 ], [ -121.2289811652, 38.9638594499 ], [ -121.2480935523, 38.9758242286 ], [ -121.2200801139, 39.014166305 ], [ -121.2383564605, 38.9970652746 ], [ -121.2268204861, 39.0400189152 ], [ -121.1632894562, 39.0600383451 ], [ -121.1978141784, 39.074313661 ], [ -121.2646908291, 39.0573533359 ], [ -121.2667629119, 39.1286073238 ], [ -121.2996130316, 39.129189565 ], [ -121.2889935409, 39.1436680377 ], [ -121.3354378937, 39.2273102335 ], [ -121.4147803362, 39.1847122086 ], [ -121.5434461978, 39.1606791816 ], [ -121.6290746051, 39.0401920369 ], [ -121.6401555963, 39.0084431932 ], [ -121.6212288147, 38.9724392064 ], [ -121.592750331, 38.9464357942 ], [ -121.6313092857, 38.8665574086 ], [ -121.5926623105, 38.8307625517 ], [ -121.5675397207, 38.833646964 ], [ -121.5498137853, 38.7870784751 ], [ -121.5170869711, 38.7909403362 ], [ -121.5062758679, 38.7739598299 ], [ -121.5209689444, 38.6945652647 ], [ -121.482736213, 38.6835168682 ], [ -121.4826046241, 38.5622718818 ], [ -121.4546543014, 38.561265407 ], [ -121.4982656165, 38.530913273 ], [ -121.446468592, 38.5270826284 ], [ -121.4407061195, 38.4777392355 ], [ -121.4160644824, 38.4704491351 ], [ -121.4005241867, 38.5288686514 ], [ -121.3643237714, 38.5420201059 ], [ -121.2743006997, 38.6369701488 ], [ -121.2756573265, 38.6645297733 ], [ -121.2368295608, 38.6646953616 ], [ -121.1748920164, 38.7243321983 ], [ -121.1762654713, 38.7557299297 ], [ -121.1415880032, 38.7988690309 ], [ -121.083533114, 38.8122878039 ], [ -121.0858022862, 38.8617797828 ] ] ] } }
{ "type": "Feature", "properties": { "PA_NO": "601", "Basin_Subb": "601-0", "ShapeSTAre": 1311067886.20399, "ShapeSTLen": 336140.47505470598, "NAME": "Upper West Side Uplands" }, "geometry": { "type": "Polygon", "coordinates": [ [ [ -121.7508004539, 38.2110057953 ], [ -121.8334011794, 38.2200367226 ], [ -121.8835620376, 38.1283102091 ], [ -121.8729290488, 38.1042961487 ], [ -121.9365415559, 38.0433821744 ], [ -121.8303304251, 38.0219772937 ], [ -121.7399389453, 37.9473016582 ], [ -121.656492765, 37.9540623746 ], [ -121.6592118163, 37.8952289458 ], [ -121.6079931442, 37.8449223577 ], [ -121.6203452982, 37.7918456403 ], [ -121.5460338884, 37.7186962419 ], [ -121.5013269933, 37.7109490611 ], [ -121.482159597, 37.6874353619 ], [ -121.4633749, 37.719513013 ], [ -121.532947924, 37.758562737 ], [ -121.502415958, 37.7777127087 ], [ -121.4540653739, 37.7753566415 ], [ -121.4736357913, 37.7915967255 ], [ -121.4213447284, 37.8199140489 ], [ -121.3149797422, 37.8099442422 ], [ -121.3151905984, 37.8244061034 ], [ -121.3703791359, 37.8314414217 ], [ -121.3888203378, 37.8678946438 ], [ -121.4436414509, 37.8789840766 ], [ -121.4346322973, 37.8984504171 ], [ -121.5496579797, 37.9312402146 ], [ -121.5866435621, 37.9738306025 ], [ -121.6282406766, 37.9812653912 ], [ -121.6278233777, 38.0352625089 ], [ -121.684796141, 38.0817523573 ], [ -121.7203563764, 38.0787616906 ], [ -121.741243565, 38.1071508095 ], [ -121.7599280217, 38.1553848587 ], [ -121.6908864869, 38.1613451913 ], [ -121.7508004539, 38.2110057953 ] ] ] } }
{ "type": "Feature", "properties": { "PA_NO": "602", "Basin_Subb": "602-0", "ShapeSTAre": 2608863049.5725999, "ShapeSTLen": 371366.246614584, "NAME": "San Joaquin Delta" }, "geometry": { "type": "Polygon", "coordinates": [ [ [ -121.3830015023, 38.4192375712 ], [ -121.4755905595, 38.4450742829 ], [ -121.5286987588, 38.3826187712 ], [ -121.5361120365, 38.3390353013 ], [ -121.5835775213, 38.307147211 ], [ -121.5662677584, 38.2841592701 ], [ -121.6724673144, 38.2810906737 ], [ -121.6819464693, 38.2465228089 ], [ -121.7508004539, 38.2110057953 ], [ -121.6908864869, 38.1613451913 ], [ -121.7599280217, 38.1553848587 ], [ -121.741243565, 38.1071508095 ], [ -121.7203563764, 38.0787616906 ], [ -121.684796141, 38.0817523573 ], [ -121.6278233777, 38.0352625089 ], [ -121.6282406766, 37.9812653912 ], [ -121.5866435621, 37.9738306025 ], [ -121.5496579797, 37.9312402146 ], [ -121.4346322973, 37.8984504171 ], [ -121.4436414509, 37.8789840766 ], [ -121.3888203378, 37.8678946438 ], [ -121.3703791359, 37.8314414217 ], [ -121.3151905984, 37.8244061034 ], [ -121.3149797422, 37.8099442422 ], [ -121.2876237367, 37.817823458 ], [ -121.3421703921, 37.8672067684 ], [ -121.2984542777, 37.8826672817 ], [ -121.2645498466, 37.8621293089 ], [ -121.239286454, 37.8858399066 ], [ -121.2588599535, 37.885631407 ], [ -121.2700279637, 37.9541959774 ], [ -121.2892728002, 37.9546131113 ], [ -121.307950479, 37.9909377375 ], [ -121.2837351706, 37.9982684658 ], [ -121.2849912633, 38.027488937 ], [ -121.3140122558, 38.0346160806 ], [ -121.3031260885, 38.0836914226 ], [ -121.2458027298, 38.0656621701 ], [ -121.2909064233, 38.1046094799 ], [ -121.2951847478, 38.1539024346 ], [ -121.398280417, 38.3086293438 ], [ -121.406663241, 38.3911222591 ], [ -121.3683603179, 38.3968579961 ], [ -121.3830015023, 38.4192375712 ] ] ] } }
{ "type": "Feature", "properties": { "PA_NO": "603", "Basin_Subb": "603-0", "ShapeSTAre": 5632930816.7466297, "ShapeSTLen": 515301.39292611898, "NAME": "Eastern Valley Floor" }, "geometry": { "type": "Polygon", "coordinates": [ [ [ -120.6700649812, 38.0208421335 ], [ -120.6099170264, 38.0695430557 ], [ -120.6073243942, 38.0928804254 ], [ -120.6636597417, 38.1643435914 ], [ -120.6470786445, 38.1986971398 ], [ -120.6626568544, 38.241784105 ], [ -120.6902561551, 38.2662750801 ], [ -120.7334926618, 38.2412525625 ], [ -120.7596954658, 38.2595947523 ], [ -120.7906612093, 38.2392027948 ], [ -120.8090913053, 38.2790016711 ], [ -120.866157435, 38.2738670606 ], [ -120.8223461808, 38.4008937106 ], [ -120.7841180559, 38.4078574825 ], [ -120.7792156647, 38.4280606516 ], [ -120.8421404881, 38.4236371735 ], [ -120.8400552459, 38.4032006223 ], [ -120.8616066865, 38.3966767943 ], [ -120.8904826567, 38.4137462981 ], [ -120.888791607, 38.4895200972 ], [ -120.9242532792, 38.5527182806 ], [ -120.9697519045, 38.5858298699 ], [ -120.9517823748, 38.5931734718 ], [ -120.9575969154, 38.6198794555 ], [ -120.8969920945, 38.6224886469 ], [ -120.8592268535, 38.6434985314 ], [ -120.8638222707, 38.6592868175 ], [ -121.0149070212, 38.6506600842 ], [ -121.0024934431, 38.678470432 ], [ -121.0227807287, 38.6665311565 ], [ -121.0463130228, 38.6864573221 ], [ -121.0692800799, 38.6791179197 ], [ -121.0980425785, 38.711347095 ], [ -121.0803567241, 38.7353941956 ], [ -121.1329750883, 38.7471342091 ], [ -121.1204591677, 38.7757910906 ], [ -121.1415880032, 38.7988690309 ], [ -121.1762654713, 38.7557299297 ], [ -121.1748920164, 38.7243321983 ], [ -121.2368295608, 38.6646953616 ], [ -121.2756573265, 38.6645297733 ], [ -121.2743006997, 38.6369701488 ], [ -121.3643237714, 38.5420201059 ], [ -121.4005241867, 38.5288686514 ], [ -121.4160644824, 38.4704491351 ], [ -121.3922060324, 38.460449865 ], [ -121.3830015023, 38.4192375712 ], [ -121.3683603179, 38.3968579961 ], [ -121.406663241, 38.3911222591 ], [ -121.398280417, 38.3086293438 ], [ -121.2951847478, 38.1539024346 ], [ -121.2909064233, 38.1046094799 ], [ -121.2458027298, 38.0656621701 ], [ -121.1538710229, 38.0198326577 ], [ -121.1352330963, 37.9914649458 ], [ -121.1068668706, 37.9916432336 ], [ -121.0800581933, 38.0207527597 ], [ -121.0534215425, 38.02084699 ], [ -121.0712689077, 38.0065542168 ], [ -121.0525883066, 38.001073764 ], [ -121.0347195634, 38.013946163 ], [ -121.0135868598, 38.0139518152 ], [ -121.007694287, 38.0425655679 ], [ -120.9254175434, 38.0435044512 ], [ -120.9259920816, 38.0611019696 ], [ -120.8169567572, 38.053773263 ], [ -120.7729386147, 38.0164793893 ], [ -120.6700649812, 38.0208421335 ] ] ] } }
{ "type": "Feature", "properties": { "PA_NO": "604", "Basin_Subb": "604-0", "ShapeSTAre": 18610481257.436008, "ShapeSTLen": 1050462.4523149179, "NAME": "Sierra Foothills" }, "geometry": { "type": "Polygon", "coordinates": [ [ [ -119.985939138, 38.8517889068 ], [ -120.1210324285, 38.80227879 ], [ -120.1461824348, 38.8313585483 ], [ -120.2301633418, 38.8155720531 ], [ -120.2491911103, 38.8459145969 ], [ -120.3909454364, 38.8929032893 ], [ -120.4417731321, 38.934572843 ], [ -120.5540080921, 38.9452082617 ], [ -120.6405044058, 38.8916229165 ], [ -120.718191874, 38.8890670485 ], [ -120.7451338999, 38.8621374798 ], [ -120.8238031782, 38.886383488 ], [ -120.8558904845, 38.8216794171 ], [ -120.8577090591, 38.8555732825 ], [ -120.9136945245, 38.8632244415 ], [ -120.9268281015, 38.8456820409 ], [ -120.9940540135, 38.9019999884 ], [ -121.0048456035, 38.8692355637 ], [ -121.0858022862, 38.8617797828 ], [ -121.083533114, 38.8122878039 ], [ -121.1415880032, 38.7988690309 ], [ -121.1204591677, 38.7757910906 ], [ -121.1329750883, 38.7471342091 ], [ -121.0803567241, 38.7353941956 ], [ -121.0980425785, 38.711347095 ], [ -121.0692800799, 38.6791179197 ], [ -121.0463130228, 38.6864573221 ], [ -121.0227807287, 38.6665311565 ], [ -121.0024934431, 38.678470432 ], [ -121.0149070212, 38.6506600842 ], [ -120.8638222707, 38.6592868175 ], [ -120.8592268535, 38.6434985314 ], [ -120.8969920945, 38.6224886469 ], [ -120.9575969154, 38.6198794555 ], [ -120.9517823748, 38.5931734718 ], [ -120.9697519045, 38.5858298699 ], [ -120.9242532792, 38.5527182806 ], [ -120.888791607, 38.4895200972 ], [ -120.8904826567, 38.4137462981 ], [ -120.8616066865, 38.3966767943 ], [ -120.8400552459, 38.4032006223 ], [ -120.8421404881, 38.4236371735 ], [ -120.7792156647, 38.4280606516 ], [ -120.7841180559, 38.4078574825 ], [ -120.8223461808, 38.4008937106 ], [ -120.866157435, 38.2738670606 ], [ -120.8090913053, 38.2790016711 ], [ -120.7906612093, 38.2392027948 ], [ -120.7596954658, 38.2595947523 ], [ -120.7334926618, 38.2412525625 ], [ -120.6902561551, 38.2662750801 ], [ -120.6626568544, 38.241784105 ], [ -120.6470786445, 38.1986971398 ], [ -120.6636597417, 38.1643435914 ], [ -120.6073243942, 38.0928804254 ], [ -120.6099170264, 38.0695430557 ], [ -120.6700649812, 38.0208421335 ], [ -120.6521150015, 38.0055502268 ], [ -120.6397824244, 38.0273168218 ], [ -120.6417240206, 37.9863592282 ], [ -120.6115563898, 38.0011196675 ], [ -120.6301211594, 37.9780876717 ], [ -120.6092860471, 37.9458802922 ], [ -120.5481612481, 37.9485325007 ], [ -120.4562138727, 37.8510848518 ], [ -120.4483641252, 37.8401280376 ], [ -120.4775958588, 37.833125831 ], [ -120.4493028512, 37.8108132144 ], [ -120.4366523774, 37.8248365952 ], [ -120.4052566553, 37.8095845554 ], [ -120.3852404669, 37.8211440345 ], [ -120.3868903406, 37.8710791637 ], [ -120.3125821054, 37.8396912719 ], [ -120.3449450796, 37.9119700581 ], [ -120.2867320465, 37.9156907894 ], [ -120.2825132174, 37.9318033126 ], [ -120.2602034127, 37.9200485465 ], [ -120.2382064948, 37.9517232433 ], [ -120.1891945602, 37.9542950582 ], [ -120.173985619, 37.9861258863 ], [ -120.1272832808, 37.9681539692 ], [ -120.0793126455, 38.0153137546 ], [ -119.9377632817, 37.9487996389 ], [ -119.8732821037, 37.9599883764 ], [ -119.8094598992, 37.9411206964 ], [ -119.6668498955, 37.9878372331 ], [ -119.650425972, 38.0304736302 ], [ -119.5975677855, 38.0477008284 ], [ -119.5608396666, 38.0891729619 ], [ -119.5358902963, 38.0892512029 ], [ -119.4966171728, 38.0505246749 ], [ -119.454097467, 38.0578299067 ], [ -119.4029998986, 38.0202251667 ], [ -119.3754292964, 38.0277806604 ], [ -119.2686141913, 37.9257786066 ], [ -119.2029727538, 37.9818162478 ], [ -119.2166374696, 38.0400517135 ], [ -119.1995201832, 38.0712499774 ], [ -119.3094219463, 38.1328602987 ], [ -119.3236251158, 38.1570678803 ], [ -119.3053351489, 38.2111712308 ], [ -119.3256222602, 38.2513463624 ], [ -119.4298201991, 38.3049137648 ], [ -119.4602731609, 38.2832760792 ], [ -119.4962905499, 38.3439725596 ], [ -119.5075931501, 38.3239274695 ], [ -119.5464924324, 38.3305576537 ], [ -119.586892637, 38.3721464355 ], [ -119.6292464392, 38.383212653 ], [ -119.6252708911, 38.4158691671 ], [ -119.6048185895, 38.4228029217 ], [ -119.6513136997, 38.4736273901 ], [ -119.6278669144, 38.5360713963 ], [ -119.6811431597, 38.5895844155 ], [ -119.6803692126, 38.6279297489 ], [ -119.7054624661, 38.6416989502 ], [ -119.7286128963, 38.6306847046 ], [ -119.7347083437, 38.6587087137 ], [ -119.7666689606, 38.6630418665 ], [ -119.7690320212, 38.7042664738 ], [ -119.8328192003, 38.7389385276 ], [ -119.8533365471, 38.7898872926 ], [ -119.9076507508, 38.7837301604 ], [ -119.924445533, 38.8234612619 ], [ -119.985939138, 38.8517889068 ] ] ] } }
{ "type": "Feature", "properties": { "PA_NO": "605", "Basin_Subb": "605-0", "ShapeSTAre": 3478351948.4127798, "ShapeSTLen": 604591.04588811204, "NAME": "West Side Uplands" }, "geometry": { "type": "Polygon", "coordinates": [ [ [ -120.8379224037, 36.8444657705 ], [ -120.9011656539, 36.8903352459 ], [ -120.9040358898, 36.9698860026 ], [ -120.8412648022, 36.9682314342 ], [ -120.8454512156, 36.9830450334 ], [ -120.8104036756, 36.9680841797 ], [ -120.8368858171, 36.9972132104 ], [ -120.770999347, 36.9972072544 ], [ -120.7795368941, 37.0198561445 ], [ -120.8021005187, 37.0096189365 ], [ -120.8163136901, 37.0260269762 ], [ -120.7993632047, 37.0636915801 ], [ -120.8515208373, 37.1191883276 ], [ -120.8990622046, 37.1113005773 ], [ -120.8957767728, 37.1302746294 ], [ -120.9187208824, 37.1147526225 ], [ -120.9120046785, 37.1581955568 ], [ -120.9494046645, 37.1611811078 ], [ -120.9203381652, 37.1019447025 ], [ -120.953530817, 37.1275587608 ], [ -120.98644842, 37.1128595711 ], [ -120.978733214, 37.097734456 ], [ -121.0030640125, 37.1041340722 ], [ -121.0025487398, 37.1313785979 ], [ -120.9733770648, 37.1232178547 ], [ -120.9286553664, 37.1727223992 ], [ -120.9820011503, 37.1908630184 ], [ -121.0033038735, 37.2272863534 ], [ -121.0344432748, 37.2201602327 ], [ -121.0710814131, 37.2375372866 ], [ -121.0768678365, 37.2617717636 ], [ -121.0568388857, 37.2607745453 ], [ -121.08817387, 37.3088642641 ], [ -121.0578139432, 37.3091432448 ], [ -121.0799500056, 37.3419712069 ], [ -121.0587232125, 37.3457203128 ], [ -121.1018973994, 37.4099920689 ], [ -121.1564870688, 37.4456111683 ], [ -121.1304350066, 37.4353351668 ], [ -121.0990042888, 37.4504445897 ], [ -121.1370295454, 37.4886410485 ], [ -121.1313566574, 37.5151765181 ], [ -121.2002454777, 37.5534556593 ], [ -121.1801107351, 37.5580307713 ], [ -121.1984991771, 37.63563119 ], [ -121.182935907, 37.6272292705 ], [ -121.1827306554, 37.6398760066 ], [ -121.2845551133, 37.7227234353 ], [ -121.3552272287, 37.7595409001 ], [ -121.3745558807, 37.7484688422 ], [ -121.4040118877, 37.7866110663 ], [ -121.439304948, 37.7630595925 ], [ -121.4540653739, 37.7753566415 ], [ -121.502415958, 37.7777127087 ], [ -121.532947924, 37.758562737 ], [ -121.4633749, 37.719513013 ], [ -121.482159597, 37.6874353619 ], [ -121.4591546139, 37.5836235389 ], [ -121.4088056888, 37.5654392119 ], [ -121.4238579648, 37.5471010886 ], [ -121.4068080387, 37.4996244209 ], [ -121.4594313094, 37.4703293252 ], [ -121.4071706104, 37.3440497143 ], [ -121.3851043722, 37.3385018626 ], [ -121.3612838051, 37.3704058085 ], [ -121.3301370169, 37.3530737464 ], [ -121.2828092564, 37.3671961852 ], [ -121.2404633387, 37.3440998264 ], [ -121.2169204363, 37.3071092757 ], [ -121.2442643226, 37.2728642241 ], [ -121.2083075403, 37.2464964815 ], [ -121.2471971451, 37.2161826913 ], [ -121.244800536, 37.1664079042 ], [ -121.2115181353, 37.142091873 ], [ -121.234453516, 37.1111866999 ], [ -121.1841555272, 37.0937770302 ], [ -121.1341334685, 37.0013270605 ], [ -121.1090467099, 36.9969968638 ], [ -121.1141878446, 36.9536049964 ], [ -121.0580336522, 36.9371629313 ], [ -120.9967370109, 36.9456496608 ], [ -120.9577673285, 36.9031125379 ], [ -120.9668080535, 36.8724069233 ], [ -120.8918642054, 36.8782913874 ], [ -120.8379224037, 36.8444657705 ] ] ] } }
{ "type": "Feature", "properties": { "PA_NO": "606", "Basin_Subb": "606-0", "ShapeSTAre": 4508379695.0181704, "ShapeSTLen": 763025.11942962604, "NAME": "Valley West Side" }, "geometry": { "type": "Polygon", "coordinates": [ [ [ -121.2645498466, 37.8621293089 ], [ -121.2984542777, 37.8826672817 ], [ -121.3421703921, 37.8672067684 ], [ -121.2876237367, 37.817823458 ], [ -121.3149797422, 37.8099442422 ], [ -121.4213447284, 37.8199140489 ], [ -121.4736357913, 37.7915967255 ], [ -121.4540653739, 37.7753566415 ], [ -121.439304948, 37.7630595925 ], [ -121.4040118877, 37.7866110663 ], [ -121.3745558807, 37.7484688422 ], [ -121.3552272287, 37.7595409001 ], [ -121.2845551133, 37.7227234353 ], [ -121.1827306554, 37.6398760066 ], [ -121.182935907, 37.6272292705 ], [ -121.1984991771, 37.63563119 ], [ -121.1801107351, 37.5580307713 ], [ -121.2002454777, 37.5534556593 ], [ -121.1313566574, 37.5151765181 ], [ -121.1370295454, 37.4886410485 ], [ -121.0990042888, 37.4504445897 ], [ -121.1304350066, 37.4353351668 ], [ -121.1564870688, 37.4456111683 ], [ -121.1018973994, 37.4099920689 ], [ -121.0587232125, 37.3457203128 ], [ -121.0799500056, 37.3419712069 ], [ -121.0578139432, 37.3091432448 ], [ -121.08817387, 37.3088642641 ], [ -121.0568388857, 37.2607745453 ], [ -121.0768678365, 37.2617717636 ], [ -121.0710814131, 37.2375372866 ], [ -121.0344432748, 37.2201602327 ], [ -121.0033038735, 37.2272863534 ], [ -120.9820011503, 37.1908630184 ], [ -120.9286553664, 37.1727223992 ], [ -120.9733770648, 37.1232178547 ], [ -121.0025487398, 37.1313785979 ], [ -121.0030640125, 37.1041340722 ], [ -120.978733214, 37.097734456 ], [ -120.98644842, 37.1128595711 ], [ -120.953530817, 37.1275587608 ], [ -120.9203381652, 37.1019447025 ], [ -120.9494046645, 37.1611811078 ], [ -120.9120046785, 37.1581955568 ], [ -120.9187208824, 37.1147526225 ], [ -120.8957767728, 37.1302746294 ], [ -120.8990622046, 37.1113005773 ], [ -120.8515208373, 37.1191883276 ], [ -120.7993632047, 37.0636915801 ], [ -120.8163136901, 37.0260269762 ], [ -120.8021005187, 37.0096189365 ], [ -120.7795368941, 37.0198561445 ], [ -120.770999347, 36.9972072544 ], [ -120.8368858171, 36.9972132104 ], [ -120.8104036756, 36.9680841797 ], [ -120.8454512156, 36.9830450334 ], [ -120.8412648022, 36.9682314342 ], [ -120.9040358898, 36.9698860026 ], [ -120.9011656539, 36.8903352459 ], [ -120.8379224037, 36.8444657705 ], [ -120.8257787019, 36.8311216064 ], [ -120.8262605879, 36.845255561 ], [ -120.8420785115, 36.9256439549 ], [ -120.7890588026, 36.9526879091 ], [ -120.7258930914, 36.9170721788 ], [ -120.7055365493, 36.8715279732 ], [ -120.6305985152, 36.9123171921 ], [ -120.6395519724, 36.9337554292 ], [ -120.5936137952, 36.9774184181 ], [ -120.4768029797, 36.9771038694 ], [ -120.4756843867, 36.991666723 ], [ -120.4207070583, 36.9443005203 ], [ -120.3922900096, 36.9545316259 ], [ -120.3694895792, 36.9694000476 ], [ -120.3691063237, 36.9946334815 ], [ -120.4563149907, 37.0471603124 ], [ -120.4503445538, 37.0976273896 ], [ -120.5895310151, 37.2977370066 ], [ -120.6410106469, 37.3036248293 ], [ -120.6788012438, 37.3389899634 ], [ -120.7554372205, 37.3445590259 ], [ -120.7632261548, 37.3890669759 ], [ -120.8159401005, 37.4216896382 ], [ -120.8417060709, 37.4803623664 ], [ -120.921590114, 37.481446453 ], [ -120.9756520456, 37.5347982206 ], [ -121.0000725067, 37.6139030315 ], [ -121.069584845, 37.6664265151 ], [ -121.1228622752, 37.7396174462 ], [ -121.1528894104, 37.7434892874 ], [ -121.174457646, 37.79209202 ], [ -121.1937066542, 37.8234733762 ], [ -121.2132149046, 37.8134442746 ], [ -121.2645498466, 37.8621293089 ] ] ] } }
{ "type": "Feature", "properties": { "PA_NO": "607", "Basin_Subb": "607-0", "ShapeSTAre": 2540025100.0745201, "ShapeSTLen": 363157.69665041397, "NAME": "Upper Valley East Side" }, "geometry": { "type": "Polygon", "coordinates": [ [ [ -121.2458027298, 38.0656621701 ], [ -121.3031260885, 38.0836914226 ], [ -121.3140122558, 38.0346160806 ], [ -121.2849912633, 38.027488937 ], [ -121.2837351706, 37.9982684658 ], [ -121.307950479, 37.9909377375 ], [ -121.2892728002, 37.9546131113 ], [ -121.2700279637, 37.9541959774 ], [ -121.2588599535, 37.885631407 ], [ -121.239286454, 37.8858399066 ], [ -121.2645498466, 37.8621293089 ], [ -121.2132149046, 37.8134442746 ], [ -121.1937066542, 37.8234733762 ], [ -121.174457646, 37.79209202 ], [ -121.1308556634, 37.7888056556 ], [ -121.1138365602, 37.7617453628 ], [ -120.991859043, 37.8130099608 ], [ -120.9341544133, 37.799768802 ], [ -120.8639190129, 37.8181832533 ], [ -120.8565072929, 37.8019701571 ], [ -120.7990250627, 37.8006688706 ], [ -120.6752875338, 37.831628623 ], [ -120.5255751818, 37.8129433163 ], [ -120.4779970554, 37.8544270926 ], [ -120.4562138727, 37.8510848518 ], [ -120.5481612481, 37.9485325007 ], [ -120.6092860471, 37.9458802922 ], [ -120.6301211594, 37.9780876717 ], [ -120.6115563898, 38.0011196675 ], [ -120.6417240206, 37.9863592282 ], [ -120.6397824244, 38.0273168218 ], [ -120.6521150015, 38.0055502268 ], [ -120.6700649812, 38.0208421335 ], [ -120.7729386147, 38.0164793893 ], [ -120.8169567572, 38.053773263 ], [ -120.9259920816, 38.0611019696 ], [ -120.9254175434, 38.0435044512 ], [ -121.007694287, 38.0425655679 ], [ -121.0135868598, 38.0139518152 ], [ -121.0347195634, 38.013946163 ], [ -121.0525883066, 38.001073764 ], [ -121.0712689077, 38.0065542168 ], [ -121.0534215425, 38.02084699 ], [ -121.0800581933, 38.0207527597 ], [ -121.1068668706, 37.9916432336 ], [ -121.1352330963, 37.9914649458 ], [ -121.1538710229, 38.0198326577 ], [ -121.2458027298, 38.0656621701 ] ] ] } }
{ "type": "Feature", "properties": { "PA_NO": "608", "Basin_Subb": "608-0", "ShapeSTAre": 2243630959.9303999, "ShapeSTLen": 327308.898989179, "NAME": "Middle Valley East Side" }, "geometry": { "type": "Polygon", "coordinates": [ [ [ -120.4562138727, 37.8510848518 ], [ -120.4779970554, 37.8544270926 ], [ -120.5255751818, 37.8129433163 ], [ -120.6752875338, 37.831628623 ], [ -120.7990250627, 37.8006688706 ], [ -120.8565072929, 37.8019701571 ], [ -120.8639190129, 37.8181832533 ], [ -120.9341544133, 37.799768802 ], [ -120.991859043, 37.8130099608 ], [ -121.1138365602, 37.7617453628 ], [ -121.1308556634, 37.7888056556 ], [ -121.174457646, 37.79209202 ], [ -121.1528894104, 37.7434892874 ], [ -121.1228622752, 37.7396174462 ], [ -121.069584845, 37.6664265151 ], [ -121.0000725067, 37.6139030315 ], [ -120.9756520456, 37.5347982206 ], [ -120.9297039725, 37.5567820619 ], [ -120.9214561626, 37.5411296172 ], [ -120.8619999636, 37.5435033756 ], [ -120.682150138, 37.6170612483 ], [ -120.6583245897, 37.6119026543 ], [ -120.5940914222, 37.6571682678 ], [ -120.5041007159, 37.6542600398 ], [ -120.4344539717, 37.7062208033 ], [ -120.3440423634, 37.6942809098 ], [ -120.3270946844, 37.7091570422 ], [ -120.3931421793, 37.7923362616 ], [ -120.4493028512, 37.8108132144 ], [ -120.4775958588, 37.833125831 ], [ -120.4483641252, 37.8401280376 ], [ -120.4562138727, 37.8510848518 ] ] ] } }
{ "type": "Feature", "properties": { "PA_NO": "609", "Basin_Subb": "609-0", "ShapeSTAre": 6708517373.1304197, "ShapeSTLen": 615105.66516740003, "NAME": "Lower Valley East Side" }, "geometry": { "type": "Polygon", "coordinates": [ [ [ -119.710266049, 37.1797855168 ], [ -119.7281416643, 37.2059781609 ], [ -119.7576730831, 37.1804537809 ], [ -119.7747494072, 37.196614256 ], [ -119.8012144106, 37.1820881653 ], [ -119.7940780044, 37.2323373319 ], [ -119.81427093, 37.211205207 ], [ -119.8518070782, 37.2109686714 ], [ -119.861037769, 37.1894406234 ], [ -119.9009581978, 37.2208884155 ], [ -119.8774090539, 37.2259139298 ], [ -119.9035033522, 37.2460597989 ], [ -119.8869012254, 37.2669536089 ], [ -119.9311383313, 37.2684786827 ], [ -119.9229113623, 37.2481570746 ], [ -119.9375196604, 37.2495415305 ], [ -119.9750914142, 37.276458134 ], [ -119.9646618902, 37.2976597747 ], [ -119.9937098114, 37.3025933625 ], [ -120.0028117009, 37.340444707 ], [ -120.0221640585, 37.3364019652 ], [ -120.0596111279, 37.3774046336 ], [ -120.0633646584, 37.3650875157 ], [ -120.1012735337, 37.4175870385 ], [ -120.158600465, 37.4276585 ], [ -120.1502910828, 37.4503990956 ], [ -120.1771798125, 37.4432713192 ], [ -120.168072658, 37.4666905389 ], [ -120.3270946844, 37.7091570422 ], [ -120.3440423634, 37.6942809098 ], [ -120.4344539717, 37.7062208033 ], [ -120.5041007159, 37.6542600398 ], [ -120.5940914222, 37.6571682678 ], [ -120.6583245897, 37.6119026543 ], [ -120.682150138, 37.6170612483 ], [ -120.8619999636, 37.5435033756 ], [ -120.9214561626, 37.5411296172 ], [ -120.9297039725, 37.5567820619 ], [ -120.9756520456, 37.5347982206 ], [ -120.921590114, 37.481446453 ], [ -120.8417060709, 37.4803623664 ], [ -120.8159401005, 37.4216896382 ], [ -120.7632261548, 37.3890669759 ], [ -120.7554372205, 37.3445590259 ], [ -120.6788012438, 37.3389899634 ], [ -120.6410106469, 37.3036248293 ], [ -120.5895310151, 37.2977370066 ], [ -120.4503445538, 37.0976273896 ], [ -120.4563149907, 37.0471603124 ], [ -120.3691063237, 36.9946334815 ], [ -120.3694895792, 36.9694000476 ], [ -120.3452852769, 36.9695776474 ], [ -120.3482193471, 36.9831528733 ], [ -120.2915329479, 36.9477127973 ], [ -120.2331976343, 36.9529750743 ], [ -120.2169823473, 36.9751945004 ], [ -120.1891168659, 36.9612624011 ], [ -120.1718769595, 36.9881617053 ], [ -120.1147428785, 36.9986705365 ], [ -120.0275838327, 36.9993172896 ], [ -119.9850478215, 37.02565072 ], [ -119.9416946813, 37.0187897218 ], [ -119.8865707362, 37.0440465778 ], [ -119.813389981, 37.0347671659 ], [ -119.710266049, 37.1797855168 ] ] ] } }
{ "type": "Feature", "properties": { "PA_NO": "610", "Basin_Subb": "610-0", "ShapeSTAre": 15532304075.661051, "ShapeSTLen": 844097.38022848195, "NAME": "East Side Uplands" }, "geometry": { "type": "Polygon", "coordinates": [ [ [ -119.2686141913, 37.9257786066 ], [ -119.3754292964, 38.0277806604 ], [ -119.4029998986, 38.0202251667 ], [ -119.454097467, 38.0578299067 ], [ -119.4966171728, 38.0505246749 ], [ -119.5358902963, 38.0892512029 ], [ -119.5608396666, 38.0891729619 ], [ -119.5975677855, 38.0477008284 ], [ -119.650425972, 38.0304736302 ], [ -119.6668498955, 37.9878372331 ], [ -119.8094598992, 37.9411206964 ], [ -119.8732821037, 37.9599883764 ], [ -119.9377632817, 37.9487996389 ], [ -120.0793126455, 38.0153137546 ], [ -120.1272832808, 37.9681539692 ], [ -120.173985619, 37.9861258863 ], [ -120.1891945602, 37.9542950582 ], [ -120.2382064948, 37.9517232433 ], [ -120.2602034127, 37.9200485465 ], [ -120.2825132174, 37.9318033126 ], [ -120.2867320465, 37.9156907894 ], [ -120.3449450796, 37.9119700581 ], [ -120.3125821054, 37.8396912719 ], [ -120.3868903406, 37.8710791637 ], [ -120.3852404669, 37.8211440345 ], [ -120.4052566553, 37.8095845554 ], [ -120.4366523774, 37.8248365952 ], [ -120.4493028512, 37.8108132144 ], [ -120.3931421793, 37.7923362616 ], [ -120.3270946844, 37.7091570422 ], [ -120.168072658, 37.4666905389 ], [ -120.1771798125, 37.4432713192 ], [ -120.1502910828, 37.4503990956 ], [ -120.158600465, 37.4276585 ], [ -120.1012735337, 37.4175870385 ], [ -120.0633646584, 37.3650875157 ], [ -120.0596111279, 37.3774046336 ], [ -120.0221640585, 37.3364019652 ], [ -120.0028117009, 37.340444707 ], [ -119.9937098114, 37.3025933625 ], [ -119.9646618902, 37.2976597747 ], [ -119.9750914142, 37.276458134 ], [ -119.9375196604, 37.2495415305 ], [ -119.9229113623, 37.2481570746 ], [ -119.9311383313, 37.2684786827 ], [ -119.8869012254, 37.2669536089 ], [ -119.9035033522, 37.2460597989 ], [ -119.8774090539, 37.2259139298 ], [ -119.9009581978, 37.2208884155 ], [ -119.861037769, 37.1894406234 ], [ -119.8518070782, 37.2109686714 ], [ -119.81427093, 37.211205207 ], [ -119.7940780044, 37.2323373319 ], [ -119.8012144106, 37.1820881653 ], [ -119.7747494072, 37.196614256 ], [ -119.7576730831, 37.1804537809 ], [ -119.7281416643, 37.2059781609 ], [ -119.710266049, 37.1797855168 ], [ -119.6915915133, 37.148804242 ], [ -119.7041075551, 37.1323326348 ], [ -119.6628543301, 37.1475874483 ], [ -119.6939964336, 37.1116599272 ], [ -119.6142714902, 37.1072532984 ], [ -119.5722805094, 37.1355770265 ], [ -119.5140225588, 37.1350777373 ], [ -119.4647389853, 37.1639516711 ], [ -119.4600972385, 37.1944117372 ], [ -119.4195061311, 37.1938386504 ], [ -119.420091194, 37.2496865681 ], [ -119.3441715025, 37.2451803123 ], [ -119.2836099202, 37.2770951673 ], [ -119.2264618291, 37.2741996638 ], [ -119.1777141915, 37.3352267323 ], [ -119.0937811539, 37.3609702586 ], [ -119.0049417779, 37.362899479 ], [ -118.97447546, 37.3873738899 ], [ -118.8994257518, 37.394873594 ], [ -118.8729917016, 37.3703901444 ], [ -118.8271985736, 37.3687776889 ], [ -118.7388119449, 37.2642762818 ], [ -118.716486681, 37.2920365634 ], [ -118.674150519, 37.2920671414 ], [ -118.6543764661, 37.3266767039 ], [ -118.6860109694, 37.4136096561 ], [ -118.664084916, 37.4468541191 ], [ -118.7159462941, 37.5142727194 ], [ -118.7392622434, 37.5016127811 ], [ -118.7864163757, 37.5293526148 ], [ -118.7622203793, 37.6424023528 ], [ -118.7964057468, 37.6753332209 ], [ -118.8551196095, 37.6643452591 ], [ -118.916163888, 37.7362382888 ], [ -119.0226253173, 37.7706567033 ], [ -119.0652038448, 37.8708212076 ], [ -119.1241843257, 37.9202845666 ], [ -119.1923971314, 37.9243533804 ], [ -119.2162841397, 37.9004266329 ], [ -119.2686141913, 37.9257786066 ] ] ] } }
{ "type": "Feature", "properties": { "PA_NO": "701", "Basin_Subb": "701-0", "ShapeSTAre": 6640997494.0910196, "ShapeSTLen": 1462959.7526338589, "NAME": "Western Uplands" }, "geometry": { "type": "Polygon", "coordinates": [ [ [ -120.8379224037, 36.8444657705 ], [ -120.8918642054, 36.8782913874 ], [ -120.9668080535, 36.8724069233 ], [ -120.9928480648, 36.8171017774 ], [ -121.0198193173, 36.8109374114 ], [ -121.0205053302, 36.7408194679 ], [ -120.9456072648, 36.6876937014 ], [ -120.9061672164, 36.6818938124 ], [ -120.9036480071, 36.6600120727 ], [ -120.8666983169, 36.6734894662 ], [ -120.8337834538, 36.6566069554 ], [ -120.737786351, 36.5714445643 ], [ -120.6859995933, 36.5779365251 ], [ -120.5969608488, 36.5266112539 ], [ -120.5966718374, 36.5123286479 ], [ -120.682909465, 36.478129811 ], [ -120.6798879744, 36.4304492234 ], [ -120.6266898107, 36.3868737105 ], [ -120.6720569298, 36.3478397715 ], [ -120.6675250361, 36.3213919445 ], [ -120.6409260005, 36.2845788865 ], [ -120.5995165432, 36.2844169825 ], [ -120.5881791171, 36.2500618116 ], [ -120.5299457048, 36.2075536171 ], [ -120.4806365662, 36.1945551051 ], [ -120.4349055683, 36.1525289667 ], [ -120.3610817784, 36.1477522063 ], [ -120.3236326321, 36.0910686999 ], [ -120.2771548826, 36.0894870069 ], [ -120.2486987086, 36.066702228 ], [ -120.2592898288, 36.0279420685 ], [ -120.2197749346, 36.0014442895 ], [ -120.1940904019, 35.94775051 ], [ -120.2302671385, 35.9008750804 ], [ -120.1946350891, 35.8383355176 ], [ -120.2148508724, 35.8409292495 ], [ -120.2242834173, 35.8120292559 ], [ -120.1133371364, 35.7305918958 ], [ -120.0822886185, 35.6766001181 ], [ -120.002083663, 35.6189085311 ], [ -119.9385564168, 35.6064902291 ], [ -119.8646681144, 35.549193966 ], [ -119.8319445574, 35.5446627578 ], [ -119.8329130365, 35.5181382286 ], [ -119.747639302, 35.4656725969 ], [ -119.7040708877, 35.3962980181 ], [ -119.6182758222, 35.3456276933 ], [ -119.5204257564, 35.2503548261 ], [ -119.4942167657, 35.2490272926 ], [ -119.4753886496, 35.2120003085 ], [ -119.4968221253, 35.1878721967 ], [ -119.3875734087, 35.1109713243 ], [ -119.399136241, 35.0963695403 ], [ -119.3493228942, 35.0566735972 ], [ -119.2001757782, 35.0525890123 ], [ -119.2046342688, 35.0106872319 ], [ -119.1827301999, 34.9967633143 ], [ -119.1089179704, 35.0042640163 ], [ -119.0653619438, 34.9696853752 ], [ -119.0063342151, 34.9566002639 ], [ -118.8216097526, 34.9808489802 ], [ -118.7796219483, 35.0262435715 ], [ -118.8160169387, 35.0405030835 ], [ -118.8471594302, 35.1184378307 ], [ -118.9131046528, 35.1189979725 ], [ -118.9077018541, 35.101198426 ], [ -118.9316356206, 35.111459024 ], [ -118.9426933257, 35.0915391337 ], [ -118.9801553728, 35.1246895779 ], [ -119.0728151561, 35.1385872688 ], [ -119.0940797135, 35.1779704313 ], [ -119.1806342264, 35.1395147482 ], [ -119.1654543285, 35.1161635751 ], [ -119.227824648, 35.1277340957 ], [ -119.2019193193, 35.1364961654 ], [ -119.2905337158, 35.1151291649 ], [ -119.3062646043, 35.136806321 ], [ -119.2856848551, 35.1438091015 ], [ -119.3293970502, 35.1621719784 ], [ -119.2913854723, 35.1808861676 ], [ -119.3311957766, 35.1905352056 ], [ -119.3902189553, 35.1919903474 ], [ -119.3592461375, 35.2017651181 ], [ -119.4003120898, 35.2189577799 ], [ -119.3947708132, 35.2020265891 ], [ -119.4122037612, 35.2240903249 ], [ -119.4509374337, 35.1932248017 ], [ -119.4283967817, 35.2420063324 ], [ -119.5803059531, 35.3745767786 ], [ -119.6666660337, 35.4091188845 ], [ -119.6286921661, 35.4150436897 ], [ -119.6603026377, 35.4172478056 ], [ -119.6353885703, 35.4247448471 ], [ -119.6347891083, 35.4455560807 ], [ -119.7892935763, 35.5030144326 ], [ -119.6882289099, 35.4991768439 ], [ -119.7002869636, 35.4874775153 ], [ -119.6354555226, 35.4703938094 ], [ -119.6361926685, 35.4861138218 ], [ -119.6857604257, 35.5290865712 ], [ -119.7633837399, 35.5412653604 ], [ -119.7647340461, 35.5703488138 ], [ -119.7890345552, 35.5797918758 ], [ -119.769495392, 35.6009521988 ], [ -119.8178092565, 35.633129895 ], [ -119.8290009525, 35.6180859633 ], [ -119.8840001971, 35.6737398143 ], [ -119.9152400328, 35.6633714999 ], [ -119.8954323191, 35.6788733422 ], [ -119.9326494252, 35.6849432756 ], [ -119.9365825037, 35.708535441 ], [ -119.9890534579, 35.7320684573 ], [ -119.9794898335, 35.747080096 ], [ -120.0397057548, 35.7437995755 ], [ -119.9623363369, 35.7815860646 ], [ -120.0285990619, 35.8255113298 ], [ -120.0828177397, 35.8330248268 ], [ -120.0996850231, 35.8155127666 ], [ -120.1449148608, 35.8480525652 ], [ -120.1012723408, 35.8361805279 ], [ -120.1603108115, 35.8957412305 ], [ -120.0769170416, 35.8646726757 ], [ -120.0801382888, 35.8894409101 ], [ -120.0478395209, 35.8953619717 ], [ -120.0055541451, 35.8658240603 ], [ -119.9756832719, 35.8819404752 ], [ -119.9857125371, 35.896569504 ], [ -120.013871296, 35.8910377856 ], [ -120.0141228881, 35.9133422871 ], [ -119.9823551897, 35.9208595643 ], [ -119.9921280408, 35.959435313 ], [ -120.0696850844, 35.9129755489 ], [ -120.0805801369, 35.9545683617 ], [ -120.1430302519, 35.9579642098 ], [ -120.1174131737, 35.973083356 ], [ -120.1299236908, 36.0010568383 ], [ -120.1125462461, 36.0155236619 ], [ -120.1406961368, 36.0485984997 ], [ -120.1200380878, 36.0716031408 ], [ -120.0142599153, 35.9679165067 ], [ -119.9801010382, 35.9911636112 ], [ -120.0957423173, 36.1079475804 ], [ -120.2494791757, 36.197347831 ], [ -120.2284513514, 36.2286824983 ], [ -120.3050968493, 36.2830096919 ], [ -120.36868261, 36.2816334723 ], [ -120.3839568372, 36.2656766302 ], [ -120.4065523879, 36.279272221 ], [ -120.4028466784, 36.3097532469 ], [ -120.4445883542, 36.3504201958 ], [ -120.428344896, 36.3708911296 ], [ -120.4530722082, 36.3974433001 ], [ -120.375536443, 36.3904052391 ], [ -120.3498082135, 36.4085354361 ], [ -120.2901760624, 36.3579386352 ], [ -120.2627647845, 36.3567219014 ], [ -120.2748851759, 36.4783910865 ], [ -120.3081421193, 36.4830129394 ], [ -120.4266683495, 36.5727943253 ], [ -120.5208328793, 36.7054247212 ], [ -120.642086119, 36.7678634555 ], [ -120.6333882441, 36.7576240931 ], [ -120.6676911004, 36.7632992924 ], [ -120.6806639643, 36.7892748521 ], [ -120.6482408363, 36.7851148018 ], [ -120.6596176149, 36.8087257588 ], [ -120.6980830388, 36.7571813534 ], [ -120.689843744, 36.7809067172 ], [ -120.7105835065, 36.8026160817 ], [ -120.6650758432, 36.8137142678 ], [ -120.7055365493, 36.8715279732 ], [ -120.769816997, 36.8405759318 ], [ -120.8262605879, 36.845255561 ], [ -120.8257787019, 36.8311216064 ], [ -120.8379224037, 36.8444657705 ] ] ] } }
{ "type": "Feature", "properties": { "PA_NO": "702", "Basin_Subb": "702-0", "ShapeSTAre": 5993892769.7554302, "ShapeSTLen": 759184.18572888197, "NAME": "San Luis West Side" }, "geometry": { "type": "Polygon", "coordinates": [ [ [ -120.3922900096, 36.9545316259 ], [ -120.4207070583, 36.9443005203 ], [ -120.4756843867, 36.991666723 ], [ -120.4768029797, 36.9771038694 ], [ -120.5936137952, 36.9774184181 ], [ -120.6395519724, 36.9337554292 ], [ -120.6305985152, 36.9123171921 ], [ -120.7055365493, 36.8715279732 ], [ -120.6650758432, 36.8137142678 ], [ -120.7105835065, 36.8026160817 ], [ -120.689843744, 36.7809067172 ], [ -120.6980830388, 36.7571813534 ], [ -120.6596176149, 36.8087257588 ], [ -120.6482408363, 36.7851148018 ], [ -120.6806639643, 36.7892748521 ], [ -120.6676911004, 36.7632992924 ], [ -120.6333882441, 36.7576240931 ], [ -120.642086119, 36.7678634555 ], [ -120.5208328793, 36.7054247212 ], [ -120.4266683495, 36.5727943253 ], [ -120.3081421193, 36.4830129394 ], [ -120.2748851759, 36.4783910865 ], [ -120.2627647845, 36.3567219014 ], [ -120.2901760624, 36.3579386352 ], [ -120.3498082135, 36.4085354361 ], [ -120.375536443, 36.3904052391 ], [ -120.4530722082, 36.3974433001 ], [ -120.428344896, 36.3708911296 ], [ -120.4445883542, 36.3504201958 ], [ -120.4028466784, 36.3097532469 ], [ -120.4065523879, 36.279272221 ], [ -120.3839568372, 36.2656766302 ], [ -120.36868261, 36.2816334723 ], [ -120.3050968493, 36.2830096919 ], [ -120.2284513514, 36.2286824983 ], [ -120.2494791757, 36.197347831 ], [ -120.0957423173, 36.1079475804 ], [ -119.9801010382, 35.9911636112 ], [ -120.0142599153, 35.9679165067 ], [ -120.1200380878, 36.0716031408 ], [ -120.1406961368, 36.0485984997 ], [ -120.1125462461, 36.0155236619 ], [ -120.1299236908, 36.0010568383 ], [ -120.1174131737, 35.973083356 ], [ -120.1430302519, 35.9579642098 ], [ -120.0805801369, 35.9545683617 ], [ -120.0696850844, 35.9129755489 ], [ -119.9921280408, 35.959435313 ], [ -119.9823551897, 35.9208595643 ], [ -119.9479643883, 35.9208050251 ], [ -119.9657996972, 35.9575077197 ], [ -119.9567975522, 35.9720475348 ], [ -119.9042826147, 35.9427623474 ], [ -119.885439229, 35.9428831042 ], [ -119.885458258, 35.9719187269 ], [ -119.5378415889, 35.9722639743 ], [ -119.5378249027, 36.0631719148 ], [ -119.6177368196, 36.0384295163 ], [ -119.7354500961, 36.0343520366 ], [ -119.7724698028, 36.0590425359 ], [ -119.7722196786, 36.1171928631 ], [ -119.9147450053, 36.1394845469 ], [ -119.9589327371, 36.2339336253 ], [ -119.8781615628, 36.3212515908 ], [ -119.8722375166, 36.4822680506 ], [ -119.9051230273, 36.4830924021 ], [ -119.9064022363, 36.5267530665 ], [ -119.9591046495, 36.5705658682 ], [ -119.9951288028, 36.5774564927 ], [ -120.0218017653, 36.5556777409 ], [ -120.0041364626, 36.5992934011 ], [ -120.1030163355, 36.615439216 ], [ -120.0850311948, 36.6429443067 ], [ -120.1210753006, 36.6500199695 ], [ -120.1203661525, 36.7156531332 ], [ -120.1518392394, 36.7155463513 ], [ -120.1521034545, 36.6865091164 ], [ -120.1704100977, 36.6864572288 ], [ -120.1881268523, 36.7298138599 ], [ -120.2614874152, 36.7579001059 ], [ -120.3155933382, 36.8457441993 ], [ -120.3343711172, 36.8457961314 ], [ -120.3510964075, 36.9041486584 ], [ -120.3873070592, 36.9046457485 ], [ -120.3922900096, 36.9545316259 ] ] ] } }
{ "type": "Feature", "properties": { "PA_NO": "703", "Basin_Subb": "703-0", "ShapeSTAre": 4955373390.6142998, "ShapeSTLen": 612118.43569942703, "NAME": "Lower Kings-Tulare" }, "geometry": { "type": "Polygon", "coordinates": [ [ [ -120.1147428785, 36.9986705365 ], [ -120.1718769595, 36.9881617053 ], [ -120.1891168659, 36.9612624011 ], [ -120.2169823473, 36.9751945004 ], [ -120.2331976343, 36.9529750743 ], [ -120.2915329479, 36.9477127973 ], [ -120.3482193471, 36.9831528733 ], [ -120.3452852769, 36.9695776474 ], [ -120.3694895792, 36.9694000476 ], [ -120.3922900096, 36.9545316259 ], [ -120.3873070592, 36.9046457485 ], [ -120.3510964075, 36.9041486584 ], [ -120.3343711172, 36.8457961314 ], [ -120.3155933382, 36.8457441993 ], [ -120.2614874152, 36.7579001059 ], [ -120.1881268523, 36.7298138599 ], [ -120.1704100977, 36.6864572288 ], [ -120.1521034545, 36.6865091164 ], [ -120.1518392394, 36.7155463513 ], [ -120.1203661525, 36.7156531332 ], [ -120.1210753006, 36.6500199695 ], [ -120.0850311948, 36.6429443067 ], [ -120.1030163355, 36.615439216 ], [ -120.0041364626, 36.5992934011 ], [ -120.0218017653, 36.5556777409 ], [ -119.9951288028, 36.5774564927 ], [ -119.9591046495, 36.5705658682 ], [ -119.9064022363, 36.5267530665 ], [ -119.9051230273, 36.4830924021 ], [ -119.8722375166, 36.4822680506 ], [ -119.8781615628, 36.3212515908 ], [ -119.9589327371, 36.2339336253 ], [ -119.9147450053, 36.1394845469 ], [ -119.7722196786, 36.1171928631 ], [ -119.7724698028, 36.0590425359 ], [ -119.7354500961, 36.0343520366 ], [ -119.6177368196, 36.0384295163 ], [ -119.5378249027, 36.0631719148 ], [ -119.5377660001, 36.0886839811 ], [ -119.500608181, 36.0886426212 ], [ -119.4801964159, 36.1178193694 ], [ -119.5376219705, 36.1177343964 ], [ -119.5363427085, 36.3068854935 ], [ -119.5720482895, 36.3033305801 ], [ -119.5900077213, 36.3213422956 ], [ -119.535150442, 36.3213863049 ], [ -119.5293723532, 36.3947368386 ], [ -119.6007831686, 36.3800657968 ], [ -119.6727938645, 36.3946518115 ], [ -119.6548945596, 36.4675531899 ], [ -119.56506556, 36.4679484399 ], [ -119.531304165, 36.5027587436 ], [ -119.5469486966, 36.5793556965 ], [ -119.5464932939, 36.6385598321 ], [ -119.6186559982, 36.6146602902 ], [ -119.6000845622, 36.6730062975 ], [ -119.6471951927, 36.6732156192 ], [ -119.6829924846, 36.702292552 ], [ -119.8090930866, 36.6878708065 ], [ -119.8090107218, 36.7023840603 ], [ -119.8812718815, 36.702151592 ], [ -119.8628475267, 36.7965112555 ], [ -119.8988575315, 36.8036012924 ], [ -119.8985178722, 36.8472325955 ], [ -120.0610924418, 36.846533001 ], [ -120.0607092699, 36.8757762213 ], [ -120.1236350176, 36.9046382631 ], [ -120.1142054066, 36.9340896364 ], [ -120.1503363175, 36.9339721475 ], [ -120.1506994075, 36.9776750365 ], [ -120.1145050001, 36.9776985746 ], [ -120.1147428785, 36.9986705365 ] ] ] } }
{ "type": "Feature", "properties": { "PA_NO": "704", "Basin_Subb": "704-0", "ShapeSTAre": 1960580260.7291801, "ShapeSTLen": 336223.36301892798, "NAME": "Fresno - Academy" }, "geometry": { "type": "Polygon", "coordinates": [ [ [ -119.6939964336, 37.1116599272 ], [ -119.6628543301, 37.1475874483 ], [ -119.7041075551, 37.1323326348 ], [ -119.6915915133, 37.148804242 ], [ -119.710266049, 37.1797855168 ], [ -119.813389981, 37.0347671659 ], [ -119.8865707362, 37.0440465778 ], [ -119.9416946813, 37.0187897218 ], [ -119.9850478215, 37.02565072 ], [ -120.0275838327, 36.9993172896 ], [ -120.1147428785, 36.9986705365 ], [ -120.1145050001, 36.9776985746 ], [ -120.1506994075, 36.9776750365 ], [ -120.1503363175, 36.9339721475 ], [ -120.1142054066, 36.9340896364 ], [ -120.1236350176, 36.9046382631 ], [ -120.0607092699, 36.8757762213 ], [ -120.0610924418, 36.846533001 ], [ -119.8985178722, 36.8472325955 ], [ -119.8988575315, 36.8036012924 ], [ -119.8628475267, 36.7965112555 ], [ -119.8447763328, 36.7966095282 ], [ -119.8446043988, 36.818543408 ], [ -119.7369074527, 36.8042906321 ], [ -119.7368277623, 36.8333223713 ], [ -119.6731312663, 36.8334802273 ], [ -119.6729574351, 36.8773994807 ], [ -119.645995781, 36.8992911751 ], [ -119.5045630347, 36.9127377575 ], [ -119.3933615945, 36.9846734306 ], [ -119.5013820204, 36.9540931677 ], [ -119.5230281686, 37.0028063798 ], [ -119.4956265215, 37.0159134913 ], [ -119.5445220282, 37.0618795531 ], [ -119.5037843679, 37.1225969384 ], [ -119.593432083, 37.0574358468 ], [ -119.6507612754, 37.0780485274 ], [ -119.687334328, 37.06231733 ], [ -119.6729283072, 37.0752517669 ], [ -119.6966792648, 37.0854367298 ], [ -119.6939964336, 37.1116599272 ] ] ] } }
{ "type": "Feature", "properties": { "PA_NO": "705", "Basin_Subb": "705-0", "ShapeSTAre": 2283647845.7751298, "ShapeSTLen": 329637.59667875402, "NAME": "Alta - Orange Cove" }, "geometry": { "type": "Polygon", "coordinates": [ [ [ -119.2235250694, 36.6868913296 ], [ -119.2345942118, 36.7122944012 ], [ -119.1918086765, 36.7214953468 ], [ -119.1836758141, 36.7416240855 ], [ -119.2293027602, 36.7420943625 ], [ -119.2341458707, 36.767331838 ], [ -119.2846889325, 36.7776123542 ], [ -119.2383988241, 36.7885622855 ], [ -119.2389762198, 36.8248100239 ], [ -119.2637145705, 36.8107410495 ], [ -119.2661574239, 36.8356439591 ], [ -119.2992371467, 36.8560063497 ], [ -119.2962694517, 36.8902061556 ], [ -119.339982502, 36.8510718765 ], [ -119.3222565936, 36.8997131772 ], [ -119.3715599578, 36.9117368745 ], [ -119.3393248894, 36.9540358198 ], [ -119.3885865385, 36.9556831908 ], [ -119.3933615945, 36.9846734306 ], [ -119.5045630347, 36.9127377575 ], [ -119.645995781, 36.8992911751 ], [ -119.6729574351, 36.8773994807 ], [ -119.6731312663, 36.8334802273 ], [ -119.7368277623, 36.8333223713 ], [ -119.7369074527, 36.8042906321 ], [ -119.8446043988, 36.818543408 ], [ -119.8447763328, 36.7966095282 ], [ -119.8628475267, 36.7965112555 ], [ -119.8812718815, 36.702151592 ], [ -119.8090107218, 36.7023840603 ], [ -119.8090930866, 36.6878708065 ], [ -119.6829924846, 36.702292552 ], [ -119.6471951927, 36.6732156192 ], [ -119.6000845622, 36.6730062975 ], [ -119.6186559982, 36.6146602902 ], [ -119.5464932939, 36.6385598321 ], [ -119.5469486966, 36.5793556965 ], [ -119.4036797481, 36.6206829234 ], [ -119.2688984075, 36.6125562831 ], [ -119.268355711, 36.6559601747 ], [ -119.2146733751, 36.6558356581 ], [ -119.2235250694, 36.6868913296 ] ] ] } }
{ "type": "Feature", "properties": { "PA_NO": "706", "Basin_Subb": "706-0", "ShapeSTAre": 5398691631.4475002, "ShapeSTLen": 670347.54365492298, "NAME": "Kaweah Delta" }, "geometry": { "type": "Polygon", "coordinates": [ [ [ -118.9694268553, 36.0963464406 ], [ -118.9215861145, 36.1238487425 ], [ -118.9651825635, 36.1577817356 ], [ -118.9665562583, 36.1826217745 ], [ -118.9418124234, 36.1817179734 ], [ -118.9397983287, 36.1631724636 ], [ -118.8897409365, 36.1677013435 ], [ -118.9754050321, 36.2138463644 ], [ -118.9248070671, 36.2170641866 ], [ -118.9115810481, 36.2409674717 ], [ -118.9681524936, 36.2484024411 ], [ -119.0361057841, 36.2976633698 ], [ -118.9980804296, 36.2931528078 ], [ -118.9945858978, 36.3063345094 ], [ -118.942160808, 36.277138787 ], [ -118.9749668501, 36.3158755917 ], [ -118.9393098958, 36.2979944891 ], [ -118.954266362, 36.3184833323 ], [ -118.9340874024, 36.3345486603 ], [ -118.9653049266, 36.3239099415 ], [ -118.9548140854, 36.3408807996 ], [ -118.978949742, 36.3517293614 ], [ -118.992339973, 36.3364701687 ], [ -118.9967495108, 36.3699735062 ], [ -118.9676687508, 36.3642342872 ], [ -118.9807498455, 36.3899341492 ], [ -119.0195969267, 36.3713638855 ], [ -119.0064082543, 36.4066742153 ], [ -119.0328717871, 36.4279318232 ], [ -119.0358353616, 36.3839336507 ], [ -119.0538104555, 36.3863011126 ], [ -119.1109110427, 36.4703060564 ], [ -119.083715771, 36.5045715676 ], [ -119.079505414, 36.461565612 ], [ -119.0554741497, 36.4539461334 ], [ -119.0650120437, 36.5230022408 ], [ -119.0129859829, 36.4963048085 ], [ -119.0379744057, 36.5322257601 ], [ -119.0021148713, 36.5562933823 ], [ -119.0012674016, 36.6048638431 ], [ -119.0285295206, 36.6325902794 ], [ -119.0300022474, 36.5852220568 ], [ -119.0818587, 36.6061835382 ], [ -119.080582229, 36.6239414841 ], [ -119.050219609, 36.6257296488 ], [ -119.0759523093, 36.6373544834 ], [ -119.0685540281, 36.6511746152 ], [ -119.1108390347, 36.6306221002 ], [ -119.0951556455, 36.6641103544 ], [ -119.1308874924, 36.6991208099 ], [ -119.1130869205, 36.7210475625 ], [ -119.1271276243, 36.7306299665 ], [ -119.1404845296, 36.6566549325 ], [ -119.1777602175, 36.6982902365 ], [ -119.2235250694, 36.6868913296 ], [ -119.2146733751, 36.6558356581 ], [ -119.268355711, 36.6559601747 ], [ -119.2688984075, 36.6125562831 ], [ -119.4036797481, 36.6206829234 ], [ -119.5469486966, 36.5793556965 ], [ -119.531304165, 36.5027587436 ], [ -119.56506556, 36.4679484399 ], [ -119.6548945596, 36.4675531899 ], [ -119.6727938645, 36.3946518115 ], [ -119.6007831686, 36.3800657968 ], [ -119.5293723532, 36.3947368386 ], [ -119.535150442, 36.3213863049 ], [ -119.5900077213, 36.3213422956 ], [ -119.5720482895, 36.3033305801 ], [ -119.5363427085, 36.3068854935 ], [ -119.5376219705, 36.1177343964 ], [ -119.4801964159, 36.1178193694 ], [ -119.500608181, 36.0886426212 ], [ -119.5377660001, 36.0886839811 ], [ -119.5378249027, 36.0631719148 ], [ -119.5378415889, 35.9722639743 ], [ -119.3554647827, 35.9730118706 ], [ -119.0977373749, 35.9734561678 ], [ -119.0843872868, 35.9734210121 ], [ -119.107935023, 36.0351864205 ], [ -119.1257765931, 36.0314539245 ], [ -119.1077891249, 36.0746687894 ], [ -119.0558815645, 36.0745796321 ], [ -119.0716332229, 36.0600957974 ], [ -119.0536672469, 36.0600859907 ], [ -119.0178468307, 36.074472252 ], [ -119.0359104877, 36.1036338575 ], [ -118.9694268553, 36.0963464406 ] ] ] } }
{ "type": "Feature", "properties": { "PA_NO": "707", "Basin_Subb": "707-0", "ShapeSTAre": 27531165174.423981, "ShapeSTLen": 1666002.453203303, "NAME": "Uplands" }, "geometry": { "type": "Polygon", "coordinates": [ [ [ -118.6543764661, 37.3266767039 ], [ -118.674150519, 37.2920671414 ], [ -118.716486681, 37.2920365634 ], [ -118.7388119449, 37.2642762818 ], [ -118.8271985736, 37.3687776889 ], [ -118.8729917016, 37.3703901444 ], [ -118.8994257518, 37.394873594 ], [ -118.97447546, 37.3873738899 ], [ -119.0049417779, 37.362899479 ], [ -119.0937811539, 37.3609702586 ], [ -119.1777141915, 37.3352267323 ], [ -119.2264618291, 37.2741996638 ], [ -119.2836099202, 37.2770951673 ], [ -119.3441715025, 37.2451803123 ], [ -119.420091194, 37.2496865681 ], [ -119.4195061311, 37.1938386504 ], [ -119.4600972385, 37.1944117372 ], [ -119.4647389853, 37.1639516711 ], [ -119.5140225588, 37.1350777373 ], [ -119.5722805094, 37.1355770265 ], [ -119.6142714902, 37.1072532984 ], [ -119.6939964336, 37.1116599272 ], [ -119.6966792648, 37.0854367298 ], [ -119.6729283072, 37.0752517669 ], [ -119.687334328, 37.06231733 ], [ -119.6507612754, 37.0780485274 ], [ -119.593432083, 37.0574358468 ], [ -119.5037843679, 37.1225969384 ], [ -119.5445220282, 37.0618795531 ], [ -119.4956265215, 37.0159134913 ], [ -119.5230281686, 37.0028063798 ], [ -119.5013820204, 36.9540931677 ], [ -119.3933615945, 36.9846734306 ], [ -119.3885865385, 36.9556831908 ], [ -119.3393248894, 36.9540358198 ], [ -119.3715599578, 36.9117368745 ], [ -119.3222565936, 36.8997131772 ], [ -119.339982502, 36.8510718765 ], [ -119.2962694517, 36.8902061556 ], [ -119.2992371467, 36.8560063497 ], [ -119.2661574239, 36.8356439591 ], [ -119.2637145705, 36.8107410495 ], [ -119.2389762198, 36.8248100239 ], [ -119.2383988241, 36.7885622855 ], [ -119.2846889325, 36.7776123542 ], [ -119.2341458707, 36.767331838 ], [ -119.2293027602, 36.7420943625 ], [ -119.1836758141, 36.7416240855 ], [ -119.1918086765, 36.7214953468 ], [ -119.2345942118, 36.7122944012 ], [ -119.2235250694, 36.6868913296 ], [ -119.1777602175, 36.6982902365 ], [ -119.1404845296, 36.6566549325 ], [ -119.1271276243, 36.7306299665 ], [ -119.1130869205, 36.7210475625 ], [ -119.1308874924, 36.6991208099 ], [ -119.0951556455, 36.6641103544 ], [ -119.1108390347, 36.6306221002 ], [ -119.0685540281, 36.6511746152 ], [ -119.0759523093, 36.6373544834 ], [ -119.050219609, 36.6257296488 ], [ -119.080582229, 36.6239414841 ], [ -119.0818587, 36.6061835382 ], [ -119.0300022474, 36.5852220568 ], [ -119.0285295206, 36.6325902794 ], [ -119.0012674016, 36.6048638431 ], [ -119.0021148713, 36.5562933823 ], [ -119.0379744057, 36.5322257601 ], [ -119.0129859829, 36.4963048085 ], [ -119.0650120437, 36.5230022408 ], [ -119.0554741497, 36.4539461334 ], [ -119.079505414, 36.461565612 ], [ -119.083715771, 36.5045715676 ], [ -119.1109110427, 36.4703060564 ], [ -119.0538104555, 36.3863011126 ], [ -119.0358353616, 36.3839336507 ], [ -119.0328717871, 36.4279318232 ], [ -119.0064082543, 36.4066742153 ], [ -119.0195969267, 36.3713638855 ], [ -118.9807498455, 36.3899341492 ], [ -118.9676687508, 36.3642342872 ], [ -118.9967495108, 36.3699735062 ], [ -118.992339973, 36.3364701687 ], [ -118.978949742, 36.3517293614 ], [ -118.9548140854, 36.3408807996 ], [ -118.9653049266, 36.3239099415 ], [ -118.9340874024, 36.3345486603 ], [ -118.954266362, 36.3184833323 ], [ -118.9393098958, 36.2979944891 ], [ -118.9749668501, 36.3158755917 ], [ -118.942160808, 36.277138787 ], [ -118.9945858978, 36.3063345094 ], [ -118.9980804296, 36.2931528078 ], [ -119.0361057841, 36.2976633698 ], [ -118.9681524936, 36.2484024411 ], [ -118.9115810481, 36.2409674717 ], [ -118.9248070671, 36.2170641866 ], [ -118.9754050321, 36.2138463644 ], [ -118.8897409365, 36.1677013435 ], [ -118.9397983287, 36.1631724636 ], [ -118.9418124234, 36.1817179734 ], [ -118.9665562583, 36.1826217745 ], [ -118.9651825635, 36.1577817356 ], [ -118.9215861145, 36.1238487425 ], [ -118.9694268553, 36.0963464406 ], [ -118.9161715758, 36.0693639823 ], [ -118.9392671539, 36.0038662016 ], [ -118.9225254667, 35.9521201865 ], [ -118.9472418158, 35.8963300555 ], [ -118.9196980229, 35.9071861562 ], [ -118.9242071955, 35.8697638887 ], [ -118.9367743101, 35.8903167025 ], [ -118.9466768087, 35.8762553622 ], [ -118.9180582544, 35.7888244203 ], [ -118.94835068, 35.7584599104 ], [ -118.9301624348, 35.7561641839 ], [ -118.950813362, 35.7177312002 ], [ -118.9264571025, 35.701403518 ], [ -118.9564856148, 35.7093917806 ], [ -118.9149196432, 35.6717449061 ], [ -118.9308149261, 35.6352435114 ], [ -118.883640393, 35.6501346834 ], [ -118.8779069999, 35.621827364 ], [ -118.8314340026, 35.6148606407 ], [ -118.8117024552, 35.6382675815 ], [ -118.7915794329, 35.6228416515 ], [ -118.808817955, 35.590391877 ], [ -118.7826037217, 35.6019849649 ], [ -118.7692464005, 35.5881047743 ], [ -118.7707852586, 35.5618085246 ], [ -118.7969250467, 35.5686256424 ], [ -118.7777819767, 35.5560351422 ], [ -118.6652398108, 35.4787134808 ], [ -118.6110303255, 35.4940542766 ], [ -118.5805712183, 35.4735755155 ], [ -118.6979294106, 35.4086441911 ], [ -118.6420881257, 35.4615964663 ], [ -118.7369240886, 35.4600447332 ], [ -118.7165642146, 35.4427051289 ], [ -118.7363739702, 35.4311847992 ], [ -118.7068027183, 35.4316322743 ], [ -118.7056714833, 35.3988606755 ], [ -118.7937905201, 35.3440277881 ], [ -118.7754505674, 35.3195608376 ], [ -118.79911796, 35.3003521483 ], [ -118.7265574889, 35.25674564 ], [ -118.701344163, 35.2608825931 ], [ -118.7134990075, 35.247218583 ], [ -118.6762897967, 35.2515930679 ], [ -118.6515699666, 35.2205611526 ], [ -118.6766113585, 35.2298563107 ], [ -118.710177793, 35.2129672038 ], [ -118.7061685742, 35.1887420689 ], [ -118.7495623264, 35.1968021527 ], [ -118.7843791952, 35.1511693696 ], [ -118.8219365202, 35.1405536275 ], [ -118.8351067763, 35.105132413 ], [ -118.8471594302, 35.1184378307 ], [ -118.8160169387, 35.0405030835 ], [ -118.7796219483, 35.0262435715 ], [ -118.7489032783, 35.0592422479 ], [ -118.5855822851, 35.1316535463 ], [ -118.6048389219, 35.1655084165 ], [ -118.4785241004, 35.1946099491 ], [ -118.4929364831, 35.223900535 ], [ -118.4609555355, 35.2266779615 ], [ -118.4094681522, 35.3151226587 ], [ -118.4423328596, 35.3748613629 ], [ -118.3284754353, 35.4052851726 ], [ -118.2395818244, 35.4042303383 ], [ -118.2967248741, 35.572448361 ], [ -118.3358759524, 35.6010038158 ], [ -118.2890072652, 35.6003802302 ], [ -118.2973520213, 35.6171283759 ], [ -118.2603293528, 35.6365101949 ], [ -118.184074808, 35.6133108764 ], [ -118.1547407078, 35.6295519291 ], [ -118.1138928907, 35.7983181269 ], [ -118.0911120678, 35.8176228749 ], [ -118.0308274873, 35.8138376738 ], [ -118.0362921512, 35.8381453336 ], [ -117.9858316473, 35.8759185514 ], [ -118.0116341288, 35.9386191828 ], [ -117.9843682199, 36.1098650895 ], [ -118.0174679517, 36.1380916631 ], [ -118.0039618075, 36.1675362911 ], [ -118.0378949622, 36.1971263801 ], [ -118.068139849, 36.2784176043 ], [ -118.0585226733, 36.3531893175 ], [ -118.1081854786, 36.3998247513 ], [ -118.1277788516, 36.4653799194 ], [ -118.1013639733, 36.5296620275 ], [ -118.1637958435, 36.5728210693 ], [ -118.1384572314, 36.5990022555 ], [ -118.1564092997, 36.6165323951 ], [ -118.2148646308, 36.6193200597 ], [ -118.2502477122, 36.6676045022 ], [ -118.2381735113, 36.7057104291 ], [ -118.2915441093, 36.7434354636 ], [ -118.2750341084, 36.7818897253 ], [ -118.3660448867, 36.8749573172 ], [ -118.3339275551, 36.8908460194 ], [ -118.3932009389, 37.0156044325 ], [ -118.3616383879, 37.0293616472 ], [ -118.3612915852, 37.0728448452 ], [ -118.4363999426, 37.2456518098 ], [ -118.5928809629, 37.3235190886 ], [ -118.6543764661, 37.3266767039 ] ] ] } }
{ "type": "Feature", "properties": { "PA_NO": "708", "Basin_Subb": "708-0", "ShapeSTAre": 4930159038.2681799, "ShapeSTLen": 661711.76409655798, "NAME": "Semitropic-Buena Vista" }, "geometry": { "type": "Polygon", "coordinates": [ [ [ -119.5378415889, 35.9722639743 ], [ -119.885458258, 35.9719187269 ], [ -119.885439229, 35.9428831042 ], [ -119.9042826147, 35.9427623474 ], [ -119.9567975522, 35.9720475348 ], [ -119.9657996972, 35.9575077197 ], [ -119.9479643883, 35.9208050251 ], [ -119.9823551897, 35.9208595643 ], [ -120.0141228881, 35.9133422871 ], [ -120.013871296, 35.8910377856 ], [ -119.9857125371, 35.896569504 ], [ -119.9756832719, 35.8819404752 ], [ -120.0055541451, 35.8658240603 ], [ -120.0478395209, 35.8953619717 ], [ -120.0801382888, 35.8894409101 ], [ -120.0769170416, 35.8646726757 ], [ -120.1603108115, 35.8957412305 ], [ -120.1012723408, 35.8361805279 ], [ -120.1449148608, 35.8480525652 ], [ -120.0996850231, 35.8155127666 ], [ -120.0828177397, 35.8330248268 ], [ -120.0285990619, 35.8255113298 ], [ -119.9623363369, 35.7815860646 ], [ -120.0397057548, 35.7437995755 ], [ -119.9794898335, 35.747080096 ], [ -119.9890534579, 35.7320684573 ], [ -119.9365825037, 35.708535441 ], [ -119.9326494252, 35.6849432756 ], [ -119.8954323191, 35.6788733422 ], [ -119.9152400328, 35.6633714999 ], [ -119.8840001971, 35.6737398143 ], [ -119.8290009525, 35.6180859633 ], [ -119.8178092565, 35.633129895 ], [ -119.769495392, 35.6009521988 ], [ -119.7890345552, 35.5797918758 ], [ -119.7647340461, 35.5703488138 ], [ -119.7633837399, 35.5412653604 ], [ -119.6857604257, 35.5290865712 ], [ -119.6361926685, 35.4861138218 ], [ -119.6354555226, 35.4703938094 ], [ -119.7002869636, 35.4874775153 ], [ -119.6882289099, 35.4991768439 ], [ -119.7892935763, 35.5030144326 ], [ -119.6347891083, 35.4455560807 ], [ -119.6353885703, 35.4247448471 ], [ -119.6603026377, 35.4172478056 ], [ -119.6286921661, 35.4150436897 ], [ -119.6666660337, 35.4091188845 ], [ -119.5803059531, 35.3745767786 ], [ -119.4283967817, 35.2420063324 ], [ -119.4509374337, 35.1932248017 ], [ -119.4122037612, 35.2240903249 ], [ -119.3947708132, 35.2020265891 ], [ -119.4003120898, 35.2189577799 ], [ -119.3592461375, 35.2017651181 ], [ -119.3902189553, 35.1919903474 ], [ -119.3311957766, 35.1905352056 ], [ -119.2959738476, 35.2063623606 ], [ -119.3223693914, 35.2282828549 ], [ -119.313749847, 35.2429364072 ], [ -119.3762091733, 35.2749644773 ], [ -119.3764562073, 35.3042278801 ], [ -119.3585494006, 35.3042760165 ], [ -119.358495861, 35.4141710186 ], [ -119.3149853323, 35.420010439 ], [ -119.3056756149, 35.4493297575 ], [ -119.3656310149, 35.4943771182 ], [ -119.375095963, 35.532531421 ], [ -119.4528244177, 35.5803547696 ], [ -119.3498780359, 35.5804190144 ], [ -119.3497149764, 35.5949634024 ], [ -119.3763195017, 35.5951685332 ], [ -119.3678812929, 35.6822627204 ], [ -119.3855442223, 35.7219125599 ], [ -119.367349493, 35.7401598994 ], [ -119.3809626859, 35.7328050933 ], [ -119.4116942727, 35.7619121579 ], [ -119.4115083798, 35.7983862433 ], [ -119.3120726402, 35.8421356557 ], [ -119.3120023228, 35.8566183351 ], [ -119.3839661913, 35.8567108343 ], [ -119.3838624844, 35.8712795753 ], [ -119.3304151891, 35.8711332075 ], [ -119.3554647827, 35.9730118706 ], [ -119.5378415889, 35.9722639743 ] ] ] } }
{ "type": "Feature", "properties": { "PA_NO": "709", "Basin_Subb": "709-0", "ShapeSTAre": 2778480603.9250498, "ShapeSTLen": 467476.72589523898, "NAME": "Kern Valley Floor" }, "geometry": { "type": "Polygon", "coordinates": [ [ [ -118.9694268553, 36.0963464406 ], [ -119.0359104877, 36.1036338575 ], [ -119.0178468307, 36.074472252 ], [ -119.0536672469, 36.0600859907 ], [ -119.0716332229, 36.0600957974 ], [ -119.0558815645, 36.0745796321 ], [ -119.1077891249, 36.0746687894 ], [ -119.1257765931, 36.0314539245 ], [ -119.107935023, 36.0351864205 ], [ -119.0843872868, 35.9734210121 ], [ -119.0977373749, 35.9734561678 ], [ -119.3554647827, 35.9730118706 ], [ -119.3304151891, 35.8711332075 ], [ -119.3838624844, 35.8712795753 ], [ -119.3839661913, 35.8567108343 ], [ -119.3120023228, 35.8566183351 ], [ -119.3120726402, 35.8421356557 ], [ -119.4115083798, 35.7983862433 ], [ -119.4116942727, 35.7619121579 ], [ -119.3809626859, 35.7328050933 ], [ -119.367349493, 35.7401598994 ], [ -119.3855442223, 35.7219125599 ], [ -119.3678812929, 35.6822627204 ], [ -119.3323341972, 35.6821117114 ], [ -119.2965364921, 35.6346423864 ], [ -119.2520203874, 35.6309688388 ], [ -119.2429191969, 35.645390992 ], [ -119.225369219, 35.572571336 ], [ -119.1720868705, 35.5943783634 ], [ -119.1277448522, 35.5798255087 ], [ -119.1054953829, 35.6088855424 ], [ -119.0563414839, 35.6231525993 ], [ -119.0649658676, 35.6378275479 ], [ -119.0118559364, 35.6378649732 ], [ -119.0121171135, 35.6232131186 ], [ -118.9141226785, 35.6091305123 ], [ -118.8962749298, 35.5508350281 ], [ -118.8609400448, 35.5583787827 ], [ -118.807755681, 35.5218827561 ], [ -118.7705146653, 35.5220912652 ], [ -118.7777819767, 35.5560351422 ], [ -118.7969250467, 35.5686256424 ], [ -118.7707852586, 35.5618085246 ], [ -118.7692464005, 35.5881047743 ], [ -118.7826037217, 35.6019849649 ], [ -118.808817955, 35.590391877 ], [ -118.7915794329, 35.6228416515 ], [ -118.8117024552, 35.6382675815 ], [ -118.8314340026, 35.6148606407 ], [ -118.8779069999, 35.621827364 ], [ -118.883640393, 35.6501346834 ], [ -118.9308149261, 35.6352435114 ], [ -118.9149196432, 35.6717449061 ], [ -118.9564856148, 35.7093917806 ], [ -118.9264571025, 35.701403518 ], [ -118.950813362, 35.7177312002 ], [ -118.9301624348, 35.7561641839 ], [ -118.94835068, 35.7584599104 ], [ -118.9180582544, 35.7888244203 ], [ -118.9466768087, 35.8762553622 ], [ -118.9367743101, 35.8903167025 ], [ -118.9242071955, 35.8697638887 ], [ -118.9196980229, 35.9071861562 ], [ -118.9472418158, 35.8963300555 ], [ -118.9225254667, 35.9521201865 ], [ -118.9392671539, 36.0038662016 ], [ -118.9161715758, 36.0693639823 ], [ -118.9694268553, 36.0963464406 ] ] ] } }
{ "type": "Feature", "properties": { "PA_NO": "710", "Basin_Subb": "710-0", "ShapeSTAre": 4419902279.7389698, "ShapeSTLen": 572977.186549137, "NAME": "Kern Delta" }, "geometry": { "type": "Polygon", "coordinates": [ [ [ -118.7777819767, 35.5560351422 ], [ -118.7705146653, 35.5220912652 ], [ -118.807755681, 35.5218827561 ], [ -118.8609400448, 35.5583787827 ], [ -118.8962749298, 35.5508350281 ], [ -118.9141226785, 35.6091305123 ], [ -119.0121171135, 35.6232131186 ], [ -119.0118559364, 35.6378649732 ], [ -119.0649658676, 35.6378275479 ], [ -119.0563414839, 35.6231525993 ], [ -119.1054953829, 35.6088855424 ], [ -119.1277448522, 35.5798255087 ], [ -119.1720868705, 35.5943783634 ], [ -119.225369219, 35.572571336 ], [ -119.2429191969, 35.645390992 ], [ -119.2520203874, 35.6309688388 ], [ -119.2965364921, 35.6346423864 ], [ -119.3323341972, 35.6821117114 ], [ -119.3678812929, 35.6822627204 ], [ -119.3763195017, 35.5951685332 ], [ -119.3497149764, 35.5949634024 ], [ -119.3498780359, 35.5804190144 ], [ -119.4528244177, 35.5803547696 ], [ -119.375095963, 35.532531421 ], [ -119.3656310149, 35.4943771182 ], [ -119.3056756149, 35.4493297575 ], [ -119.3149853323, 35.420010439 ], [ -119.358495861, 35.4141710186 ], [ -119.3585494006, 35.3042760165 ], [ -119.3764562073, 35.3042278801 ], [ -119.3762091733, 35.2749644773 ], [ -119.313749847, 35.2429364072 ], [ -119.3223693914, 35.2282828549 ], [ -119.2959738476, 35.2063623606 ], [ -119.3311957766, 35.1905352056 ], [ -119.2913854723, 35.1808861676 ], [ -119.3293970502, 35.1621719784 ], [ -119.2856848551, 35.1438091015 ], [ -119.3062646043, 35.136806321 ], [ -119.2905337158, 35.1151291649 ], [ -119.2019193193, 35.1364961654 ], [ -119.227824648, 35.1277340957 ], [ -119.1654543285, 35.1161635751 ], [ -119.1806342264, 35.1395147482 ], [ -119.0940797135, 35.1779704313 ], [ -119.0728151561, 35.1385872688 ], [ -118.9801553728, 35.1246895779 ], [ -118.9426933257, 35.0915391337 ], [ -118.9316356206, 35.111459024 ], [ -118.9077018541, 35.101198426 ], [ -118.9131046528, 35.1189979725 ], [ -118.8471594302, 35.1184378307 ], [ -118.8351067763, 35.105132413 ], [ -118.8219365202, 35.1405536275 ], [ -118.7843791952, 35.1511693696 ], [ -118.7495623264, 35.1968021527 ], [ -118.7061685742, 35.1887420689 ], [ -118.710177793, 35.2129672038 ], [ -118.6766113585, 35.2298563107 ], [ -118.6515699666, 35.2205611526 ], [ -118.6762897967, 35.2515930679 ], [ -118.7134990075, 35.247218583 ], [ -118.701344163, 35.2608825931 ], [ -118.7265574889, 35.25674564 ], [ -118.79911796, 35.3003521483 ], [ -118.7754505674, 35.3195608376 ], [ -118.7937905201, 35.3440277881 ], [ -118.7056714833, 35.3988606755 ], [ -118.7068027183, 35.4316322743 ], [ -118.7363739702, 35.4311847992 ], [ -118.7165642146, 35.4427051289 ], [ -118.7369240886, 35.4600447332 ], [ -118.6420881257, 35.4615964663 ], [ -118.6979294106, 35.4086441911 ], [ -118.5805712183, 35.4735755155 ], [ -118.6110303255, 35.4940542766 ], [ -118.6652398108, 35.4787134808 ], [ -118.7777819767, 35.5560351422 ] ] ] } }
