{ "type": "Feature", "properties": { "NAME": "" , "WBA_ID": "DETAW", "HydroRegio": null, "uid": 0 }, "geometry": { "type": "Polygon", "coordinates": [ [ [ -121.26536, 37.6760122 ], [ -121.2564593, 37.6802882 ], [ -121.2398491, 37.699713 ], [ -121.2578998, 37.6994431 ], [ -121.2524609, 37.7253495 ], [ -121.2696754, 37.753497 ], [ -121.2704041, 37.7756011 ], [ -121.2870286, 37.7756641 ], [ -121.3081751, 37.806616 ], [ -121.2931449, 37.8195184 ], [ -121.2864256, 37.841131 ], [ -121.3130014, 37.8409428 ], [ -121.3073776, 37.8522151 ], [ -121.3105325, 37.8622279 ], [ -121.3078557, 37.8652332 ], [ -121.3017849, 37.8663646 ], [ -121.3034351, 37.8949785 ], [ -121.2860041, 37.9007781 ], [ -121.2961267, 37.9325049 ], [ -121.2888467, 37.9407202 ], [ -121.2953533, 37.9675082 ], [ -121.3088564, 37.9830336 ], [ -121.325901, 38.0212302 ], [ -121.3461132, 38.021165 ], [ -121.3421109, 38.0502844 ], [ -121.351519, 38.0576094 ], [ -121.3699556, 38.0652958 ], [ -121.3703367, 38.0803193 ], [ -121.3980012, 38.1224651 ], [ -121.3993705, 38.181718 ], [ -121.4067856, 38.2041904 ], [ -121.3772828, 38.2157626 ], [ -121.3820246, 38.2384066 ], [ -121.4014526, 38.2507035 ], [ -121.40061, 38.2830707 ], [ -121.4159757, 38.2833105 ], [ -121.440811, 38.2903798 ], [ -121.44618, 38.3400193 ], [ -121.4946236, 38.3430531 ], [ -121.4762596, 38.3678904 ], [ -121.4819174, 38.4379426 ], [ -121.491736, 38.5003068 ], [ -121.5209077, 38.5086588 ], [ -121.5103161, 38.5419357 ], [ -121.5193632, 38.5670977 ], [ -121.5062721, 38.5872361 ], [ -121.5385537, 38.5888976 ], [ -121.5826483, 38.5747008 ], [ -121.6112024, 38.5732154 ], [ -121.6380485, 38.5634542 ], [ -121.6751237, 38.5464673 ], [ -121.6857891, 38.5205981 ], [ -121.6394844, 38.5196756 ], [ -121.6399402, 38.5004558 ], [ -121.605427, 38.500676 ], [ -121.6033428, 38.4824524 ], [ -121.6287002, 38.4827522 ], [ -121.6256135, 38.4598401 ], [ -121.6560598, 38.4597881 ], [ -121.6563813, 38.4159907 ], [ -121.6747554, 38.4160874 ], [ -121.6750847, 38.4668898 ], [ -121.7123237, 38.4601275 ], [ -121.730094, 38.4240495 ], [ -121.7488488, 38.4020013 ], [ -121.7760321, 38.3950205 ], [ -121.7761993, 38.3731154 ], [ -121.7486964, 38.3729285 ], [ -121.739798, 38.3258173 ], [ -121.7582381, 38.3073639 ], [ -121.7860052, 38.3072943 ], [ -121.7867085, 38.285416 ], [ -121.804922, 38.2713326 ], [ -121.8322432, 38.2716664 ], [ -121.841869, 38.250187 ], [ -121.8052413, 38.2423757 ], [ -121.7685548, 38.2275636 ], [ -121.7497332, 38.2274006 ], [ -121.713575, 38.2076837 ], [ -121.7131431, 38.1948369 ], [ -121.683516, 38.1708298 ], [ -121.699937, 38.1278314 ], [ -121.7405391, 38.0927706 ], [ -121.8044826, 38.0633023 ], [ -121.8421096, 38.0773132 ], [ -121.8621997, 38.0727662 ], [ -121.834076, 38.0241924 ], [ -121.7837877, 38.0146252 ], [ -121.7600972, 38.02056 ], [ -121.7441057, 38.0051967 ], [ -121.6994469, 37.9940272 ], [ -121.7485279, 37.9639582 ], [ -121.7505358, 37.9403836 ], [ -121.7412345, 37.9200245 ], [ -121.7238659, 37.9086094 ], [ -121.7206544, 37.892873 ], [ -121.6932995, 37.9256165 ], [ -121.6683877, 37.9184991 ], [ -121.5670579, 37.9167608 ], [ -121.5794571, 37.8691139 ], [ -121.5619264, 37.8525152 ], [ -121.5549284, 37.8163792 ], [ -121.4966445, 37.7820659 ], [ -121.4834288, 37.7827285 ], [ -121.4661888, 37.8027263 ], [ -121.4500543, 37.8047734 ], [ -121.4218705, 37.7939862 ], [ -121.4102384, 37.7789308 ], [ -121.3082535, 37.7663599 ], [ -121.2899997, 37.7156441 ], [ -121.2647568, 37.7214153 ], [ -121.2753575, 37.7006018 ], [ -121.2577621, 37.6827439 ], [ -121.26536, 37.6760122 ] ] ] } }
{ "type": "Feature", "properties": { "NAME": "Redding, West" , "WBA_ID": "02", "HydroRegio": "SAC", "uid": 1 }, "geometry": { "type": "Polygon", "coordinates": [ [ [ -122.4175585, 40.7174906 ], [ -122.43868, 40.7299004 ], [ -122.451367, 40.7221872 ], [ -122.4984513, 40.7127353 ], [ -122.5358354, 40.726081 ], [ -122.5408285, 40.7105107 ], [ -122.5327085, 40.6838131 ], [ -122.5423811, 40.6759643 ], [ -122.5237632, 40.6567096 ], [ -122.5183943, 40.6282331 ], [ -122.5213414, 40.5970245 ], [ -122.5021135, 40.5700742 ], [ -122.5145274, 40.5520053 ], [ -122.505107, 40.5382361 ], [ -122.5191688, 40.5177055 ], [ -122.5375979, 40.5085105 ], [ -122.5776395, 40.5183956 ], [ -122.5672805, 40.49081 ], [ -122.5544221, 40.4929411 ], [ -122.5378036, 40.457505 ], [ -122.4911803, 40.4144289 ], [ -122.4900499, 40.3931189 ], [ -122.4710247, 40.3777766 ], [ -122.4811128, 40.3654972 ], [ -122.5444263, 40.3606441 ], [ -122.5781166, 40.3466229 ], [ -122.627094, 40.3181564 ], [ -122.6244484, 40.3122827 ], [ -122.5471463, 40.3001996 ], [ -122.5200145, 40.2999747 ], [ -122.4935345, 40.309496 ], [ -122.4702125, 40.3288932 ], [ -122.4497536, 40.3321201 ], [ -122.4343982, 40.316053 ], [ -122.4414829, 40.2713102 ], [ -122.4546624, 40.2636586 ], [ -122.4633811, 40.2490143 ], [ -122.4672508, 40.229534 ], [ -122.479671, 40.2254274 ], [ -122.46961, 40.2263277 ], [ -122.4462809, 40.2383631 ], [ -122.4046379, 40.254549 ], [ -122.3481476, 40.2662179 ], [ -122.3139656, 40.2816694 ], [ -122.2718467, 40.277637 ], [ -122.249324, 40.262925 ], [ -122.2259097, 40.2575421 ], [ -122.1815503, 40.2953965 ], [ -122.1779715, 40.3165853 ], [ -122.2110855, 40.326102 ], [ -122.2042014, 40.3415272 ], [ -122.1762088, 40.354744 ], [ -122.1985953, 40.3762105 ], [ -122.191771, 40.3973716 ], [ -122.1955522, 40.4286274 ], [ -122.2283256, 40.462051 ], [ -122.3160504, 40.4724468 ], [ -122.3314207, 40.493407 ], [ -122.3625413, 40.5016899 ], [ -122.3555964, 40.5366565 ], [ -122.3737902, 40.545601 ], [ -122.3742935, 40.5713129 ], [ -122.3651969, 40.591151 ], [ -122.4352782, 40.5943731 ], [ -122.4534218, 40.627484 ], [ -122.4389077, 40.6519496 ], [ -122.4601154, 40.6617395 ], [ -122.4503524, 40.6997268 ], [ -122.4175585, 40.7174906 ] ] ] } }
{ "type": "Feature", "properties": { "NAME": "Redding, East" , "WBA_ID": "03", "HydroRegio": "SAC", "uid": 2 }, "geometry": { "type": "Polygon", "coordinates": [ [ [ -122.1907277, 40.2586974 ], [ -122.1913029, 40.2766532 ], [ -122.1658687, 40.2823811 ], [ -122.1093719, 40.3084471 ], [ -122.0763127, 40.3138186 ], [ -122.0575713, 40.3353345 ], [ -122.0173854, 40.3519239 ], [ -121.9939034, 40.3429248 ], [ -121.953272, 40.344392 ], [ -121.949261, 40.3556184 ], [ -122.0035689, 40.36718 ], [ -122.0161142, 40.379436 ], [ -122.0617523, 40.3850497 ], [ -122.089868, 40.3823466 ], [ -122.1086454, 40.3940958 ], [ -122.1265945, 40.3891758 ], [ -122.1416048, 40.4081541 ], [ -122.1134428, 40.4135242 ], [ -122.0792945, 40.4318577 ], [ -122.0275015, 40.4378743 ], [ -121.9997867, 40.4502224 ], [ -121.9973822, 40.4643664 ], [ -121.9435947, 40.4684534 ], [ -121.9082609, 40.4819447 ], [ -121.9332075, 40.4942051 ], [ -121.9709329, 40.4918108 ], [ -122.0381641, 40.5161478 ], [ -122.0767801, 40.5087512 ], [ -122.1712061, 40.5509074 ], [ -122.2142604, 40.5807482 ], [ -122.2370461, 40.6540159 ], [ -122.2248713, 40.6767449 ], [ -122.2249635, 40.6983843 ], [ -122.1980006, 40.7121455 ], [ -122.2052333, 40.7219786 ], [ -122.2474548, 40.7335941 ], [ -122.2825101, 40.7317548 ], [ -122.2849579, 40.7443059 ], [ -122.3128095, 40.7512227 ], [ -122.3393846, 40.7350363 ], [ -122.3969864, 40.7131685 ], [ -122.4175585, 40.7174906 ], [ -122.4503524, 40.6997268 ], [ -122.4601154, 40.6617395 ], [ -122.4389077, 40.6519496 ], [ -122.4534218, 40.627484 ], [ -122.4352782, 40.5943731 ], [ -122.3651969, 40.591151 ], [ -122.3742935, 40.5713129 ], [ -122.3737902, 40.545601 ], [ -122.3555964, 40.5366565 ], [ -122.3625413, 40.5016899 ], [ -122.3314207, 40.493407 ], [ -122.3160504, 40.4724468 ], [ -122.2283256, 40.462051 ], [ -122.1955522, 40.4286274 ], [ -122.191771, 40.3973716 ], [ -122.1985953, 40.3762105 ], [ -122.1762088, 40.354744 ], [ -122.2042014, 40.3415272 ], [ -122.2110855, 40.326102 ], [ -122.1779715, 40.3165853 ], [ -122.1815503, 40.2953965 ], [ -122.2259097, 40.2575421 ], [ -122.2082587, 40.2358917 ], [ -122.1907277, 40.2586974 ] ] ] } }
{ "type": "Feature", "properties": { "NAME": "Red Bluff, West" , "WBA_ID": "04", "HydroRegio": "SAC", "uid": 3 }, "geometry": { "type": "Polygon", "coordinates": [ [ [ -122.2259097, 40.2575421 ], [ -122.249324, 40.262925 ], [ -122.2718467, 40.277637 ], [ -122.3139656, 40.2816694 ], [ -122.3481476, 40.2662179 ], [ -122.4046379, 40.254549 ], [ -122.4462809, 40.2383631 ], [ -122.46961, 40.2263277 ], [ -122.479671, 40.2254274 ], [ -122.51219, 40.2014461 ], [ -122.5480809, 40.1667557 ], [ -122.5867899, 40.1431433 ], [ -122.609622, 40.1430245 ], [ -122.6410575, 40.1320806 ], [ -122.6939337, 40.0889679 ], [ -122.7392356, 40.062104 ], [ -122.7045476, 40.0558664 ], [ -122.6653818, 40.0356452 ], [ -122.602279, 40.0434912 ], [ -122.5927095, 40.0535263 ], [ -122.5613444, 40.0558938 ], [ -122.5485884, 40.0452537 ], [ -122.5172997, 40.0428209 ], [ -122.5096991, 40.0236701 ], [ -122.5201857, 40.0096993 ], [ -122.5463927, 40.0001329 ], [ -122.5656136, 39.962649 ], [ -122.5948512, 39.945384 ], [ -122.6281824, 39.9371932 ], [ -122.6319333, 39.9190729 ], [ -122.6207556, 39.9053462 ], [ -122.5853547, 39.9112071 ], [ -122.5555961, 39.8964871 ], [ -122.5413292, 39.9002741 ], [ -122.5180625, 39.8811387 ], [ -122.54366, 39.8552646 ], [ -122.5193427, 39.8483368 ], [ -122.511135, 39.8307943 ], [ -122.4722263, 39.8225065 ], [ -122.4343099, 39.8221131 ], [ -122.3758364, 39.8379284 ], [ -122.3702404, 39.8293934 ], [ -122.3306796, 39.833344 ], [ -122.3243441, 39.8184729 ], [ -122.297039, 39.7988657 ], [ -122.1409422, 39.7975785 ], [ -122.0593531, 39.7976446 ], [ -122.0464727, 39.797651 ], [ -122.0647367, 39.811244 ], [ -122.0551823, 39.8245759 ], [ -122.0694206, 39.8390296 ], [ -122.0407832, 39.8815309 ], [ -122.0631668, 39.8890156 ], [ -122.0936545, 39.9126334 ], [ -122.094754, 39.9314397 ], [ -122.0811577, 39.9552967 ], [ -122.0953725, 39.9911599 ], [ -122.1192687, 40.0302676 ], [ -122.1109816, 40.0620195 ], [ -122.1443925, 40.1152336 ], [ -122.1346461, 40.1217171 ], [ -122.1533613, 40.1458005 ], [ -122.2064881, 40.1540349 ], [ -122.2355507, 40.1811263 ], [ -122.2189478, 40.2036078 ], [ -122.1877197, 40.2245223 ], [ -122.1750067, 40.2481811 ], [ -122.1907277, 40.2586974 ], [ -122.2082587, 40.2358917 ], [ -122.2259097, 40.2575421 ] ] ] } }
{ "type": "Feature", "properties": { "NAME": "Red Bluff, East; Los Molinos" , "WBA_ID": "05", "HydroRegio": "SAC", "uid": 4 }, "geometry": { "type": "Polygon", "coordinates": [ [ [ -121.806048, 39.784363 ], [ -121.8066888, 39.8128505 ], [ -121.8253745, 39.8122272 ], [ -121.8257522, 39.8555682 ], [ -121.8636625, 39.8557696 ], [ -121.8606113, 39.8989663 ], [ -121.8885657, 39.9201132 ], [ -121.891175, 39.9650694 ], [ -121.9283482, 39.9756992 ], [ -121.9207817, 40.0077933 ], [ -121.9465808, 40.0131122 ], [ -121.963295, 40.0421567 ], [ -122.0178461, 40.0456523 ], [ -122.024248, 40.0575332 ], [ -121.9974451, 40.0699004 ], [ -122.0321019, 40.0961336 ], [ -122.0623278, 40.135024 ], [ -122.060755, 40.1486606 ], [ -122.0911719, 40.1603093 ], [ -122.0893698, 40.1730345 ], [ -122.1166012, 40.1978412 ], [ -122.1266462, 40.2207743 ], [ -122.1570526, 40.2301353 ], [ -122.1750067, 40.2481811 ], [ -122.1877197, 40.2245223 ], [ -122.2189478, 40.2036078 ], [ -122.2355507, 40.1811263 ], [ -122.2064881, 40.1540349 ], [ -122.1533613, 40.1458005 ], [ -122.1346461, 40.1217171 ], [ -122.1443925, 40.1152336 ], [ -122.1109816, 40.0620195 ], [ -122.1192687, 40.0302676 ], [ -122.0953725, 39.9911599 ], [ -122.0811577, 39.9552967 ], [ -122.094754, 39.9314397 ], [ -122.0936545, 39.9126334 ], [ -122.0631668, 39.8890156 ], [ -122.0407832, 39.8815309 ], [ -122.0694206, 39.8390296 ], [ -122.0551823, 39.8245759 ], [ -122.0647367, 39.811244 ], [ -122.0464727, 39.797651 ], [ -122.0219145, 39.7950122 ], [ -122.0313683, 39.7775474 ], [ -121.9969262, 39.7524383 ], [ -121.9814453, 39.7335189 ], [ -121.9663611, 39.741234 ], [ -121.9417784, 39.6977062 ], [ -121.9318115, 39.7163062 ], [ -121.8817602, 39.7285616 ], [ -121.8791969, 39.7529011 ], [ -121.8883652, 39.7831719 ], [ -121.8674924, 39.7828895 ], [ -121.8674572, 39.8011668 ], [ -121.8488749, 39.811904 ], [ -121.8421645, 39.7832037 ], [ -121.806048, 39.784363 ] ] ] } }
{ "type": "Feature", "properties": { "NAME": "Orland" , "WBA_ID": "06", "HydroRegio": "SAC", "uid": 5 }, "geometry": { "type": "Polygon", "coordinates": [ [ [ -122.1409422, 39.7975785 ], [ -122.297039, 39.7988657 ], [ -122.3243441, 39.8184729 ], [ -122.3494219, 39.8024496 ], [ -122.3386498, 39.7650231 ], [ -122.3762492, 39.7369448 ], [ -122.4060647, 39.7263103 ], [ -122.4415409, 39.6983655 ], [ -122.3762797, 39.7192883 ], [ -122.3466057, 39.7481288 ], [ -122.317344, 39.7551595 ], [ -122.2864433, 39.7778773 ], [ -122.2528206, 39.7623124 ], [ -122.2532181, 39.7263104 ], [ -122.241499, 39.711746 ], [ -122.2159261, 39.711432 ], [ -122.1876266, 39.7255366 ], [ -122.1501594, 39.7251783 ], [ -122.1304717, 39.7396018 ], [ -122.113648, 39.7394025 ], [ -122.1042903, 39.7175893 ], [ -122.0826055, 39.7176002 ], [ -122.1102987, 39.7685335 ], [ -122.1408901, 39.7685477 ], [ -122.1409422, 39.7975785 ] ] ] } }
{ "type": "Feature", "properties": { "NAME": "Willows; Tehama-Colusa, North" , "WBA_ID": "07N", "HydroRegio": "SAC", "uid": 6 }, "geometry": { "type": "Polygon", "coordinates": [ [ [ -122.2618113, 39.3237239 ], [ -122.2445824, 39.3376083 ], [ -122.2572213, 39.3630681 ], [ -122.2486824, 39.4362463 ], [ -122.2254525, 39.4509521 ], [ -122.2298958, 39.509635 ], [ -122.1927695, 39.5095049 ], [ -122.1745847, 39.546185 ], [ -122.1489422, 39.5469372 ], [ -122.1295312, 39.5676255 ], [ -122.1260948, 39.6110114 ], [ -122.091458, 39.6190082 ], [ -122.0876904, 39.630665 ], [ -122.0320465, 39.636585 ], [ -122.0275164, 39.6595591 ], [ -122.0318228, 39.695014 ], [ -122.0072912, 39.7138091 ], [ -122.0221349, 39.7445963 ], [ -122.0362853, 39.7446876 ], [ -122.0399585, 39.7758232 ], [ -122.0593531, 39.7976446 ], [ -122.1409422, 39.7975785 ], [ -122.1408901, 39.7685477 ], [ -122.1102987, 39.7685335 ], [ -122.0826055, 39.7176002 ], [ -122.1042903, 39.7175893 ], [ -122.113648, 39.7394025 ], [ -122.1304717, 39.7396018 ], [ -122.1501594, 39.7251783 ], [ -122.1876266, 39.7255366 ], [ -122.2159261, 39.711432 ], [ -122.241499, 39.711746 ], [ -122.2532181, 39.7263104 ], [ -122.2528206, 39.7623124 ], [ -122.2864433, 39.7778773 ], [ -122.317344, 39.7551595 ], [ -122.3466057, 39.7481288 ], [ -122.3762797, 39.7192883 ], [ -122.4415409, 39.6983655 ], [ -122.4679293, 39.6764188 ], [ -122.4655975, 39.6361181 ], [ -122.5026871, 39.6178955 ], [ -122.5101853, 39.5823519 ], [ -122.4754423, 39.4664433 ], [ -122.458627, 39.4227397 ], [ -122.4055464, 39.423974 ], [ -122.3634434, 39.3902192 ], [ -122.3332073, 39.3484669 ], [ -122.296382, 39.329955 ], [ -122.2618113, 39.3237239 ] ] ] } }
{ "type": "Feature", "properties": { "NAME": "Arbuckle; Tehama-Colusa, South" , "WBA_ID": "07S", "HydroRegio": "SAC", "uid": 7 }, "geometry": { "type": "Polygon", "coordinates": [ [ [ -122.2618113, 39.3237239 ], [ -122.296382, 39.329955 ], [ -122.3332073, 39.3484669 ], [ -122.3634434, 39.3902192 ], [ -122.4055464, 39.423974 ], [ -122.458627, 39.4227397 ], [ -122.4529268, 39.3879896 ], [ -122.4608657, 39.3728677 ], [ -122.4561878, 39.3327581 ], [ -122.4403553, 39.3071421 ], [ -122.454422, 39.2842592 ], [ -122.4457574, 39.2576265 ], [ -122.4188366, 39.2509128 ], [ -122.4190386, 39.2204524 ], [ -122.4096184, 39.1819379 ], [ -122.4191148, 39.1397464 ], [ -122.4034808, 39.0807659 ], [ -122.3851324, 39.0457854 ], [ -122.3592192, 39.0560053 ], [ -122.3481068, 39.0286491 ], [ -122.3210077, 39.0180596 ], [ -122.3170664, 38.9928761 ], [ -122.3192984, 38.938322 ], [ -122.334871, 38.9240779 ], [ -122.2878139, 38.9243661 ], [ -122.2309267, 38.9246654 ], [ -122.1970634, 38.8955378 ], [ -122.1741681, 38.8487005 ], [ -122.1516743, 38.8463847 ], [ -122.1383081, 38.8040989 ], [ -122.127458, 38.7873095 ], [ -122.1006581, 38.7999311 ], [ -122.0477132, 38.7956262 ], [ -121.9700379, 38.7948928 ], [ -121.9702101, 38.7662295 ], [ -121.9149497, 38.7508514 ], [ -121.9113075, 38.7245413 ], [ -121.8768237, 38.7215375 ], [ -121.8491196, 38.7294639 ], [ -121.8388887, 38.7124077 ], [ -121.8076382, 38.7236728 ], [ -121.8038871, 38.7338139 ], [ -121.7618646, 38.7206073 ], [ -121.7429315, 38.7288489 ], [ -121.7092526, 38.7197416 ], [ -121.6911859, 38.7354791 ], [ -121.7290261, 38.7634581 ], [ -121.7285269, 38.7961176 ], [ -121.7740238, 38.7930676 ], [ -121.797608, 38.8082096 ], [ -121.840262, 38.8083057 ], [ -121.8578438, 38.8306352 ], [ -121.9044923, 38.8310488 ], [ -121.9084603, 38.8524936 ], [ -121.9284056, 38.8670678 ], [ -121.9281515, 38.8962391 ], [ -121.9466457, 38.9034964 ], [ -121.9473584, 38.925297 ], [ -121.9240073, 38.9252662 ], [ -121.9241115, 38.947038 ], [ -121.9516969, 38.954318 ], [ -121.9751092, 38.9837493 ], [ -121.9892343, 39.01275 ], [ -122.0160172, 39.0203666 ], [ -122.0152918, 39.0633966 ], [ -122.0413968, 39.0642764 ], [ -122.0789154, 39.0819879 ], [ -122.0846853, 39.1119231 ], [ -122.1329266, 39.1086329 ], [ -122.1610362, 39.1195841 ], [ -122.1799783, 39.1087211 ], [ -122.2055674, 39.108628 ], [ -122.2330397, 39.1257723 ], [ -122.2361763, 39.152824 ], [ -122.2182589, 39.1668792 ], [ -122.2551874, 39.1936041 ], [ -122.2553439, 39.2079864 ], [ -122.2741678, 39.2242346 ], [ -122.2556701, 39.233507 ], [ -122.2656227, 39.2688744 ], [ -122.2938006, 39.2758159 ], [ -122.2936968, 39.3049289 ], [ -122.2658834, 39.305009 ], [ -122.2618113, 39.3237239 ] ] ] } }
{ "type": "Feature", "properties": { "NAME": "Hamilton City; Glenn-Colusa, North" , "WBA_ID": "08N", "HydroRegio": "SAC", "uid": 8 }, "geometry": { "type": "Polygon", "coordinates": [ [ [ -121.9417784, 39.6977062 ], [ -121.9663611, 39.741234 ], [ -121.9814453, 39.7335189 ], [ -121.9969262, 39.7524383 ], [ -122.0313683, 39.7775474 ], [ -122.0219145, 39.7950122 ], [ -122.0464727, 39.797651 ], [ -122.0593531, 39.7976446 ], [ -122.0399585, 39.7758232 ], [ -122.0362853, 39.7446876 ], [ -122.0221349, 39.7445963 ], [ -122.0072912, 39.7138091 ], [ -122.0318228, 39.695014 ], [ -122.0275164, 39.6595591 ], [ -122.0320465, 39.636585 ], [ -122.0876904, 39.630665 ], [ -122.091458, 39.6190082 ], [ -122.1260948, 39.6110114 ], [ -122.1295312, 39.5676255 ], [ -122.1489422, 39.5469372 ], [ -122.1745847, 39.546185 ], [ -122.1927695, 39.5095049 ], [ -122.2298958, 39.509635 ], [ -122.2254525, 39.4509521 ], [ -122.2486824, 39.4362463 ], [ -122.2572213, 39.3630681 ], [ -122.2445824, 39.3376083 ], [ -122.2618113, 39.3237239 ], [ -122.1899166, 39.332591 ], [ -122.1728015, 39.304371 ], [ -122.1432853, 39.3028328 ], [ -122.1166436, 39.2906322 ], [ -122.1165656, 39.2754827 ], [ -122.0791959, 39.2824244 ], [ -122.016466, 39.2840673 ], [ -122.0298782, 39.3009783 ], [ -122.003623, 39.3982638 ], [ -122.0104083, 39.423404 ], [ -121.9951285, 39.4438719 ], [ -122.0021999, 39.4947321 ], [ -121.9910682, 39.5054252 ], [ -122.0084845, 39.5210077 ], [ -121.9945143, 39.5330941 ], [ -122.0032491, 39.5583229 ], [ -121.9928063, 39.6078546 ], [ -121.9893092, 39.645183 ], [ -121.9673446, 39.6543746 ], [ -121.9826376, 39.6710591 ], [ -121.9417784, 39.6977062 ] ] ] } }
{ "type": "Feature", "properties": { "NAME": "Williams; Glenn-Colusa South" , "WBA_ID": "08S", "HydroRegio": "SAC", "uid": 9 }, "geometry": { "type": "Polygon", "coordinates": [ [ [ -122.016466, 39.2840673 ], [ -122.0791959, 39.2824244 ], [ -122.1165656, 39.2754827 ], [ -122.1166436, 39.2906322 ], [ -122.1432853, 39.3028328 ], [ -122.1728015, 39.304371 ], [ -122.1899166, 39.332591 ], [ -122.2618113, 39.3237239 ], [ -122.2658834, 39.305009 ], [ -122.2936968, 39.3049289 ], [ -122.2938006, 39.2758159 ], [ -122.2656227, 39.2688744 ], [ -122.2556701, 39.233507 ], [ -122.2741678, 39.2242346 ], [ -122.2553439, 39.2079864 ], [ -122.2551874, 39.1936041 ], [ -122.2182589, 39.1668792 ], [ -122.2361763, 39.152824 ], [ -122.2330397, 39.1257723 ], [ -122.2055674, 39.108628 ], [ -122.1799783, 39.1087211 ], [ -122.1610362, 39.1195841 ], [ -122.1329266, 39.1086329 ], [ -122.0846853, 39.1119231 ], [ -122.0789154, 39.0819879 ], [ -122.0413968, 39.0642764 ], [ -122.0152918, 39.0633966 ], [ -122.0160172, 39.0203666 ], [ -121.9892343, 39.01275 ], [ -121.9751092, 38.9837493 ], [ -121.9516969, 38.954318 ], [ -121.9241115, 38.947038 ], [ -121.9240073, 38.9252662 ], [ -121.9473584, 38.925297 ], [ -121.9466457, 38.9034964 ], [ -121.9281515, 38.8962391 ], [ -121.9284056, 38.8670678 ], [ -121.9084603, 38.8524936 ], [ -121.9044923, 38.8310488 ], [ -121.8578438, 38.8306352 ], [ -121.840262, 38.8083057 ], [ -121.797608, 38.8082096 ], [ -121.7740238, 38.7930676 ], [ -121.7285269, 38.7961176 ], [ -121.7215467, 38.8021926 ], [ -121.7311976, 38.8355566 ], [ -121.7240796, 38.8504417 ], [ -121.7490457, 38.8716806 ], [ -121.7709207, 38.8616135 ], [ -121.8097409, 38.8723741 ], [ -121.8050891, 38.9151197 ], [ -121.8292732, 38.9188343 ], [ -121.8404197, 38.9545255 ], [ -121.8177635, 38.9889087 ], [ -121.8223144, 39.0248815 ], [ -121.8382887, 39.0444471 ], [ -121.8383049, 39.0632482 ], [ -121.8702554, 39.066597 ], [ -121.8936564, 39.0775286 ], [ -121.9204773, 39.1412647 ], [ -121.9449072, 39.1796799 ], [ -121.9372249, 39.1936053 ], [ -121.9720984, 39.1865833 ], [ -121.9833897, 39.2072535 ], [ -122.0127174, 39.2173697 ], [ -121.9996935, 39.2448813 ], [ -122.016466, 39.2840673 ] ] ] } }
{ "type": "Feature", "properties": { "NAME": "Butte City" , "WBA_ID": "09", "HydroRegio": "SAC", "uid": 10 }, "geometry": { "type": "Polygon", "coordinates": [ [ [ -121.9092658, 39.5946853 ], [ -121.9099568, 39.6364145 ], [ -121.9230743, 39.6524269 ], [ -121.8835557, 39.6749826 ], [ -121.8876311, 39.7060894 ], [ -121.8817602, 39.7285616 ], [ -121.9318115, 39.7163062 ], [ -121.9417784, 39.6977062 ], [ -121.9826376, 39.6710591 ], [ -121.9673446, 39.6543746 ], [ -121.9893092, 39.645183 ], [ -121.9928063, 39.6078546 ], [ -122.0032491, 39.5583229 ], [ -121.9945143, 39.5330941 ], [ -122.0084845, 39.5210077 ], [ -121.9910682, 39.5054252 ], [ -122.0021999, 39.4947321 ], [ -121.9951285, 39.4438719 ], [ -122.0104083, 39.423404 ], [ -122.003623, 39.3982638 ], [ -122.0298782, 39.3009783 ], [ -122.016466, 39.2840673 ], [ -121.9996935, 39.2448813 ], [ -122.0127174, 39.2173697 ], [ -121.9833897, 39.2072535 ], [ -121.9720984, 39.1865833 ], [ -121.9372249, 39.1936053 ], [ -121.9299714, 39.1974978 ], [ -121.9299232, 39.2040582 ], [ -121.9481006, 39.2420369 ], [ -121.9081883, 39.3013648 ], [ -121.8927849, 39.3619863 ], [ -121.8839344, 39.3738811 ], [ -121.8914171, 39.3928206 ], [ -121.9108876, 39.3928918 ], [ -121.9119555, 39.4347913 ], [ -121.9300875, 39.4422309 ], [ -121.930081, 39.478511 ], [ -121.9488397, 39.4859354 ], [ -121.9564965, 39.5154367 ], [ -121.939474, 39.5364839 ], [ -121.9084499, 39.5455629 ], [ -121.9092658, 39.5946853 ] ] ] } }
{ "type": "Feature", "properties": { "NAME": "Chico, Durham" , "WBA_ID": "10", "HydroRegio": "SAC", "uid": 11 }, "geometry": { "type": "Polygon", "coordinates": [ [ [ -121.806048, 39.784363 ], [ -121.8421645, 39.7832037 ], [ -121.8488749, 39.811904 ], [ -121.8674572, 39.8011668 ], [ -121.8674924, 39.7828895 ], [ -121.8883652, 39.7831719 ], [ -121.8791969, 39.7529011 ], [ -121.8817602, 39.7285616 ], [ -121.8876311, 39.7060894 ], [ -121.8835557, 39.6749826 ], [ -121.9230743, 39.6524269 ], [ -121.9099568, 39.6364145 ], [ -121.9092658, 39.5946853 ], [ -121.8954296, 39.6097142 ], [ -121.8576948, 39.6097322 ], [ -121.8484672, 39.5897782 ], [ -121.8011057, 39.5955297 ], [ -121.7860274, 39.6078386 ], [ -121.7741519, 39.5765298 ], [ -121.7360353, 39.592817 ], [ -121.713309, 39.5696817 ], [ -121.7117828, 39.5532799 ], [ -121.6795923, 39.5378444 ], [ -121.6323171, 39.5368332 ], [ -121.6142962, 39.5526935 ], [ -121.5795425, 39.5600312 ], [ -121.5918586, 39.5898195 ], [ -121.5787371, 39.6047872 ], [ -121.540171, 39.6051104 ], [ -121.5310956, 39.6183619 ], [ -121.5325178, 39.6434274 ], [ -121.5477172, 39.6649407 ], [ -121.598041, 39.6977106 ], [ -121.6366915, 39.6978705 ], [ -121.6369517, 39.6689714 ], [ -121.6934267, 39.6684967 ], [ -121.693597, 39.7264658 ], [ -121.7118259, 39.7324262 ], [ -121.7180708, 39.7498388 ], [ -121.7393877, 39.7511243 ], [ -121.7513416, 39.7722014 ], [ -121.806048, 39.784363 ] ] ] } }
{ "type": "Feature", "properties": { "NAME": "Gridley, Live Oaks" , "WBA_ID": "11", "HydroRegio": "SAC", "uid": 12 }, "geometry": { "type": "Polygon", "coordinates": [ [ [ -121.5310956, 39.6183619 ], [ -121.540171, 39.6051104 ], [ -121.5787371, 39.6047872 ], [ -121.5918586, 39.5898195 ], [ -121.5795425, 39.5600312 ], [ -121.6142962, 39.5526935 ], [ -121.6323171, 39.5368332 ], [ -121.6795923, 39.5378444 ], [ -121.7117828, 39.5532799 ], [ -121.713309, 39.5696817 ], [ -121.7360353, 39.592817 ], [ -121.7741519, 39.5765298 ], [ -121.7860274, 39.6078386 ], [ -121.8011057, 39.5955297 ], [ -121.8484672, 39.5897782 ], [ -121.8576948, 39.6097322 ], [ -121.8954296, 39.6097142 ], [ -121.9092658, 39.5946853 ], [ -121.9084499, 39.5455629 ], [ -121.939474, 39.5364839 ], [ -121.9564965, 39.5154367 ], [ -121.9488397, 39.4859354 ], [ -121.930081, 39.478511 ], [ -121.9300875, 39.4422309 ], [ -121.9119555, 39.4347913 ], [ -121.9108876, 39.3928918 ], [ -121.8914171, 39.3928206 ], [ -121.8839344, 39.3738811 ], [ -121.8927849, 39.3619863 ], [ -121.8685733, 39.3613479 ], [ -121.8359997, 39.3474027 ], [ -121.7988831, 39.3475165 ], [ -121.8078968, 39.3330168 ], [ -121.762736, 39.3331581 ], [ -121.7621925, 39.2894038 ], [ -121.7905823, 39.2494818 ], [ -121.7841332, 39.236734 ], [ -121.8100392, 39.222089 ], [ -121.7785729, 39.2145381 ], [ -121.766368, 39.1902693 ], [ -121.7348893, 39.1741113 ], [ -121.7358831, 39.1500676 ], [ -121.7680439, 39.1139098 ], [ -121.7408538, 39.0621131 ], [ -121.7274748, 39.0619553 ], [ -121.7275116, 39.0327429 ], [ -121.7197368, 39.0035491 ], [ -121.6862901, 39.0189804 ], [ -121.6896728, 39.0397658 ], [ -121.6890066, 39.1379347 ], [ -121.6984343, 39.1560347 ], [ -121.6974539, 39.2026806 ], [ -121.6652575, 39.2111688 ], [ -121.6476359, 39.2341449 ], [ -121.6284636, 39.2298945 ], [ -121.6356137, 39.2621848 ], [ -121.6221412, 39.2751904 ], [ -121.6238774, 39.2957592 ], [ -121.6220997, 39.3234216 ], [ -121.6329319, 39.3325788 ], [ -121.6261866, 39.3515742 ], [ -121.6463351, 39.3654026 ], [ -121.6157791, 39.4003849 ], [ -121.6367908, 39.4351773 ], [ -121.6354146, 39.4555046 ], [ -121.6156501, 39.4578127 ], [ -121.5806432, 39.4786496 ], [ -121.5770149, 39.5110638 ], [ -121.5461166, 39.5232767 ], [ -121.5443326, 39.5408322 ], [ -121.4968133, 39.5324873 ], [ -121.4839882, 39.5376691 ], [ -121.5008273, 39.5550549 ], [ -121.5310956, 39.6183619 ] ] ] } }
{ "type": "Feature", "properties": { "NAME": "South Oroville, Honcut Valley" , "WBA_ID": "12", "HydroRegio": "SAC", "uid": 13 }, "geometry": { "type": "Polygon", "coordinates": [ [ [ -121.474712, 39.3336072 ], [ -121.496218, 39.3405068 ], [ -121.5139812, 39.3642044 ], [ -121.5162878, 39.3952677 ], [ -121.5764557, 39.3939202 ], [ -121.5766238, 39.4363315 ], [ -121.5849422, 39.4531619 ], [ -121.5400808, 39.4911655 ], [ -121.5461166, 39.5232767 ], [ -121.5770149, 39.5110638 ], [ -121.5806432, 39.4786496 ], [ -121.6156501, 39.4578127 ], [ -121.6354146, 39.4555046 ], [ -121.6367908, 39.4351773 ], [ -121.6157791, 39.4003849 ], [ -121.6463351, 39.3654026 ], [ -121.6261866, 39.3515742 ], [ -121.6329319, 39.3325788 ], [ -121.6220997, 39.3234216 ], [ -121.6238774, 39.2957592 ], [ -121.616794, 39.3123309 ], [ -121.5936611, 39.3076375 ], [ -121.5493297, 39.3088394 ], [ -121.5183376, 39.3184353 ], [ -121.5016017, 39.3165896 ], [ -121.4875777, 39.3176421 ], [ -121.474712, 39.3336072 ] ] ] } }
{ "type": "Feature", "properties": { "NAME": "Palermo, Honcut Foothills" , "WBA_ID": "13", "HydroRegio": "SAC", "uid": 14 }, "geometry": { "type": "Polygon", "coordinates": [ [ [ -121.4839882, 39.5376691 ], [ -121.4968133, 39.5324873 ], [ -121.5443326, 39.5408322 ], [ -121.5461166, 39.5232767 ], [ -121.5400808, 39.4911655 ], [ -121.5849422, 39.4531619 ], [ -121.5766238, 39.4363315 ], [ -121.5764557, 39.3939202 ], [ -121.5162878, 39.3952677 ], [ -121.5139812, 39.3642044 ], [ -121.496218, 39.3405068 ], [ -121.474712, 39.3336072 ], [ -121.4483412, 39.3305868 ], [ -121.4084925, 39.3378543 ], [ -121.3708304, 39.3675496 ], [ -121.3742399, 39.3946549 ], [ -121.3857265, 39.4189625 ], [ -121.3556724, 39.4437595 ], [ -121.3495497, 39.4591071 ], [ -121.3894913, 39.5068529 ], [ -121.4171333, 39.5094213 ], [ -121.428554, 39.5206258 ], [ -121.4636917, 39.5119864 ], [ -121.4684316, 39.5331863 ], [ -121.4839882, 39.5376691 ] ] ] } }
{ "type": "Feature", "properties": { "NAME": "Browns Valley, Yuba Foothills" , "WBA_ID": "14", "HydroRegio": "SAC", "uid": 15 }, "geometry": { "type": "Polygon", "coordinates": [ [ [ -121.3558282, 39.1825088 ], [ -121.344355, 39.2005469 ], [ -121.3162523, 39.2009637 ], [ -121.3091298, 39.1863507 ], [ -121.2836173, 39.1903966 ], [ -121.2317348, 39.1849621 ], [ -121.2278495, 39.2059367 ], [ -121.2637281, 39.2131226 ], [ -121.2673206, 39.2351305 ], [ -121.2923269, 39.2463506 ], [ -121.2829275, 39.2958409 ], [ -121.2875043, 39.3245336 ], [ -121.3186757, 39.3207845 ], [ -121.3384004, 39.3502476 ], [ -121.3708304, 39.3675496 ], [ -121.4084925, 39.3378543 ], [ -121.4483412, 39.3305868 ], [ -121.474712, 39.3336072 ], [ -121.4875777, 39.3176421 ], [ -121.4461368, 39.3231239 ], [ -121.4878157, 39.2866232 ], [ -121.522941, 39.2868133 ], [ -121.4974673, 39.2504777 ], [ -121.4646974, 39.2477295 ], [ -121.4644812, 39.2143343 ], [ -121.4472761, 39.206997 ], [ -121.4268575, 39.2134675 ], [ -121.4228643, 39.182137 ], [ -121.4040272, 39.1761192 ], [ -121.3919828, 39.1945329 ], [ -121.3678232, 39.198527 ], [ -121.3558282, 39.1825088 ] ] ] } }
{ "type": "Feature", "properties": { "NAME": "Marysville; Yuba, North" , "WBA_ID": "15N", "HydroRegio": "SAC", "uid": 16 }, "geometry": { "type": "Polygon", "coordinates": [ [ [ -121.4472761, 39.206997 ], [ -121.4644812, 39.2143343 ], [ -121.4646974, 39.2477295 ], [ -121.4974673, 39.2504777 ], [ -121.522941, 39.2868133 ], [ -121.4878157, 39.2866232 ], [ -121.4461368, 39.3231239 ], [ -121.4875777, 39.3176421 ], [ -121.5016017, 39.3165896 ], [ -121.5183376, 39.3184353 ], [ -121.5493297, 39.3088394 ], [ -121.5936611, 39.3076375 ], [ -121.616794, 39.3123309 ], [ -121.6238774, 39.2957592 ], [ -121.6221412, 39.2751904 ], [ -121.6356137, 39.2621848 ], [ -121.6284636, 39.2298945 ], [ -121.6139453, 39.2146959 ], [ -121.6237546, 39.1958497 ], [ -121.5976129, 39.1276443 ], [ -121.5783816, 39.1375755 ], [ -121.5535589, 39.1648945 ], [ -121.5223962, 39.1810044 ], [ -121.4840187, 39.1894738 ], [ -121.4472761, 39.206997 ] ] ] } }
{ "type": "Feature", "properties": { "NAME": "Wheatland; Yuba, South" , "WBA_ID": "15S", "HydroRegio": "SAC", "uid": 17 }, "geometry": { "type": "Polygon", "coordinates": [ [ [ -121.3558282, 39.1825088 ], [ -121.3678232, 39.198527 ], [ -121.3919828, 39.1945329 ], [ -121.4040272, 39.1761192 ], [ -121.4228643, 39.182137 ], [ -121.4268575, 39.2134675 ], [ -121.4472761, 39.206997 ], [ -121.4840187, 39.1894738 ], [ -121.5223962, 39.1810044 ], [ -121.5535589, 39.1648945 ], [ -121.5783816, 39.1375755 ], [ -121.5976129, 39.1276443 ], [ -121.6010781, 39.0995945 ], [ -121.5857306, 39.0896778 ], [ -121.6101225, 39.0563885 ], [ -121.6077436, 39.0381945 ], [ -121.5798777, 39.004379 ], [ -121.5892007, 38.990904 ], [ -121.58038, 38.9610976 ], [ -121.5755186, 38.9183407 ], [ -121.5713316, 38.9389332 ], [ -121.5434615, 38.9724014 ], [ -121.5090608, 38.982649 ], [ -121.4149464, 38.9966322 ], [ -121.4187403, 39.0142013 ], [ -121.3626518, 39.0553244 ], [ -121.342924, 39.0779944 ], [ -121.3467815, 39.1068513 ], [ -121.3631958, 39.1305151 ], [ -121.38787, 39.1354854 ], [ -121.3743325, 39.173998 ], [ -121.3558282, 39.1825088 ] ] ] } }
{ "type": "Feature", "properties": { "NAME": "Yuba City" , "WBA_ID": "16", "HydroRegio": "SAC", "uid": 18 }, "geometry": { "type": "Polygon", "coordinates": [ [ [ -121.6284636, 39.2298945 ], [ -121.6476359, 39.2341449 ], [ -121.6652575, 39.2111688 ], [ -121.6974539, 39.2026806 ], [ -121.6984343, 39.1560347 ], [ -121.6890066, 39.1379347 ], [ -121.6896728, 39.0397658 ], [ -121.6862901, 39.0189804 ], [ -121.7197368, 39.0035491 ], [ -121.7103936, 38.9909126 ], [ -121.6741536, 38.9682076 ], [ -121.6275821, 38.925433 ], [ -121.6111012, 38.8832704 ], [ -121.5824692, 38.9003594 ], [ -121.5755186, 38.9183407 ], [ -121.58038, 38.9610976 ], [ -121.5892007, 38.990904 ], [ -121.5798777, 39.004379 ], [ -121.6077436, 39.0381945 ], [ -121.6101225, 39.0563885 ], [ -121.5857306, 39.0896778 ], [ -121.6010781, 39.0995945 ], [ -121.5976129, 39.1276443 ], [ -121.6237546, 39.1958497 ], [ -121.6139453, 39.2146959 ], [ -121.6284636, 39.2298945 ] ] ] } }
{ "type": "Feature", "properties": { "NAME": "Sutter Buttes, North; Butte Sink " , "WBA_ID": "17N", "HydroRegio": "SAC", "uid": 19 }, "geometry": { "type": "Polygon", "coordinates": [ [ [ -121.8100392, 39.222089 ], [ -121.7841332, 39.236734 ], [ -121.7905823, 39.2494818 ], [ -121.7621925, 39.2894038 ], [ -121.762736, 39.3331581 ], [ -121.8078968, 39.3330168 ], [ -121.7988831, 39.3475165 ], [ -121.8359997, 39.3474027 ], [ -121.8685733, 39.3613479 ], [ -121.8927849, 39.3619863 ], [ -121.9081883, 39.3013648 ], [ -121.9481006, 39.2420369 ], [ -121.9299232, 39.2040582 ], [ -121.9016496, 39.2026358 ], [ -121.8100392, 39.222089 ] ] ] } }
{ "type": "Feature", "properties": { "NAME": "Sutter Buttes, South; Sutter Bypass " , "WBA_ID": "17S", "HydroRegio": "SAC", "uid": 20 }, "geometry": { "type": "Polygon", "coordinates": [ [ [ -121.7197368, 39.0035491 ], [ -121.7275116, 39.0327429 ], [ -121.7274748, 39.0619553 ], [ -121.7408538, 39.0621131 ], [ -121.7680439, 39.1139098 ], [ -121.7358831, 39.1500676 ], [ -121.7348893, 39.1741113 ], [ -121.766368, 39.1902693 ], [ -121.7785729, 39.2145381 ], [ -121.8100392, 39.222089 ], [ -121.9016496, 39.2026358 ], [ -121.9299232, 39.2040582 ], [ -121.9299714, 39.1974978 ], [ -121.8857121, 39.1564692 ], [ -121.864665, 39.1554617 ], [ -121.7720209, 39.1003051 ], [ -121.7422194, 39.030088 ], [ -121.7457175, 39.0265113 ], [ -121.7303154, 38.9926292 ], [ -121.6813731, 38.9581065 ], [ -121.6462156, 38.925391 ], [ -121.6357282, 38.8853237 ], [ -121.6629851, 38.8268248 ], [ -121.6551195, 38.783896 ], [ -121.675814, 38.760247 ], [ -121.6348227, 38.7672738 ], [ -121.6212197, 38.7844721 ], [ -121.6400033, 38.8238266 ], [ -121.6111012, 38.8832704 ], [ -121.6275821, 38.925433 ], [ -121.6741536, 38.9682076 ], [ -121.7103936, 38.9909126 ], [ -121.7197368, 39.0035491 ] ] ] } }
{ "type": "Feature", "properties": { "NAME": "Meridian" , "WBA_ID": "18", "HydroRegio": "SAC", "uid": 21 }, "geometry": { "type": "Polygon", "coordinates": [ [ [ -121.9299714, 39.1974978 ], [ -121.9372249, 39.1936053 ], [ -121.9449072, 39.1796799 ], [ -121.9204773, 39.1412647 ], [ -121.8936564, 39.0775286 ], [ -121.8702554, 39.066597 ], [ -121.8383049, 39.0632482 ], [ -121.8382887, 39.0444471 ], [ -121.8223144, 39.0248815 ], [ -121.7457175, 39.0265113 ], [ -121.7422194, 39.030088 ], [ -121.7720209, 39.1003051 ], [ -121.864665, 39.1554617 ], [ -121.8857121, 39.1564692 ], [ -121.9299714, 39.1974978 ] ] ] } }
{ "type": "Feature", "properties": { "NAME": "Robbins" , "WBA_ID": "19", "HydroRegio": "SAC", "uid": 22 }, "geometry": { "type": "Polygon", "coordinates": [ [ [ -121.675814, 38.760247 ], [ -121.6551195, 38.783896 ], [ -121.6629851, 38.8268248 ], [ -121.6357282, 38.8853237 ], [ -121.6462156, 38.925391 ], [ -121.6813731, 38.9581065 ], [ -121.7303154, 38.9926292 ], [ -121.7457175, 39.0265113 ], [ -121.8223144, 39.0248815 ], [ -121.8177635, 38.9889087 ], [ -121.8404197, 38.9545255 ], [ -121.8292732, 38.9188343 ], [ -121.8050891, 38.9151197 ], [ -121.8097409, 38.8723741 ], [ -121.7709207, 38.8616135 ], [ -121.7490457, 38.8716806 ], [ -121.7240796, 38.8504417 ], [ -121.7311976, 38.8355566 ], [ -121.7215467, 38.8021926 ], [ -121.6956229, 38.796417 ], [ -121.675814, 38.760247 ] ] ] } }
{ "type": "Feature", "properties": { "NAME": "Davis, Woodland" , "WBA_ID": "20", "HydroRegio": "SAC", "uid": 23 }, "geometry": { "type": "Polygon", "coordinates": [ [ [ -121.7092526, 38.7197416 ], [ -121.7429315, 38.7288489 ], [ -121.7618646, 38.7206073 ], [ -121.8038871, 38.7338139 ], [ -121.8076382, 38.7236728 ], [ -121.8388887, 38.7124077 ], [ -121.8491196, 38.7294639 ], [ -121.8768237, 38.7215375 ], [ -121.9113075, 38.7245413 ], [ -121.9149497, 38.7508514 ], [ -121.9702101, 38.7662295 ], [ -121.9700379, 38.7948928 ], [ -122.0477132, 38.7956262 ], [ -122.1006581, 38.7999311 ], [ -122.127458, 38.7873095 ], [ -122.1383081, 38.8040989 ], [ -122.1516743, 38.8463847 ], [ -122.1741681, 38.8487005 ], [ -122.1970634, 38.8955378 ], [ -122.2309267, 38.9246654 ], [ -122.2878139, 38.9243661 ], [ -122.2740565, 38.907077 ], [ -122.2888336, 38.8729703 ], [ -122.2872859, 38.840056 ], [ -122.2582579, 38.7892534 ], [ -122.2487438, 38.7549986 ], [ -122.2364343, 38.7423341 ], [ -122.2191071, 38.6957106 ], [ -122.1826818, 38.658162 ], [ -122.1666922, 38.6556609 ], [ -122.1591221, 38.6355151 ], [ -122.1347634, 38.604837 ], [ -122.1046252, 38.513577 ], [ -122.0571211, 38.5173805 ], [ -122.037415, 38.4985968 ], [ -122.0124312, 38.488944 ], [ -121.9404336, 38.5332156 ], [ -121.9074117, 38.5298885 ], [ -121.8858837, 38.5387693 ], [ -121.8485911, 38.5366105 ], [ -121.7688417, 38.5174433 ], [ -121.6953416, 38.5168525 ], [ -121.6955323, 38.5018772 ], [ -121.6584833, 38.5014809 ], [ -121.6394844, 38.5196756 ], [ -121.6857891, 38.5205981 ], [ -121.6751237, 38.5464673 ], [ -121.6380485, 38.5634542 ], [ -121.6571123, 38.5602479 ], [ -121.6563834, 38.5893963 ], [ -121.6650934, 38.6038546 ], [ -121.7115846, 38.6039405 ], [ -121.7092526, 38.7197416 ] ] ] } }
{ "type": "Feature", "properties": { "NAME": "Fremont Landing, Yolo Bypass" , "WBA_ID": "21", "HydroRegio": "SAC", "uid": 24 }, "geometry": { "type": "Polygon", "coordinates": [ [ [ -121.675814, 38.760247 ], [ -121.6956229, 38.796417 ], [ -121.7215467, 38.8021926 ], [ -121.7285269, 38.7961176 ], [ -121.7290261, 38.7634581 ], [ -121.6911859, 38.7354791 ], [ -121.7092526, 38.7197416 ], [ -121.7115846, 38.6039405 ], [ -121.6650934, 38.6038546 ], [ -121.6563834, 38.5893963 ], [ -121.6571123, 38.5602479 ], [ -121.6380485, 38.5634542 ], [ -121.6112024, 38.5732154 ], [ -121.5826483, 38.5747008 ], [ -121.5385537, 38.5888976 ], [ -121.5062721, 38.5872361 ], [ -121.5088847, 38.5970526 ], [ -121.5404971, 38.6006219 ], [ -121.5613061, 38.6156261 ], [ -121.5640905, 38.6393532 ], [ -121.5974419, 38.6464853 ], [ -121.6296479, 38.6763751 ], [ -121.6342665, 38.6917035 ], [ -121.6055679, 38.7196192 ], [ -121.5932246, 38.7638738 ], [ -121.6212197, 38.7844721 ], [ -121.6348227, 38.7672738 ], [ -121.675814, 38.760247 ] ] ] } }
{ "type": "Feature", "properties": { "NAME": "Natomas, Pleasant Grove" , "WBA_ID": "22", "HydroRegio": "SAC", "uid": 25 }, "geometry": { "type": "Polygon", "coordinates": [ [ [ -121.4900661, 38.7345275 ], [ -121.4975718, 38.7740568 ], [ -121.5297527, 38.8312596 ], [ -121.5788346, 38.848655 ], [ -121.582341, 38.8634305 ], [ -121.5601195, 38.8942189 ], [ -121.5713316, 38.9389332 ], [ -121.5755186, 38.9183407 ], [ -121.5824692, 38.9003594 ], [ -121.6111012, 38.8832704 ], [ -121.6400033, 38.8238266 ], [ -121.6212197, 38.7844721 ], [ -121.5932246, 38.7638738 ], [ -121.6055679, 38.7196192 ], [ -121.6342665, 38.6917035 ], [ -121.6296479, 38.6763751 ], [ -121.5974419, 38.6464853 ], [ -121.5640905, 38.6393532 ], [ -121.5613061, 38.6156261 ], [ -121.5404971, 38.6006219 ], [ -121.5236029, 38.6212998 ], [ -121.5544194, 38.6474833 ], [ -121.5398909, 38.6851406 ], [ -121.4934641, 38.6854522 ], [ -121.4844864, 38.704324 ], [ -121.4900661, 38.7345275 ] ] ] } }
{ "type": "Feature", "properties": { "NAME": "Camp Far West, Sutter" , "WBA_ID": "23", "HydroRegio": "SAC", "uid": 26 }, "geometry": { "type": "Polygon", "coordinates": [ [ [ -121.3159537, 39.0499086 ], [ -121.342924, 39.0779944 ], [ -121.3626518, 39.0553244 ], [ -121.4187403, 39.0142013 ], [ -121.4149464, 38.9966322 ], [ -121.5090608, 38.982649 ], [ -121.5434615, 38.9724014 ], [ -121.5713316, 38.9389332 ], [ -121.5601195, 38.8942189 ], [ -121.582341, 38.8634305 ], [ -121.5788346, 38.848655 ], [ -121.5297527, 38.8312596 ], [ -121.4975718, 38.7740568 ], [ -121.4900661, 38.7345275 ], [ -121.4697879, 38.7515636 ], [ -121.4698091, 38.7733392 ], [ -121.4500662, 38.7733838 ], [ -121.4498486, 38.8135252 ], [ -121.4331368, 38.8246493 ], [ -121.4333571, 38.8454911 ], [ -121.4119523, 38.8680715 ], [ -121.4123445, 38.9131935 ], [ -121.4067309, 38.9361884 ], [ -121.3756708, 38.9403548 ], [ -121.3839672, 38.9629851 ], [ -121.4044059, 38.9768959 ], [ -121.3753792, 39.0056512 ], [ -121.3402539, 39.0138426 ], [ -121.3498283, 39.0325366 ], [ -121.3159537, 39.0499086 ] ] ] } }
{ "type": "Feature", "properties": { "NAME": "Lincoln, West Placer" , "WBA_ID": "24", "HydroRegio": "SAC", "uid": 27 }, "geometry": { "type": "Polygon", "coordinates": [ [ [ -121.1379406, 38.7670713 ], [ -121.1155028, 38.7946295 ], [ -121.1135661, 38.8213733 ], [ -121.0994926, 38.8730607 ], [ -121.075319, 38.8718929 ], [ -121.0533602, 38.9252494 ], [ -121.0537136, 38.9380859 ], [ -121.0084644, 38.9668352 ], [ -121.0456364, 38.9917334 ], [ -121.0858336, 39.0042889 ], [ -121.1228781, 39.0069138 ], [ -121.1323938, 38.9870456 ], [ -121.1848653, 38.9890963 ], [ -121.2486741, 39.0061503 ], [ -121.286661, 39.0107509 ], [ -121.3159537, 39.0499086 ], [ -121.3498283, 39.0325366 ], [ -121.3402539, 39.0138426 ], [ -121.3753792, 39.0056512 ], [ -121.4044059, 38.9768959 ], [ -121.3839672, 38.9629851 ], [ -121.3756708, 38.9403548 ], [ -121.4067309, 38.9361884 ], [ -121.4123445, 38.9131935 ], [ -121.4119523, 38.8680715 ], [ -121.4333571, 38.8454911 ], [ -121.4331368, 38.8246493 ], [ -121.4498486, 38.8135252 ], [ -121.4500662, 38.7733838 ], [ -121.4414469, 38.7516048 ], [ -121.3585375, 38.7517606 ], [ -121.3585003, 38.7664993 ], [ -121.3956282, 38.775288 ], [ -121.4002482, 38.7952623 ], [ -121.3770123, 38.8098116 ], [ -121.3079669, 38.8101317 ], [ -121.3004615, 38.7956992 ], [ -121.2684229, 38.7931656 ], [ -121.2656391, 38.77959 ], [ -121.2199781, 38.7667167 ], [ -121.1379406, 38.7670713 ] ] ] } }
{ "type": "Feature", "properties": { "NAME": "Sacramento, North" , "WBA_ID": "26N", "HydroRegio": "SAC", "uid": 28 }, "geometry": { "type": "Polygon", "coordinates": [ [ [ -121.1379406, 38.7670713 ], [ -121.2199781, 38.7667167 ], [ -121.2656391, 38.77959 ], [ -121.2684229, 38.7931656 ], [ -121.3004615, 38.7956992 ], [ -121.3079669, 38.8101317 ], [ -121.3770123, 38.8098116 ], [ -121.4002482, 38.7952623 ], [ -121.3956282, 38.775288 ], [ -121.3585003, 38.7664993 ], [ -121.3585375, 38.7517606 ], [ -121.4414469, 38.7516048 ], [ -121.4500662, 38.7733838 ], [ -121.4698091, 38.7733392 ], [ -121.4697879, 38.7515636 ], [ -121.4900661, 38.7345275 ], [ -121.4844864, 38.704324 ], [ -121.4934641, 38.6854522 ], [ -121.5398909, 38.6851406 ], [ -121.5544194, 38.6474833 ], [ -121.5236029, 38.6212998 ], [ -121.5404971, 38.6006219 ], [ -121.5088847, 38.5970526 ], [ -121.4803816, 38.6010698 ], [ -121.4495194, 38.5908654 ], [ -121.4156151, 38.5598921 ], [ -121.3632453, 38.5696727 ], [ -121.3278948, 38.5858688 ], [ -121.3310857, 38.5965772 ], [ -121.3021689, 38.6142706 ], [ -121.3008968, 38.6267138 ], [ -121.2555505, 38.6385482 ], [ -121.2351339, 38.6322796 ], [ -121.1951407, 38.6456838 ], [ -121.1897571, 38.6758618 ], [ -121.167479, 38.6867714 ], [ -121.1565433, 38.707884 ], [ -121.1695059, 38.730976 ], [ -121.1508667, 38.7401618 ], [ -121.1379406, 38.7670713 ] ] ] } }
{ "type": "Feature", "properties": { "NAME": "Sacramento, South" , "WBA_ID": "26S", "HydroRegio": "SAC", "uid": 29 }, "geometry": { "type": "Polygon", "coordinates": [ [ [ -121.1415766, 38.6111514 ], [ -121.1129821, 38.6123969 ], [ -121.0830067, 38.6270251 ], [ -121.0949208, 38.6449168 ], [ -121.0840465, 38.6640176 ], [ -121.0968518, 38.7086044 ], [ -121.1341059, 38.6938779 ], [ -121.1565433, 38.707884 ], [ -121.167479, 38.6867714 ], [ -121.1897571, 38.6758618 ], [ -121.1951407, 38.6456838 ], [ -121.2351339, 38.6322796 ], [ -121.2555505, 38.6385482 ], [ -121.3008968, 38.6267138 ], [ -121.3021689, 38.6142706 ], [ -121.3310857, 38.5965772 ], [ -121.3278948, 38.5858688 ], [ -121.3632453, 38.5696727 ], [ -121.4156151, 38.5598921 ], [ -121.4495194, 38.5908654 ], [ -121.4803816, 38.6010698 ], [ -121.5088847, 38.5970526 ], [ -121.5062721, 38.5872361 ], [ -121.5193632, 38.5670977 ], [ -121.5103161, 38.5419357 ], [ -121.5209077, 38.5086588 ], [ -121.491736, 38.5003068 ], [ -121.4819174, 38.4379426 ], [ -121.4762596, 38.3678904 ], [ -121.4946236, 38.3430531 ], [ -121.44618, 38.3400193 ], [ -121.440811, 38.2903798 ], [ -121.4159757, 38.2833105 ], [ -121.4080154, 38.314849 ], [ -121.392334, 38.3312495 ], [ -121.3978449, 38.3444413 ], [ -121.3660849, 38.3538589 ], [ -121.3587492, 38.3697936 ], [ -121.3306681, 38.3926345 ], [ -121.3058774, 38.424046 ], [ -121.3017592, 38.4392229 ], [ -121.2739223, 38.4502269 ], [ -121.2815135, 38.4666751 ], [ -121.2633387, 38.4803237 ], [ -121.2380341, 38.4766944 ], [ -121.2042307, 38.5076018 ], [ -121.1957843, 38.5260507 ], [ -121.1706571, 38.5421394 ], [ -121.1762538, 38.5680753 ], [ -121.153522, 38.6074714 ], [ -121.1415766, 38.6111514 ] ] ] } }
{ "type": "Feature", "properties": { "NAME": "Elk Grove, Lodi" , "WBA_ID": "60N", "HydroRegio": "SJR", "uid": 30 }, "geometry": { "type": "Polygon", "coordinates": [ [ [ -121.0273563, 38.1159323 ], [ -121.0185623, 38.1456026 ], [ -120.9861618, 38.1473929 ], [ -120.9535274, 38.138486 ], [ -120.9392755, 38.1508583 ], [ -120.9067277, 38.1520946 ], [ -120.870119, 38.1808288 ], [ -120.8914785, 38.1999354 ], [ -120.9214725, 38.1909282 ], [ -120.9457538, 38.2056207 ], [ -120.9747332, 38.2042459 ], [ -121.018349, 38.2099207 ], [ -121.024434, 38.2208532 ], [ -120.9887183, 38.2596272 ], [ -120.976865, 38.2797748 ], [ -120.9344518, 38.2622751 ], [ -120.8975816, 38.2634617 ], [ -120.8869884, 38.2704718 ], [ -120.8876409, 38.2990656 ], [ -120.9295658, 38.3652691 ], [ -120.9636851, 38.3848233 ], [ -120.9501714, 38.4114814 ], [ -120.9575852, 38.4324274 ], [ -120.9241453, 38.427508 ], [ -120.8592157, 38.4560119 ], [ -120.8638113, 38.4717766 ], [ -120.8955248, 38.4657552 ], [ -120.9145846, 38.4755224 ], [ -120.9545648, 38.4767688 ], [ -120.9695643, 38.4644133 ], [ -121.014515, 38.4712607 ], [ -121.0466869, 38.4989332 ], [ -121.0391665, 38.5405665 ], [ -121.0876539, 38.547944 ], [ -121.1333074, 38.5606708 ], [ -121.1201888, 38.5864051 ], [ -121.1415766, 38.6111514 ], [ -121.153522, 38.6074714 ], [ -121.1762538, 38.5680753 ], [ -121.1706571, 38.5421394 ], [ -121.1957843, 38.5260507 ], [ -121.2042307, 38.5076018 ], [ -121.2380341, 38.4766944 ], [ -121.2633387, 38.4803237 ], [ -121.2815135, 38.4666751 ], [ -121.2739223, 38.4502269 ], [ -121.3017592, 38.4392229 ], [ -121.3058774, 38.424046 ], [ -121.3306681, 38.3926345 ], [ -121.3587492, 38.3697936 ], [ -121.3660849, 38.3538589 ], [ -121.3978449, 38.3444413 ], [ -121.392334, 38.3312495 ], [ -121.4080154, 38.314849 ], [ -121.4159757, 38.2833105 ], [ -121.40061, 38.2830707 ], [ -121.4014526, 38.2507035 ], [ -121.3820246, 38.2384066 ], [ -121.3772828, 38.2157626 ], [ -121.4067856, 38.2041904 ], [ -121.3993705, 38.181718 ], [ -121.3980012, 38.1224651 ], [ -121.3703367, 38.0803193 ], [ -121.3699556, 38.0652958 ], [ -121.351519, 38.0576094 ], [ -121.2103966, 38.0577691 ], [ -121.2141295, 38.0795531 ], [ -121.1148911, 38.0812286 ], [ -121.0851154, 38.0747002 ], [ -121.0640568, 38.0603331 ], [ -121.0389573, 38.0636761 ], [ -121.0549023, 38.1042036 ], [ -121.0273563, 38.1159323 ] ] ] } }
{ "type": "Feature", "properties": { "NAME": "Modesto, Oakdale, South San Joaquin" , "WBA_ID": "61", "HydroRegio": "SJR", "uid": 31 }, "geometry": { "type": "Polygon", "coordinates": [ [ [ -120.9062453, 37.8677139 ], [ -120.9254394, 37.8567757 ], [ -121.0078195, 37.8567567 ], [ -121.0074897, 37.8274175 ], [ -121.0346927, 37.8274349 ], [ -121.0661527, 37.8409296 ], [ -121.0993223, 37.8191181 ], [ -121.1079592, 37.8051607 ], [ -121.1349587, 37.8049912 ], [ -121.1443811, 37.8268896 ], [ -121.1910853, 37.8498401 ], [ -121.2655699, 37.8765199 ], [ -121.2646835, 37.8556619 ], [ -121.3012815, 37.8556104 ], [ -121.3031087, 37.8949655 ], [ -121.3034351, 37.8949785 ], [ -121.3017849, 37.8663646 ], [ -121.3078557, 37.8652332 ], [ -121.3105325, 37.8622279 ], [ -121.3073776, 37.8522151 ], [ -121.3130014, 37.8409428 ], [ -121.2864256, 37.841131 ], [ -121.2931449, 37.8195184 ], [ -121.3081751, 37.806616 ], [ -121.2870286, 37.7756641 ], [ -121.2704041, 37.7756011 ], [ -121.2696754, 37.753497 ], [ -121.2524609, 37.7253495 ], [ -121.2578998, 37.6994431 ], [ -121.2398491, 37.699713 ], [ -121.2564593, 37.6802882 ], [ -121.26536, 37.6760122 ], [ -121.2142454, 37.63191 ], [ -121.1924941, 37.6359267 ], [ -121.174445, 37.6059567 ], [ -121.1655787, 37.6142974 ], [ -121.1348103, 37.6028202 ], [ -121.1299944, 37.5879456 ], [ -121.1095455, 37.5815998 ], [ -121.0666027, 37.5871727 ], [ -121.0519964, 37.6081193 ], [ -121.016191, 37.6067141 ], [ -120.9983395, 37.6244406 ], [ -120.9172311, 37.6143545 ], [ -120.8749332, 37.6288307 ], [ -120.7990121, 37.614521 ], [ -120.7610037, 37.6354888 ], [ -120.7128539, 37.6361726 ], [ -120.6999223, 37.6439336 ], [ -120.640401, 37.6382802 ], [ -120.6027654, 37.6383963 ], [ -120.5886692, 37.6321253 ], [ -120.5229246, 37.627444 ], [ -120.5015902, 37.6381616 ], [ -120.4779842, 37.6681914 ], [ -120.4562009, 37.6648549 ], [ -120.4754307, 37.6965538 ], [ -120.496498, 37.7068529 ], [ -120.5166425, 37.7321659 ], [ -120.5521952, 37.7509768 ], [ -120.6099847, 37.7602409 ], [ -120.6279291, 37.7866598 ], [ -120.6157317, 37.8147879 ], [ -120.6457415, 37.843011 ], [ -120.6531304, 37.8356966 ], [ -120.7164854, 37.838515 ], [ -120.7436764, 37.8290117 ], [ -120.7845107, 37.833209 ], [ -120.8169428, 37.8672069 ], [ -120.8455058, 37.8722316 ], [ -120.8886617, 37.8639935 ], [ -120.9062453, 37.8677139 ] ] ] } }
{ "type": "Feature", "properties": { "NAME": "Turlock" , "WBA_ID": "62", "HydroRegio": "SJR", "uid": 32 }, "geometry": { "type": "Polygon", "coordinates": [ [ [ -120.4562009, 37.6648549 ], [ -120.4779842, 37.6681914 ], [ -120.5015902, 37.6381616 ], [ -120.5229246, 37.627444 ], [ -120.5886692, 37.6321253 ], [ -120.6027654, 37.6383963 ], [ -120.640401, 37.6382802 ], [ -120.6999223, 37.6439336 ], [ -120.7128539, 37.6361726 ], [ -120.7610037, 37.6354888 ], [ -120.7990121, 37.614521 ], [ -120.8749332, 37.6288307 ], [ -120.9172311, 37.6143545 ], [ -120.9983395, 37.6244406 ], [ -121.016191, 37.6067141 ], [ -121.0519964, 37.6081193 ], [ -121.0666027, 37.5871727 ], [ -121.1095455, 37.5815998 ], [ -121.1299944, 37.5879456 ], [ -121.1348103, 37.6028202 ], [ -121.1655787, 37.6142974 ], [ -121.174445, 37.6059567 ], [ -121.1791503, 37.5996155 ], [ -121.1529278, 37.5675583 ], [ -121.1303308, 37.5591168 ], [ -121.0977451, 37.5240732 ], [ -121.0789463, 37.4923377 ], [ -121.0500479, 37.4762941 ], [ -121.0223468, 37.4333646 ], [ -120.9869597, 37.4030474 ], [ -120.9768724, 37.3775671 ], [ -120.9756391, 37.3491055 ], [ -120.9470397, 37.3591695 ], [ -120.9079046, 37.3635612 ], [ -120.8512834, 37.3616283 ], [ -120.8287266, 37.3811233 ], [ -120.7986463, 37.3904962 ], [ -120.7711594, 37.3905092 ], [ -120.7146295, 37.4107144 ], [ -120.6906656, 37.4270319 ], [ -120.6665363, 37.4247013 ], [ -120.6124287, 37.4516839 ], [ -120.5927288, 37.4711666 ], [ -120.5541606, 37.472964 ], [ -120.5272237, 37.4663988 ], [ -120.4843853, 37.4765325 ], [ -120.4344432, 37.5202345 ], [ -120.3437681, 37.5083372 ], [ -120.3270825, 37.5231667 ], [ -120.3463337, 37.5493539 ], [ -120.3421797, 37.5569107 ], [ -120.3870657, 37.5882637 ], [ -120.3937719, 37.606611 ], [ -120.4298409, 37.6138094 ], [ -120.4607518, 37.6391753 ], [ -120.4562009, 37.6648549 ] ] ] } }
{ "type": "Feature", "properties": { "NAME": "Merced, El Nido, Stevenson" , "WBA_ID": "63", "HydroRegio": "SJR", "uid": 33 }, "geometry": { "type": "Polygon", "coordinates": [ [ [ -120.0514471, 37.1838588 ], [ -120.0703035, 37.1870369 ], [ -120.1023406, 37.2281706 ], [ -120.1229353, 37.2349899 ], [ -120.1375806, 37.2605361 ], [ -120.1303019, 37.2838426 ], [ -120.1880445, 37.315327 ], [ -120.1849507, 37.3348571 ], [ -120.1642406, 37.3495436 ], [ -120.1593145, 37.3687946 ], [ -120.1331233, 37.3820998 ], [ -120.131041, 37.4082283 ], [ -120.1765282, 37.4056074 ], [ -120.1769089, 37.3920976 ], [ -120.1983142, 37.3664456 ], [ -120.2146267, 37.363015 ], [ -120.2436852, 37.379329 ], [ -120.2731115, 37.3761959 ], [ -120.2994973, 37.3867756 ], [ -120.3372742, 37.3886748 ], [ -120.3198134, 37.4408389 ], [ -120.317941, 37.4623913 ], [ -120.2975987, 37.4753687 ], [ -120.3209506, 37.5030466 ], [ -120.3270825, 37.5231667 ], [ -120.3437681, 37.5083372 ], [ -120.4344432, 37.5202345 ], [ -120.4843853, 37.4765325 ], [ -120.5272237, 37.4663988 ], [ -120.5541606, 37.472964 ], [ -120.5927288, 37.4711666 ], [ -120.6124287, 37.4516839 ], [ -120.6665363, 37.4247013 ], [ -120.6906656, 37.4270319 ], [ -120.7146295, 37.4107144 ], [ -120.7711594, 37.3905092 ], [ -120.7986463, 37.3904962 ], [ -120.8287266, 37.3811233 ], [ -120.8512834, 37.3616283 ], [ -120.9079046, 37.3635612 ], [ -120.9470397, 37.3591695 ], [ -120.9756391, 37.3491055 ], [ -120.9356531, 37.3223354 ], [ -120.9224305, 37.3028875 ], [ -120.9004423, 37.2923988 ], [ -120.8530819, 37.2955671 ], [ -120.8177921, 37.2529012 ], [ -120.8197774, 37.2419486 ], [ -120.7764378, 37.2153072 ], [ -120.765226, 37.1813822 ], [ -120.7438547, 37.1553941 ], [ -120.7228151, 37.1505366 ], [ -120.6787882, 37.1536435 ], [ -120.6472495, 37.1400101 ], [ -120.6345046, 37.1180004 ], [ -120.5900528, 37.1128998 ], [ -120.5419365, 37.0442788 ], [ -120.4767804, 37.0964833 ], [ -120.4373146, 37.1045758 ], [ -120.4373189, 37.1272363 ], [ -120.4150289, 37.1563871 ], [ -120.3830474, 37.1563062 ], [ -120.3877745, 37.1855343 ], [ -120.331119, 37.1855386 ], [ -120.3108851, 37.1688057 ], [ -120.3110155, 37.1411645 ], [ -120.2273455, 37.1635217 ], [ -120.1877608, 37.1603016 ], [ -120.1531411, 37.1660909 ], [ -120.1063335, 37.1664814 ], [ -120.0514471, 37.1838588 ] ] ] } }
{ "type": "Feature", "properties": { "NAME": "Madera, Chowchilla, Gravelly Ford, Adobe" , "WBA_ID": "64", "HydroRegio": "SJR", "uid": 34 }, "geometry": { "type": "Polygon", "coordinates": [ [ [ -120.0514471, 37.1838588 ], [ -120.1063335, 37.1664814 ], [ -120.1531411, 37.1660909 ], [ -120.1877608, 37.1603016 ], [ -120.2273455, 37.1635217 ], [ -120.3110155, 37.1411645 ], [ -120.3108851, 37.1688057 ], [ -120.331119, 37.1855386 ], [ -120.3877745, 37.1855343 ], [ -120.3830474, 37.1563062 ], [ -120.4150289, 37.1563871 ], [ -120.4373189, 37.1272363 ], [ -120.4373146, 37.1045758 ], [ -120.4767804, 37.0964833 ], [ -120.5419365, 37.0442788 ], [ -120.531275, 37.0135061 ], [ -120.5125245, 37.0102864 ], [ -120.4994328, 36.9816926 ], [ -120.4848835, 36.9729248 ], [ -120.4756284, 36.9401742 ], [ -120.4589257, 36.9152349 ], [ -120.4666682, 36.8895762 ], [ -120.4565105, 36.8629263 ], [ -120.4280191, 36.8414336 ], [ -120.4092167, 36.8360006 ], [ -120.3683636, 36.8067546 ], [ -120.3698211, 36.7812973 ], [ -120.3686829, 36.7793862 ], [ -120.3585199, 36.7723511 ], [ -120.3124498, 36.7818878 ], [ -120.2841176, 36.7733269 ], [ -120.2334068, 36.7683053 ], [ -120.2176016, 36.7902439 ], [ -120.1888151, 36.77673 ], [ -120.1725473, 36.8030618 ], [ -120.1568037, 36.7980321 ], [ -120.1295847, 36.8116566 ], [ -120.0981011, 36.8151638 ], [ -120.0802371, 36.8252287 ], [ -120.0274933, 36.8146046 ], [ -120.0134555, 36.8281817 ], [ -119.941716, 36.8339573 ], [ -119.8841048, 36.8582415 ], [ -119.8478683, 36.8600669 ], [ -119.822637, 36.8481712 ], [ -119.78565, 36.881349 ], [ -119.7892072, 36.8964669 ], [ -119.7522422, 36.9205786 ], [ -119.7314958, 36.9965658 ], [ -119.7383046, 37.0213409 ], [ -119.7659073, 37.0211786 ], [ -119.7949993, 37.0068331 ], [ -119.802761, 37.0275869 ], [ -119.8410924, 37.0282065 ], [ -119.8610261, 37.0043631 ], [ -119.8782972, 37.0232782 ], [ -119.9009465, 37.0357538 ], [ -119.8932294, 37.0576355 ], [ -119.9082302, 37.0691732 ], [ -119.9380122, 37.0646942 ], [ -119.9563261, 37.0843331 ], [ -119.993707, 37.1369112 ], [ -120.0205846, 37.150639 ], [ -120.0514471, 37.1838588 ] ] ] } }
{ "type": "Feature", "properties": { "NAME": "Upper Delta-Mendota Canal" , "WBA_ID": "71", "HydroRegio": "SJR", "uid": 35 }, "geometry": { "type": "Polygon", "coordinates": [ [ [ -121.26536, 37.6760122 ], [ -121.2984835, 37.696936 ], [ -121.3157529, 37.6967079 ], [ -121.3414349, 37.6804781 ], [ -121.2876908, 37.6311664 ], [ -121.3715209, 37.6456438 ], [ -121.3707509, 37.6674302 ], [ -121.3886284, 37.681907 ], [ -121.4253216, 37.6813669 ], [ -121.4535619, 37.7114491 ], [ -121.4957745, 37.7294941 ], [ -121.5206003, 37.7460334 ], [ -121.5495073, 37.7455522 ], [ -121.5860482, 37.7755459 ], [ -121.6282167, 37.7950119 ], [ -121.577212, 37.7522554 ], [ -121.5640383, 37.7485722 ], [ -121.5403819, 37.7220021 ], [ -121.4976061, 37.7049397 ], [ -121.4896242, 37.6957884 ], [ -121.4480448, 37.6769569 ], [ -121.4370322, 37.663213 ], [ -121.3909402, 37.6413074 ], [ -121.387912, 37.6301468 ], [ -121.4068443, 37.6017733 ], [ -121.3935905, 37.5802006 ], [ -121.3508965, 37.5721967 ], [ -121.2757804, 37.5310871 ], [ -121.2453768, 37.5018779 ], [ -121.212774, 37.4870516 ], [ -121.179871, 37.4479926 ], [ -121.190226, 37.4328277 ], [ -121.1833166, 37.4097902 ], [ -121.1823607, 37.3648766 ], [ -121.1623634, 37.3565871 ], [ -121.1549364, 37.3347391 ], [ -121.1312505, 37.3264561 ], [ -121.1370162, 37.3030286 ], [ -121.1110794, 37.2831693 ], [ -121.1067515, 37.2625863 ], [ -121.1319977, 37.2501081 ], [ -121.1017118, 37.2242821 ], [ -121.0778425, 37.1938037 ], [ -121.0771303, 37.1666055 ], [ -121.0556489, 37.1360959 ], [ -121.0872875, 37.1257385 ], [ -121.0664199, 37.1061173 ], [ -121.015959, 37.1075344 ], [ -121.0153302, 37.1223927 ], [ -121.0329097, 37.1333435 ], [ -121.0314685, 37.1736067 ], [ -121.0500118, 37.1736745 ], [ -121.0674258, 37.2026362 ], [ -121.0653269, 37.2806267 ], [ -121.0442168, 37.3292176 ], [ -121.0493656, 37.3619682 ], [ -121.0673955, 37.3622034 ], [ -121.0722227, 37.3950108 ], [ -121.0962342, 37.427865 ], [ -121.0223468, 37.4333646 ], [ -121.0500479, 37.4762941 ], [ -121.0789463, 37.4923377 ], [ -121.0977451, 37.5240732 ], [ -121.1303308, 37.5591168 ], [ -121.1529278, 37.5675583 ], [ -121.1791503, 37.5996155 ], [ -121.174445, 37.6059567 ], [ -121.1924941, 37.6359267 ], [ -121.2142454, 37.63191 ], [ -121.26536, 37.6760122 ] ] ] } }
{ "type": "Feature", "properties": { "NAME": "Grasslands Ecological Area, Westside Exchange Contractor" , "WBA_ID": "72", "HydroRegio": "SJR", "uid": 36 }, "geometry": { "type": "Polygon", "coordinates": [ [ [ -121.0223468, 37.4333646 ], [ -121.0962342, 37.427865 ], [ -121.0722227, 37.3950108 ], [ -121.0673955, 37.3622034 ], [ -121.0493656, 37.3619682 ], [ -121.0442168, 37.3292176 ], [ -121.0653269, 37.2806267 ], [ -121.0674258, 37.2026362 ], [ -121.0500118, 37.1736745 ], [ -121.0314685, 37.1736067 ], [ -121.0329097, 37.1333435 ], [ -121.0153302, 37.1223927 ], [ -121.0070039, 37.0997345 ], [ -120.9921946, 37.0870605 ], [ -120.9469833, 37.0647007 ], [ -120.9177986, 37.0349455 ], [ -120.8727205, 37.028123 ], [ -120.8731942, 37.0129632 ], [ -120.8459879, 36.9996654 ], [ -120.8552248, 36.983799 ], [ -120.855744, 36.9519975 ], [ -120.8359338, 36.9260957 ], [ -120.8291969, 36.9259613 ], [ -120.828486, 36.9476176 ], [ -120.8091228, 36.9546591 ], [ -120.8000225, 36.9380515 ], [ -120.7736421, 36.9249711 ], [ -120.7563916, 36.9258181 ], [ -120.7444562, 36.9419027 ], [ -120.6901798, 36.9336492 ], [ -120.6648868, 36.9245887 ], [ -120.6179327, 36.9185474 ], [ -120.6092251, 36.8995408 ], [ -120.5377816, 36.8891668 ], [ -120.5085271, 36.8792873 ], [ -120.4062825, 36.8084202 ], [ -120.3888522, 36.7871867 ], [ -120.3698211, 36.7812973 ], [ -120.3683636, 36.8067546 ], [ -120.4092167, 36.8360006 ], [ -120.4280191, 36.8414336 ], [ -120.4565105, 36.8629263 ], [ -120.4666682, 36.8895762 ], [ -120.4589257, 36.9152349 ], [ -120.4756284, 36.9401742 ], [ -120.4848835, 36.9729248 ], [ -120.4994328, 36.9816926 ], [ -120.5125245, 37.0102864 ], [ -120.531275, 37.0135061 ], [ -120.5419365, 37.0442788 ], [ -120.5900528, 37.1128998 ], [ -120.6345046, 37.1180004 ], [ -120.6472495, 37.1400101 ], [ -120.6787882, 37.1536435 ], [ -120.7228151, 37.1505366 ], [ -120.7438547, 37.1553941 ], [ -120.765226, 37.1813822 ], [ -120.7764378, 37.2153072 ], [ -120.8197774, 37.2419486 ], [ -120.8177921, 37.2529012 ], [ -120.8530819, 37.2955671 ], [ -120.9004423, 37.2923988 ], [ -120.9224305, 37.3028875 ], [ -120.9356531, 37.3223354 ], [ -120.9756391, 37.3491055 ], [ -120.9768724, 37.3775671 ], [ -120.9869597, 37.4030474 ], [ -121.0223468, 37.4333646 ] ] ] } }
{ "type": "Feature", "properties": { "NAME": "Lower Delta-Mendota Canal; California Aqueduct, Joint Reach" , "WBA_ID": "73", "HydroRegio": "SJR", "uid": 37 }, "geometry": { "type": "MultiPolygon", "coordinates": [ [ [ [ -120.3698211, 36.7812973 ], [ -120.3888522, 36.7871867 ], [ -120.4062825, 36.8084202 ], [ -120.5085271, 36.8792873 ], [ -120.5377816, 36.8891668 ], [ -120.6092251, 36.8995408 ], [ -120.6179327, 36.9185474 ], [ -120.6648868, 36.9245887 ], [ -120.6901798, 36.9336492 ], [ -120.7444562, 36.9419027 ], [ -120.7563916, 36.9258181 ], [ -120.7736421, 36.9249711 ], [ -120.8000225, 36.9380515 ], [ -120.8091228, 36.9546591 ], [ -120.828486, 36.9476176 ], [ -120.8291969, 36.9259613 ], [ -120.7999206, 36.8900833 ], [ -120.7734907, 36.8359598 ], [ -120.7738027, 36.7996886 ], [ -120.7651563, 36.7924558 ], [ -120.778714, 36.7706281 ], [ -120.7476127, 36.7706423 ], [ -120.7296982, 36.7450654 ], [ -120.7116293, 36.7418665 ], [ -120.7110469, 36.7212654 ], [ -120.6940032, 36.6875893 ], [ -120.67577, 36.7065544 ], [ -120.6305846, 36.7277542 ], [ -120.6209329, 36.7783897 ], [ -120.5936002, 36.7927333 ], [ -120.4498734, 36.790699 ], [ -120.4206937, 36.7596775 ], [ -120.392283, 36.7698968 ], [ -120.3686829, 36.7793862 ], [ -120.3698211, 36.7812973 ] ] ], [ [ [ -120.9102912, 36.9545992 ], [ -120.8736444, 36.9549986 ], [ -120.8359338, 36.9260957 ], [ -120.855744, 36.9519975 ], [ -120.8552248, 36.983799 ], [ -120.8459879, 36.9996654 ], [ -120.8731942, 37.0129632 ], [ -120.8727205, 37.028123 ], [ -120.9177986, 37.0349455 ], [ -120.9469833, 37.0647007 ], [ -120.9921946, 37.0870605 ], [ -121.0070039, 37.0997345 ], [ -121.0153302, 37.1223927 ], [ -121.015959, 37.1075344 ], [ -121.0664199, 37.1061173 ], [ -121.0595522, 37.0853489 ], [ -121.0768537, 37.076563 ], [ -121.0648262, 37.0391269 ], [ -121.075223, 37.0181481 ], [ -121.0725698, 37.0024739 ], [ -121.0315283, 36.9857748 ], [ -121.0094573, 36.9935969 ], [ -120.9895029, 36.9881095 ], [ -120.9636282, 36.994241 ], [ -120.9466433, 36.9882439 ], [ -120.9096541, 36.9984448 ], [ -120.9102912, 36.9545992 ] ] ] ] } }
{ "type": "Feature", "properties": { "NAME": "Westlands Water District" , "WBA_ID": "90", "HydroRegio": "TLB", "uid": 38 }, "geometry": { "type": "Polygon", "coordinates": [ [ [ -120.392283, 36.7698968 ], [ -120.4206937, 36.7596775 ], [ -120.4498734, 36.790699 ], [ -120.5936002, 36.7927333 ], [ -120.6209329, 36.7783897 ], [ -120.6305846, 36.7277542 ], [ -120.67577, 36.7065544 ], [ -120.6940032, 36.6875893 ], [ -120.7031736, 36.6626956 ], [ -120.6653287, 36.6303124 ], [ -120.6904834, 36.6198602 ], [ -120.6676769, 36.579019 ], [ -120.6420719, 36.5835745 ], [ -120.5678776, 36.5490041 ], [ -120.5208186, 36.5212558 ], [ -120.4771881, 36.4734159 ], [ -120.4476776, 36.4145491 ], [ -120.4294316, 36.3917229 ], [ -120.3324402, 36.3239879 ], [ -120.3373388, 36.2961208 ], [ -120.3732422, 36.2673315 ], [ -120.3927752, 36.2668672 ], [ -120.4102588, 36.2526738 ], [ -120.4101541, 36.223488 ], [ -120.4270299, 36.2234966 ], [ -120.425797, 36.1249544 ], [ -120.4007069, 36.0932045 ], [ -120.3794392, 36.0931551 ], [ -120.343586, 36.0646634 ], [ -120.3431515, 36.0499853 ], [ -120.2541193, 36.0505625 ], [ -120.2538523, 36.0756928 ], [ -120.2267569, 36.0577591 ], [ -120.2000533, 36.0073471 ], [ -120.1647109, 36.0235807 ], [ -120.1868423, 36.0618341 ], [ -120.2002852, 36.0683095 ], [ -120.2003163, 36.0943065 ], [ -120.1466684, 36.1087844 ], [ -120.1469965, 36.0371654 ], [ -120.1647231, 36.0235495 ], [ -120.1646366, 35.9929633 ], [ -120.1467534, 35.9786729 ], [ -120.1643247, 35.9642647 ], [ -120.0040754, 35.9640816 ], [ -120.0219934, 35.9781728 ], [ -120.0214623, 36.0288941 ], [ -120.003282, 36.0144608 ], [ -119.9676323, 36.007357 ], [ -119.9677075, 36.0362889 ], [ -119.9226164, 36.0941476 ], [ -119.9096793, 36.0941591 ], [ -119.8801007, 36.1359827 ], [ -119.8695133, 36.2258449 ], [ -119.8722241, 36.2985447 ], [ -119.9051095, 36.2993676 ], [ -119.9052438, 36.3392963 ], [ -119.9232858, 36.3428911 ], [ -119.9591349, 36.3718508 ], [ -119.9590909, 36.3866686 ], [ -120.0219157, 36.3863934 ], [ -120.0041238, 36.4153316 ], [ -120.0312497, 36.4299811 ], [ -120.1007576, 36.4296665 ], [ -120.0850936, 36.4443321 ], [ -120.0850183, 36.4588975 ], [ -120.1210622, 36.4659594 ], [ -120.1163606, 36.4879287 ], [ -120.120353, 36.5314656 ], [ -120.1518261, 36.531359 ], [ -120.1520903, 36.5023778 ], [ -120.1703969, 36.502326 ], [ -120.1699128, 36.5313027 ], [ -120.1881136, 36.545599 ], [ -120.2067541, 36.545375 ], [ -120.2162681, 36.5597091 ], [ -120.2795502, 36.6027243 ], [ -120.2842735, 36.6175458 ], [ -120.3156014, 36.6393534 ], [ -120.3155799, 36.6613072 ], [ -120.3343577, 36.661359 ], [ -120.3515843, 36.6905865 ], [ -120.351083, 36.7196011 ], [ -120.3872937, 36.7200973 ], [ -120.392283, 36.7698968 ] ] ] } }
{ "type": "Feature", "properties": { "NAME": "Dixon, Vacaville" , "WBA_ID": "25", "HydroRegio": "SAC", "uid": 39 }, "geometry": { "type": "Polygon", "coordinates": [ [ [ -121.6394844, 38.5196756 ], [ -121.6584833, 38.5014809 ], [ -121.6955323, 38.5018772 ], [ -121.6953416, 38.5168525 ], [ -121.7688417, 38.5174433 ], [ -121.8485911, 38.5366105 ], [ -121.8858837, 38.5387693 ], [ -121.9074117, 38.5298885 ], [ -121.9404336, 38.5332156 ], [ -122.0124312, 38.488944 ], [ -122.037415, 38.4985968 ], [ -122.0571211, 38.5173805 ], [ -122.1046252, 38.513577 ], [ -122.1052825, 38.493062 ], [ -122.123755, 38.4479127 ], [ -122.1254908, 38.424373 ], [ -122.0863218, 38.3807438 ], [ -122.0598324, 38.3272905 ], [ -122.0362349, 38.3260801 ], [ -122.0290536, 38.3138453 ], [ -121.991177, 38.3039901 ], [ -121.9957122, 38.3252744 ], [ -121.9649461, 38.3285204 ], [ -121.9276753, 38.2941991 ], [ -121.8964728, 38.2940201 ], [ -121.8841044, 38.2810773 ], [ -121.8686215, 38.2275 ], [ -121.8698967, 38.204828 ], [ -121.8512587, 38.1881414 ], [ -121.8374454, 38.1625012 ], [ -121.8096676, 38.1420492 ], [ -121.8291616, 38.1158937 ], [ -121.845927, 38.1109589 ], [ -121.8421096, 38.0773132 ], [ -121.8044826, 38.0633023 ], [ -121.7405391, 38.0927706 ], [ -121.699937, 38.1278314 ], [ -121.683516, 38.1708298 ], [ -121.7131431, 38.1948369 ], [ -121.713575, 38.2076837 ], [ -121.7497332, 38.2274006 ], [ -121.7685548, 38.2275636 ], [ -121.8052413, 38.2423757 ], [ -121.841869, 38.250187 ], [ -121.8322432, 38.2716664 ], [ -121.804922, 38.2713326 ], [ -121.7867085, 38.285416 ], [ -121.7860052, 38.3072943 ], [ -121.7582381, 38.3073639 ], [ -121.739798, 38.3258173 ], [ -121.7486964, 38.3729285 ], [ -121.7761993, 38.3731154 ], [ -121.7760321, 38.3950205 ], [ -121.7488488, 38.4020013 ], [ -121.730094, 38.4240495 ], [ -121.7123237, 38.4601275 ], [ -121.6750847, 38.4668898 ], [ -121.6747554, 38.4160874 ], [ -121.6563813, 38.4159907 ], [ -121.6560598, 38.4597881 ], [ -121.6256135, 38.4598401 ], [ -121.6287002, 38.4827522 ], [ -121.6033428, 38.4824524 ], [ -121.605427, 38.500676 ], [ -121.6399402, 38.5004558 ], [ -121.6394844, 38.5196756 ] ] ] } }
{ "type": "Feature", "properties": { "NAME": "Stockton, Jenny Lind, Bachelor Valley" , "WBA_ID": "60S", "HydroRegio": "SJR", "uid": 40 }, "geometry": { "type": "Polygon", "coordinates": [ [ [ -121.0273563, 38.1159323 ], [ -121.0549023, 38.1042036 ], [ -121.0389573, 38.0636761 ], [ -121.0640568, 38.0603331 ], [ -121.0851154, 38.0747002 ], [ -121.1148911, 38.0812286 ], [ -121.2141295, 38.0795531 ], [ -121.2103966, 38.0577691 ], [ -121.351519, 38.0576094 ], [ -121.3421109, 38.0502844 ], [ -121.3461132, 38.021165 ], [ -121.325901, 38.0212302 ], [ -121.3088564, 37.9830336 ], [ -121.2953533, 37.9675082 ], [ -121.2888467, 37.9407202 ], [ -121.2961267, 37.9325049 ], [ -121.2860041, 37.9007781 ], [ -121.3034351, 37.8949785 ], [ -121.3031087, 37.8949655 ], [ -121.3012815, 37.8556104 ], [ -121.2646835, 37.8556619 ], [ -121.2655699, 37.8765199 ], [ -121.1910853, 37.8498401 ], [ -121.1443811, 37.8268896 ], [ -121.1349587, 37.8049912 ], [ -121.1079592, 37.8051607 ], [ -121.0993223, 37.8191181 ], [ -121.0661527, 37.8409296 ], [ -121.0346927, 37.8274349 ], [ -121.0074897, 37.8274175 ], [ -121.0078195, 37.8567567 ], [ -120.9254394, 37.8567757 ], [ -120.9062453, 37.8677139 ], [ -120.9297368, 37.8941215 ], [ -120.9337421, 37.9297884 ], [ -120.9060241, 37.9368685 ], [ -120.8898025, 37.9645474 ], [ -120.8858088, 37.9875229 ], [ -120.8628934, 37.9979881 ], [ -120.8623799, 38.0205366 ], [ -120.8949737, 38.0166174 ], [ -120.9190529, 38.0566883 ], [ -120.945025, 38.0829847 ], [ -120.9634115, 38.0680035 ], [ -121.0002696, 38.0681499 ], [ -120.9971815, 38.0908178 ], [ -121.0273563, 38.1159323 ] ] ] } }
{ "type": "Feature", "properties": { "NAME": "" , "WBA_ID": "50", "HydroRegio": "SJR", "uid": 41 }, "geometry": { "type": "Polygon", "coordinates": [ [ [ -121.26536, 37.6760122 ], [ -121.2577621, 37.6827439 ], [ -121.2753575, 37.7006018 ], [ -121.2647568, 37.7214153 ], [ -121.2899997, 37.7156441 ], [ -121.3082535, 37.7663599 ], [ -121.4102384, 37.7789308 ], [ -121.4218705, 37.7939862 ], [ -121.4500543, 37.8047734 ], [ -121.4661888, 37.8027263 ], [ -121.4834288, 37.7827285 ], [ -121.4966445, 37.7820659 ], [ -121.5549284, 37.8163792 ], [ -121.5619264, 37.8525152 ], [ -121.5794571, 37.8691139 ], [ -121.5670579, 37.9167608 ], [ -121.6683877, 37.9184991 ], [ -121.6932995, 37.9256165 ], [ -121.7206544, 37.892873 ], [ -121.6895769, 37.8960917 ], [ -121.6521065, 37.8742638 ], [ -121.6279741, 37.848309 ], [ -121.6279891, 37.8241278 ], [ -121.6141674, 37.8029805 ], [ -121.6282167, 37.7950119 ], [ -121.5860482, 37.7755459 ], [ -121.5495073, 37.7455522 ], [ -121.5206003, 37.7460334 ], [ -121.4957745, 37.7294941 ], [ -121.4535619, 37.7114491 ], [ -121.4253216, 37.6813669 ], [ -121.3886284, 37.681907 ], [ -121.3707509, 37.6674302 ], [ -121.3715209, 37.6456438 ], [ -121.2876908, 37.6311664 ], [ -121.3414349, 37.6804781 ], [ -121.3157529, 37.6967079 ], [ -121.2984835, 37.696936 ], [ -121.26536, 37.6760122 ] ] ] } }
